Timestamp,Location,Current conditions,temperature,feels like,High,Low,Precipitation (%),Relative Humidity (%),Barometer (atm),Dew Point,Visibility (Miles),(Wind Direction),Wind Speed (mph)
Wed Feb  3 08:17:28 2010," US and USA, AZ and Arizona, Phoenix, 85001",Cloudy,60,60,70,53,70,63,29.69 Steady ,47,9,WSW,3
Wed Feb  3 09:03:59 2010," US and USA, AZ and Arizona, Phoenix, 85001",Cloudy,59,59,70,53,70,64,29.68 Steady ,46,9,WSW,4
Wed Feb  3 09:47:48 2010," US and USA, AZ and Arizona, Phoenix, 85001",Cloudy,57,57,70,54,70,64,29.67 Steady ,45,10,SW,4
Wed Feb  3 10:31:13 2010," US and USA, AZ and Arizona, Phoenix, 85001",Cloudy,56,56,65,51,70,67,29.66 Falling ,45,10,SW,5
Wed Feb  3 11:18:05 2010," US and USA, AZ and Arizona, Phoenix, 85001",Cloudy,58,58,65,51,70,56,29.64 Falling Rapidly ,42,10,W,5
Wed Feb  3 12:02:49 2010," US and USA, AZ and Arizona, Phoenix, 85001",Cloudy,58,58,65,51,70,58,29.64 Steady ,43,9,WSW,4
Wed Feb  3 12:46:01 2010," US and USA, AZ and Arizona, Phoenix, 85001",Cloudy,56,56,65,51,70,65,29.63 Steady ,44,10,SW,4
Wed Feb  3 13:29:44 2010," US and USA, AZ and Arizona, Phoenix, 85001",Cloudy,55,55,65,51,70,67,29.62 Falling ,44,10,CALM,0
Wed Feb  3 14:15:52 2010," US and USA, AZ and Arizona, Phoenix, 85001",Cloudy,55,55,65,51,70,64,29.62 Steady ,43,10,SW,3
Wed Feb  3 15:01:52 2010," US and USA, AZ and Arizona, Phoenix, 85001",Cloudy,55,55,65,51,70,66,29.62 Steady ,44,9,SW,4
Wed Feb  3 15:46:40 2010," US and USA, AZ and Arizona, Phoenix, 85001",Cloudy,55,55,65,51,70,62,29.62 Steady ,42,9,E,1
Wed Feb  3 16:32:33 2010," US and USA, AZ and Arizona, Phoenix, 85001",Mostly Cloudy,54,54,65,51,70,66,29.62 Steady ,43,10,CALM,0
Wed Feb  3 17:19:43 2010," US and USA, AZ and Arizona, Phoenix, 85001",Mostly Cloudy,57,57,65,51,70,57,29.64 Rising Rapidly ,42,10,SSW,3
Wed Feb  3 18:08:01 2010," US and USA, AZ and Arizona, Phoenix, 85001",Cloudy,60,60,65,51,70,52,29.64 Steady ,42,10,SSW,4
Wed Feb  3 18:51:09 2010," US and USA, AZ and Arizona, Phoenix, 85001",Mostly Cloudy,62,62,64,51,70,48,29.65 Steady ,41,10,SW,5
Wed Feb  3 19:35:25 2010," US and USA, AZ and Arizona, Phoenix, 85001",Mostly Cloudy,63,63,65,51,70,43,29.65 Steady ,40,10,S,1
Wed Feb  3 20:19:29 2010," US and USA, AZ and Arizona, Phoenix, 85001",Mostly Cloudy,67,67,65,51,70,32,29.63 Falling Rapidly ,36,10,ESE,6
Wed Feb  3 21:03:48 2010," US and USA, AZ and Arizona, Phoenix, 85001",Mostly Cloudy,69,69,65,51,70,31,29.63 Steady ,37,10,SE,7
Wed Feb  3 21:51:53 2010," US and USA, AZ and Arizona, Phoenix, 85001",Mostly Cloudy,69,69,68,51,70,30,29.62 Steady ,37,10,S,1
Wed Feb  3 22:37:25 2010," US and USA, AZ and Arizona, Phoenix, 85001",Mostly Cloudy,70,70,68,51,30,29,29.60 Steady ,37,9,SSW,5
Wed Feb  3 23:28:21 2010," US and USA, AZ and Arizona, Phoenix, 85001",Mostly Cloudy,70,70,68,51,30,30,29.60 Steady ,37,10,SSE,8
Thu Feb  4 00:13:17 2010," US and USA, AZ and Arizona, Phoenix, 85001",Mostly Cloudy,69,69,68,51,30,33,29.61 Rising ,39,10,SSE,8
Thu Feb  4 00:57:19 2010," US and USA, AZ and Arizona, Phoenix, 85001",Mostly Cloudy,68,68,68,51,30,36,29.61 Steady ,40,8,SSE,9
Thu Feb  4 01:40:37 2010," US and USA, AZ and Arizona, Phoenix, 85001",Mostly Cloudy,68,68,68,51,30,36,29.62 Steady ,40,8,S,7
Thu Feb  4 02:28:21 2010," US and USA, AZ and Arizona, Phoenix, 85001",Mostly Cloudy,68,68,68,51,30,36,29.64 Rising Rapidly ,40,10,S,6
Thu Feb  4 03:11:33 2010," US and USA, AZ and Arizona, Phoenix, 85001",Cloudy,66,66,68,51,30,40,29.64 Steady ,40,8,SSE,6
Thu Feb  4 03:56:00 2010," US and USA, AZ and Arizona, Phoenix, 85001",Cloudy,66,66,68,51,30,44,29.67 Steady ,43,8,NE,8
Thu Feb  4 04:39:16 2010," US and USA, AZ and Arizona, Phoenix, 85001",Cloudy,61,61,68,51,30,66,29.67 Steady ,50,9,SE,2
Thu Feb  4 05:22:38 2010," US and USA, AZ and Arizona, Phoenix, 85001",Mostly Cloudy,61,61,68,51,30,70,29.69 Rising Rapidly ,51,10,SE,8
Thu Feb  4 15:00:15 2010," US and USA, AZ and Arizona, Phoenix, 85001",Clear,50,48,69,51,20,84,29.84 Steady ,45,9,ESE,4
Thu Jan 28 15:39:53 2010," US and USA, AZ and Arizona, Phoenix, 85001",Cloudy,52,52,64,48,30,95,29.88 Steady ,50,5,SSE,6
Thu Jan 28 16:00:42 2010," US and USA, AZ and Arizona, Phoenix, 85001",Cloudy,52,52,64,48,30,95,29.88 Steady ,50,5,SSE,6
Thu Jan 28 16:50:00 2010," US and USA, AZ and Arizona, Phoenix, 85001",Cloudy,52,52,66,48,30,87,29.90 Steady ,48,10,SE,2
Thu Jan 28 17:14:14 2010," US and USA, AZ and Arizona, Phoenix, 85001",Cloudy,54,54,66,48,30,86,29.92 Rising Rapidly ,50,10,CALM,0
Thu Jan 28 17:30:15 2010," US and USA, AZ and Arizona, Phoenix, 85001",Cloudy,54,54,65,48,30,86,29.92 Rising Rapidly ,50,10,CALM,0
Fri Jan 29 08:42:27 2010," US and USA, AZ and Arizona, Phoenix, 85001",Mostly Cloudy,54,54,64,48,0,82,30.03 Steady ,49,10,ESE,7
Fri Jan 29 09:26:22 2010," US and USA, AZ and Arizona, Phoenix, 85001",Partly Cloudy,53,53,64,49,0,83,30.03 Steady ,48,10,ESE,8
Fri Jan 29 11:58:25 2010," US and USA, AZ and Arizona, Phoenix, 85001",Mostly Cloudy,52,52,69,48,0,85,30.04 Steady ,48,10,E,8
Fri Jan 29 12:43:07 2010," US and USA, AZ and Arizona, Phoenix, 85001",Mostly Cloudy,53,53,69,48,0,84,30.03 Steady ,48,10,E,5
Fri Jan 29 13:30:50 2010," US and USA, AZ and Arizona, Phoenix, 85001",Mostly Cloudy,53,53,69,48,0,83,30.02 Falling ,48,10,E,8
Fri Jan 29 14:18:40 2010," US and USA, AZ and Arizona, Phoenix, 85001",Partly Cloudy,51,51,69,48,0,89,30.03 Rising ,48,10,E,5
Fri Jan 29 15:03:28 2010," US and USA, AZ and Arizona, Phoenix, 85001",Partly Cloudy,51,51,69,48,0,89,30.03 Steady ,48,10,E,5
Fri Jan 29 15:49:00 2010," US and USA, AZ and Arizona, Phoenix, 85001",Partly Cloudy,51,51,69,48,0,90,30.03 Steady ,48,10,ESE,3
Fri Jan 29 16:36:49 2010," US and USA, AZ and Arizona, Phoenix, 85001",Partly Cloudy,51,51,69,48,0,89,30.05 Rising Rapidly ,48,10,E,3
Fri Jan 29 17:21:14 2010," US and USA, AZ and Arizona, Phoenix, 85001",Partly Cloudy,54,54,69,48,10,83,30.07 Rising Rapidly ,49,10,E,3
Fri Jan 29 18:09:42 2010," US and USA, AZ and Arizona, Phoenix, 85001",Partly Cloudy,57,57,69,48,10,74,30.07 Steady ,49,10,ENE,4
Fri Jan 29 18:54:41 2010," US and USA, AZ and Arizona, Phoenix, 85001",Partly Cloudy,58,58,68,48,0,66,30.09 Steady ,47,10,E,6
Fri Jan 29 19:46:40 2010," US and USA, AZ and Arizona, Phoenix, 85001",Partly Cloudy,60,60,66,47,0,62,30.09 Steady ,47,10,E,5
Fri Jan 29 20:44:29 2010," US and USA, AZ and Arizona, Phoenix, 85001",Mostly Cloudy,60,60,66,47,0,61,30.07 Steady ,46,10,CALM,0
Fri Jan 29 21:29:06 2010," US and USA, AZ and Arizona, Phoenix, 85001",Partly Cloudy,62,62,66,47,0,58,30.04 Falling Rapidly ,47,10,CALM,0
Fri Jan 29 22:15:43 2010," US and USA, AZ and Arizona, Phoenix, 85001",Partly Cloudy,64,64,66,47,0,50,30.01 Falling Rapidly ,45,10,CALM,0
Fri Jan 29 23:00:38 2010," US and USA, AZ and Arizona, Phoenix, 85001",Partly Cloudy,64,64,66,47,10,49,30.01 Steady ,44,10,WSW,1
Fri Jan 29 23:44:53 2010," US and USA, AZ and Arizona, Phoenix, 85001",Partly Cloudy,64,64,66,47,10,46,30.00 Steady ,42,10,CALM,0
Sat Jan 30 00:28:59 2010," US and USA, AZ and Arizona, Phoenix, 85001",Partly Cloudy,66,66,66,47,10,43,29.99 Falling ,43,10,ESE,3
Sat Jan 30 01:13:08 2010," US and USA, AZ and Arizona, Phoenix, 85001",Partly Cloudy,64,64,66,47,10,51,29.99 Steady ,46,7,ESE,4
Sat Jan 30 01:57:05 2010," US and USA, AZ and Arizona, Phoenix, 85001",Partly Cloudy,61,61,66,47,10,55,29.99 Steady ,45,6,SW,6
Sat Jan 30 02:41:23 2010," US and USA, AZ and Arizona, Phoenix, 85001",Partly Cloudy,61,61,66,47,10,53,29.99 Steady ,44,9,SW,4
Sat Jan 30 03:24:54 2010," US and USA, AZ and Arizona, Phoenix, 85001",Partly Cloudy,61,61,66,47,10,60,30.00 Rising ,47,10,CALM,0
Sat Jan 30 04:08:50 2010," US and USA, AZ and Arizona, Phoenix, 85001",Partly Cloudy,60,60,66,47,10,63,30.00 Steady ,47,9,CALM,0
Sat Jan 30 04:52:35 2010," US and USA, AZ and Arizona, Phoenix, 85001",Partly Cloudy,59,59,66,47,10,62,30.00 Steady ,46,9,CALM,0
Sat Jan 30 05:36:21 2010," US and USA, AZ and Arizona, Phoenix, 85001",Partly Cloudy,58,58,66,47,10,67,30.00 Steady ,47,9,NE,1
Sat Jan 30 06:20:26 2010," US and USA, AZ and Arizona, Phoenix, 85001",Partly Cloudy,58,58,66,47,10,67,30.00 Steady ,47,9,NE,1
Sat Jan 30 07:06:25 2010," US and USA, AZ and Arizona, Phoenix, 85001",Partly Cloudy,56,56,66,47,10,78,30.01 Steady ,49,9,ENE,1
Sat Jan 30 07:49:06 2010," US and USA, AZ and Arizona, Phoenix, 85001",Partly Cloudy,55,55,66,47,10,72,30.01 Steady ,46,10,ENE,5
Sat Jan 30 08:32:20 2010," US and USA, AZ and Arizona, Phoenix, 85001",Mostly Cloudy,53,53,66,47,10,74,30.00 Steady ,45,10,E,5
Sat Jan 30 11:14:06 2010," US and USA, AZ and Arizona, Phoenix, 85001",Partly Cloudy,52,52,71,47,10,77,30.00 Steady ,45,10,CALM,0
Sat Jan 30 12:01:56 2010," US and USA, AZ and Arizona, Phoenix, 85001",Partly Cloudy,52,52,71,47,10,77,30.00 Steady ,45,10,ESE,1
Sat Jan 30 12:45:33 2010," US and USA, AZ and Arizona, Phoenix, 85001",Partly Cloudy,52,52,71,47,10,75,29.99 Steady ,44,10,SE,6
Sat Jan 30 13:28:46 2010," US and USA, AZ and Arizona, Phoenix, 85001",Partly Cloudy,52,52,71,47,10,71,29.97 Falling Rapidly ,43,10,ESE,7
Sat Jan 30 14:12:58 2010," US and USA, AZ and Arizona, Phoenix, 85001",Partly Cloudy,51,51,71,47,10,72,29.97 Steady ,43,10,ESE,8
Sat Jan 30 14:57:14 2010," US and USA, AZ and Arizona, Phoenix, 85001",Partly Cloudy,50,50,71,47,10,71,29.97 Steady ,41,10,E,8
Sat Jan 30 15:42:52 2010," US and USA, AZ and Arizona, Phoenix, 85001",Mostly Cloudy,50,47,71,47,10,74,29.97 Steady ,42,10,E,7
Sat Jan 30 16:27:50 2010," US and USA, AZ and Arizona, Phoenix, 85001",Mostly Cloudy,50,47,71,47,10,74,29.97 Steady ,42,10,E,6
Sat Jan 30 17:12:17 2010," US and USA, AZ and Arizona, Phoenix, 85001",Mostly Cloudy,54,54,71,47,10,64,29.98 Steady ,42,10,ESE,1
Sat Jan 30 17:55:27 2010," US and USA, AZ and Arizona, Phoenix, 85001",Mostly Cloudy,58,58,71,47,10,51,30.00 Steady ,40,10,ENE,10
Sat Jan 30 18:39:27 2010," US and USA, AZ and Arizona, Phoenix, 85001",Mostly Cloudy,60,60,70,47,10,45,29.99 Steady ,38,10,E,12
Sat Jan 30 19:22:45 2010," US and USA, AZ and Arizona, Phoenix, 85001",Mostly Cloudy,60,60,69,48,10,42,29.99 Steady ,37,10,ENE,12
Sat Jan 30 20:07:00 2010," US and USA, AZ and Arizona, Phoenix, 85001",Mostly Cloudy,62,62,69,48,10,40,29.99 Steady ,37,10,ENE,12
Sat Jan 30 20:50:06 2010," US and USA, AZ and Arizona, Phoenix, 85001",Mostly Cloudy,63,63,69,48,10,36,29.97 Steady ,36,10,E,8
Sat Jan 30 21:33:52 2010," US and USA, AZ and Arizona, Phoenix, 85001",Mostly Cloudy,65,65,68,48,0,34,29.94 Steady ,36,10,E,7
Sat Jan 30 22:17:23 2010," US and USA, AZ and Arizona, Phoenix, 85001",Mostly Cloudy,65,65,68,48,0,34,29.92 Falling Rapidly ,36,10,SE,4
Sat Jan 30 23:02:49 2010," US and USA, AZ and Arizona, Phoenix, 85001",Mostly Cloudy,65,65,68,48,10,34,29.92 Steady ,36,10,SE,6
Sat Jan 30 23:47:43 2010," US and USA, AZ and Arizona, Phoenix, 85001",Mostly Cloudy,66,66,68,48,10,33,29.89 Steady ,36,10,E,13
Sun Jan 31 00:31:42 2010," US and USA, AZ and Arizona, Phoenix, 85001",Mostly Cloudy,67,67,68,48,10,32,29.88 Falling ,36,10,E,10
Sun Jan 31 01:22:09 2010," US and USA, AZ and Arizona, Phoenix, 85001",Partly Cloudy,67,67,68,48,10,32,29.88 Steady ,36,10,ESE,6
Sun Jan 31 02:06:09 2010," US and USA, AZ and Arizona, Phoenix, 85001",Partly Cloudy,65,65,68,48,10,36,29.88 Steady ,37,8,ESE,5
Sun Jan 31 02:49:33 2010," US and USA, AZ and Arizona, Phoenix, 85001",Partly Cloudy,65,65,68,48,10,38,29.89 Steady ,38,10,E,5
Sun Jan 31 03:33:28 2010," US and USA, AZ and Arizona, Phoenix, 85001",Mostly Clear,61,61,68,48,10,44,29.89 Steady ,39,8,E,4
Sun Jan 31 04:17:16 2010," US and USA, AZ and Arizona, Phoenix, 85001",Partly Cloudy,60,60,68,48,10,51,29.89 Steady ,42,10,ENE,3
Sun Jan 31 05:01:32 2010," US and USA, AZ and Arizona, Phoenix, 85001",Mostly Clear,57,57,68,48,10,60,29.89 Steady ,43,8,NE,4
Sun Jan 31 05:47:55 2010," US and USA, AZ and Arizona, Phoenix, 85001",Mostly Clear,56,56,68,48,10,75,29.89 Steady ,48,9,CALM,0
Sun Jan 31 06:32:46 2010," US and USA, AZ and Arizona, Phoenix, 85001",Mostly Clear,55,55,68,48,10,77,29.89 Steady ,48,8,WNW,1
Sun Jan 31 07:15:39 2010," US and USA, AZ and Arizona, Phoenix, 85001",Clear,56,56,68,48,10,57,29.90 Rising ,41,10,E,5
Sun Jan 31 08:02:22 2010," US and USA, AZ and Arizona, Phoenix, 85001",Clear,55,55,68,48,20,61,29.90 Steady ,42,9,E,5
Sun Jan 31 08:47:02 2010," US and USA, AZ and Arizona, Phoenix, 85001",Clear,51,51,68,48,20,73,29.89 Steady ,43,9,E,5
Sun Jan 31 09:30:17 2010," US and USA, AZ and Arizona, Phoenix, 85001",Clear,52,52,68,48,20,69,29.89 Steady ,42,10,ESE,3
Sun Jan 31 10:13:28 2010," US and USA, AZ and Arizona, Phoenix, 85001",Clear,51,51,68,48,20,68,29.88 Falling ,41,10,E,3
Sun Jan 31 10:57:16 2010," US and USA, AZ and Arizona, Phoenix, 85001",Clear,50,50,71,50,20,74,29.88 Steady ,42,9,ESE,4
Sun Jan 31 11:40:47 2010," US and USA, AZ and Arizona, Phoenix, 85001",Clear,49,49,71,50,20,78,29.88 Steady ,43,9,ESE,1
Sun Jan 31 12:24:22 2010," US and USA, AZ and Arizona, Phoenix, 85001",Clear,51,51,71,50,20,66,29.88 Steady ,40,10,CALM,0
Sun Jan 31 13:07:45 2010," US and USA, AZ and Arizona, Phoenix, 85001",Clear,49,49,71,50,20,74,29.88 Steady ,41,8,SSE,1
Sun Jan 31 13:51:22 2010," US and USA, AZ and Arizona, Phoenix, 85001",Partly Cloudy,49,49,71,50,20,80,29.88 Steady ,43,9,CALM,0
Sun Jan 31 14:34:10 2010," US and USA, AZ and Arizona, Phoenix, 85001",Partly Cloudy,47,47,71,50,20,80,29.89 Steady ,41,9,CALM,0
Sun Jan 31 15:18:16 2010," US and USA, AZ and Arizona, Phoenix, 85001",Mostly Cloudy,48,46,71,50,20,74,29.90 Rising ,40,10,E,5
Sun Jan 31 16:01:48 2010," US and USA, AZ and Arizona, Phoenix, 85001",Mostly Cloudy,48,45,71,50,20,77,29.90 Steady ,41,9,E,5
Sun Jan 31 16:51:35 2010," US and USA, AZ and Arizona, Phoenix, 85001",Mostly Cloudy,49,49,71,50,20,77,29.92 Rising Rapidly ,42,10,CALM,0
Sun Jan 31 17:35:13 2010," US and USA, AZ and Arizona, Phoenix, 85001",Mostly Cloudy,54,54,71,50,20,63,29.93 Steady ,42,10,CALM,0
Sun Jan 31 18:20:13 2010," US and USA, AZ and Arizona, Phoenix, 85001",Mostly Cloudy,56,56,71,50,10,57,29.94 Rising ,41,10,E,3
Sun Jan 31 19:04:01 2010," US and USA, AZ and Arizona, Phoenix, 85001",Mostly Cloudy,59,59,71,50,10,53,29.94 Steady ,42,10,E,3
Sun Jan 31 19:49:30 2010," US and USA, AZ and Arizona, Phoenix, 85001",Mostly Cloudy,63,63,69,50,10,41,29.94 Steady ,39,10,E,6
Sun Jan 31 20:32:19 2010," US and USA, AZ and Arizona, Phoenix, 85001",Mostly Cloudy,64,64,69,50,10,40,29.93 Steady ,39,10,NNE,4
Sun Jan 31 21:16:58 2010," US and USA, AZ and Arizona, Phoenix, 85001",Partly Cloudy,65,65,69,50,10,39,29.89 Falling Rapidly ,39,10,CALM,0
Sun Jan 31 21:59:45 2010," US and USA, AZ and Arizona, Phoenix, 85001",Partly Cloudy,65,65,68,50,10,37,29.89 Steady ,38,10,SW,1
Sun Jan 31 22:44:35 2010," US and USA, AZ and Arizona, Phoenix, 85001",Partly Cloudy,66,66,68,50,10,36,29.87 Steady ,38,10,CALM,0
Sun Jan 31 23:27:55 2010," US and USA, AZ and Arizona, Phoenix, 85001",Partly Cloudy,67,67,68,50,10,36,29.86 Falling ,39,10,CALM,0
Mon Feb  1 00:11:53 2010," US and USA, AZ and Arizona, Phoenix, 85001",Partly Cloudy,66,66,68,50,10,38,29.86 Steady ,40,10,CALM,0
Mon Feb  1 00:54:48 2010," US and USA, AZ and Arizona, Phoenix, 85001",Partly Cloudy,68,68,68,50,10,38,29.86 Steady ,41,8,SW,7
Mon Feb  1 01:41:05 2010," US and USA, AZ and Arizona, Phoenix, 85001",Partly Cloudy,67,67,68,50,10,38,29.86 Steady ,40,8,SW,6
Mon Feb  1 02:25:05 2010," US and USA, AZ and Arizona, Phoenix, 85001",Partly Cloudy,66,66,68,50,10,37,29.87 Rising ,39,10,W,6
Mon Feb  1 03:08:45 2010," US and USA, AZ and Arizona, Phoenix, 85001",Partly Cloudy,64,64,68,50,10,40,29.87 Steady ,39,9,W,6
Mon Feb  1 03:53:26 2010," US and USA, AZ and Arizona, Phoenix, 85001",Partly Cloudy,63,63,68,50,10,45,29.89 Steady ,41,8,W,7
Mon Feb  1 04:38:14 2010," US and USA, AZ and Arizona, Phoenix, 85001",Partly Cloudy,58,58,68,50,10,68,29.90 Steady ,48,8,SW,4
Mon Feb  1 05:21:23 2010," US and USA, AZ and Arizona, Phoenix, 85001",Partly Cloudy,58,58,68,50,10,67,29.92 Rising Rapidly ,47,10,SW,3
Mon Feb  1 06:06:17 2010," US and USA, AZ and Arizona, Phoenix, 85001",Partly Cloudy,57,57,68,50,10,72,29.92 Steady ,47,9,SSW,3
Mon Feb  1 06:49:26 2010," US and USA, AZ and Arizona, Phoenix, 85001",Partly Cloudy,56,56,68,50,10,64,29.92 Steady ,44,8,ENE,1
Mon Feb  1 07:33:16 2010," US and USA, AZ and Arizona, Phoenix, 85001",Partly Cloudy,56,56,68,50,10,61,29.92 Steady ,43,9,CALM,0
Mon Feb  1 08:16:41 2010," US and USA, AZ and Arizona, Phoenix, 85001",Partly Cloudy,55,55,68,50,10,64,29.92 Steady ,43,8,E,1
Mon Feb  1 09:00:09 2010," US and USA, AZ and Arizona, Phoenix, 85001",Mostly Cloudy,55,55,68,50,10,64,29.92 Steady ,43,8,NE,1
Mon Feb  1 09:43:06 2010," US and USA, AZ and Arizona, Phoenix, 85001",Mostly Cloudy,53,53,68,51,10,74,29.93 Steady ,45,9,E,5
Mon Feb  1 10:26:39 2010," US and USA, AZ and Arizona, Phoenix, 85001",Partly Cloudy,53,53,71,51,10,69,29.93 Steady ,43,10,ESE,3
Mon Feb  1 11:09:36 2010," US and USA, AZ and Arizona, Phoenix, 85001",Partly Cloudy,51,51,71,51,10,76,29.93 Steady ,44,9,ESE,5
Mon Feb  1 11:53:03 2010," US and USA, AZ and Arizona, Phoenix, 85001",Partly Cloudy,50,50,71,51,10,77,29.94 Steady ,43,10,E,5
Mon Feb  1 12:36:26 2010," US and USA, AZ and Arizona, Phoenix, 85001",Partly Cloudy,50,50,71,51,10,76,29.94 Steady ,43,10,E,4
Mon Feb  1 13:19:57 2010," US and USA, AZ and Arizona, Phoenix, 85001",Partly Cloudy,50,50,71,51,10,77,29.94 Steady ,43,10,ESE,3
Mon Feb  1 14:03:51 2010," US and USA, AZ and Arizona, Phoenix, 85001",Mostly Clear,48,47,71,51,10,81,29.94 Steady ,43,9,ESE,5
Mon Feb  1 14:48:54 2010," US and USA, AZ and Arizona, Phoenix, 85001",Mostly Clear,49,47,71,51,10,76,29.94 Steady ,42,10,ESE,6
Mon Feb  1 15:32:39 2010," US and USA, AZ and Arizona, Phoenix, 85001",Partly Cloudy,48,46,71,51,10,76,29.96 Steady ,41,10,E,5
Mon Feb  1 16:17:22 2010," US and USA, AZ and Arizona, Phoenix, 85001",Partly Cloudy,48,45,71,51,10,78,29.96 Steady ,41,9,E,5
Mon Feb  1 17:02:09 2010," US and USA, AZ and Arizona, Phoenix, 85001",Mostly Cloudy,50,50,71,51,10,72,29.96 Steady ,41,10,E,6
Mon Feb  1 17:45:57 2010," US and USA, AZ and Arizona, Phoenix, 85001",Mostly Cloudy,54,54,71,51,10,61,29.98 Steady ,41,10,E,6
Mon Feb  1 18:29:27 2010," US and USA, AZ and Arizona, Phoenix, 85001",Mostly Cloudy,55,55,71,51,10,59,29.99 Rising ,41,10,E,8
Mon Feb  1 19:13:13 2010," US and USA, AZ and Arizona, Phoenix, 85001",Mostly Cloudy,58,58,69,51,10,51,30.00 Rising ,40,10,ENE,7
Mon Feb  1 19:58:03 2010," US and USA, AZ and Arizona, Phoenix, 85001",Mostly Cloudy,60,60,69,51,10,47,30.00 Steady ,40,10,ENE,8
Mon Feb  1 20:44:28 2010," US and USA, AZ and Arizona, Phoenix, 85001",Mostly Cloudy,62,62,69,51,10,49,29.98 Steady ,42,10,E,6
Mon Feb  1 21:29:28 2010," US and USA, AZ and Arizona, Phoenix, 85001",Mostly Cloudy,63,63,67,51,10,43,29.94 Falling Rapidly ,40,10,CALM,0
Mon Feb  1 22:12:49 2010," US and USA, AZ and Arizona, Phoenix, 85001",Mostly Cloudy,63,63,67,51,10,42,29.94 Steady ,40,10,W,1
Mon Feb  1 22:56:09 2010," US and USA, AZ and Arizona, Phoenix, 85001",Mostly Cloudy,65,65,67,51,20,37,29.91 Steady ,38,10,W,1
Mon Feb  1 23:42:15 2010," US and USA, AZ and Arizona, Phoenix, 85001",Mostly Cloudy,64,64,67,51,20,34,29.90 Steady ,35,10,CALM,0
Tue Feb  2 00:29:09 2010," US and USA, AZ and Arizona, Phoenix, 85001",Cloudy,67,67,67,51,20,31,29.89 Falling ,35,10,WSW,5
Tue Feb  2 01:14:46 2010," US and USA, AZ and Arizona, Phoenix, 85001",Cloudy,66,66,67,51,20,32,29.89 Steady ,35,10,CALM,0
Tue Feb  2 01:57:53 2010," US and USA, AZ and Arizona, Phoenix, 85001",Cloudy,65,65,67,51,20,36,29.89 Steady ,37,8,CALM,0
Tue Feb  2 02:41:56 2010," US and USA, AZ and Arizona, Phoenix, 85001",Cloudy,64,64,67,51,20,39,29.89 Steady ,38,9,S,4
Tue Feb  2 03:25:27 2010," US and USA, AZ and Arizona, Phoenix, 85001",Mostly Cloudy,62,62,67,51,20,44,29.90 Rising ,40,10,SW,3
Tue Feb  2 04:09:14 2010," US and USA, AZ and Arizona, Phoenix, 85001",Mostly Cloudy,60,60,67,51,20,47,29.90 Steady ,40,9,SW,3
Tue Feb  2 04:52:47 2010," US and USA, AZ and Arizona, Phoenix, 85001",Mostly Cloudy,61,61,67,51,20,44,29.90 Steady ,39,9,CALM,0
Tue Feb  2 05:36:11 2010," US and USA, AZ and Arizona, Phoenix, 85001",Mostly Cloudy,61,61,67,51,20,41,29.89 Steady ,37,8,N,6
Tue Feb  2 06:19:28 2010," US and USA, AZ and Arizona, Phoenix, 85001",Mostly Cloudy,60,60,67,51,20,43,29.89 Steady ,38,7,N,6
Tue Feb  2 07:06:36 2010," US and USA, AZ and Arizona, Phoenix, 85001",Mostly Cloudy,56,56,67,51,20,66,29.89 Steady ,45,9,CALM,0
Tue Feb  2 07:49:35 2010," US and USA, AZ and Arizona, Phoenix, 85001",Mostly Cloudy,57,57,67,51,20,54,29.90 Steady ,40,10,CALM,0
Tue Feb  2 08:32:47 2010," US and USA, AZ and Arizona, Phoenix, 85001",Cloudy,56,56,67,51,20,59,29.90 Steady ,42,10,CALM,0
Tue Feb  2 09:16:17 2010," US and USA, AZ and Arizona, Phoenix, 85001",Cloudy,55,55,67,51,20,62,29.89 Falling ,42,10,E,3
Tue Feb  2 09:59:48 2010," US and USA, AZ and Arizona, Phoenix, 85001",Cloudy,55,55,67,51,20,62,29.89 Steady ,42,10,ESE,4
Tue Feb  2 10:43:23 2010," US and USA, AZ and Arizona, Phoenix, 85001",Cloudy,54,54,70,53,20,65,29.89 Steady ,42,10,CALM,0
Tue Feb  2 11:27:30 2010," US and USA, AZ and Arizona, Phoenix, 85001",Cloudy,52,52,70,53,20,71,29.88 Falling ,43,10,ESE,5
Tue Feb  2 12:11:31 2010," US and USA, AZ and Arizona, Phoenix, 85001",Cloudy,51,51,70,53,20,74,29.88 Steady ,43,9,ESE,4
Tue Feb  2 12:55:23 2010," US and USA, AZ and Arizona, Phoenix, 85001",Mostly Cloudy,53,53,70,53,20,69,29.87 Steady ,42,10,CALM,0
Tue Feb  2 13:38:45 2010," US and USA, AZ and Arizona, Phoenix, 85001",Mostly Cloudy,51,51,70,53,20,68,29.87 Steady ,41,10,CALM,0
Tue Feb  2 14:22:24 2010," US and USA, AZ and Arizona, Phoenix, 85001",Mostly Cloudy,52,52,70,53,20,74,29.87 Steady ,44,10,ESE,3
Tue Feb  2 15:06:46 2010," US and USA, AZ and Arizona, Phoenix, 85001",Mostly Cloudy,50,50,70,53,20,81,29.87 Steady ,45,9,ESE,4
Tue Feb  2 15:53:09 2010," US and USA, AZ and Arizona, Phoenix, 85001",Mostly Cloudy,53,53,70,53,20,62,29.87 Steady ,40,9,E,1
Tue Feb  2 16:45:39 2010," US and USA, AZ and Arizona, Phoenix, 85001",Mostly Cloudy,55,55,70,53,20,58,29.87 Steady ,40,10,ESE,5
Tue Feb  2 17:34:08 2010," US and USA, AZ and Arizona, Phoenix, 85001",Cloudy,59,59,70,53,20,48,29.87 Steady ,39,10,E,5
Tue Feb  2 18:18:43 2010," US and USA, AZ and Arizona, Phoenix, 85001",Mostly Cloudy,60,60,69,53,20,42,29.87 Steady ,37,10,E,5
Tue Feb  2 19:02:54 2010," US and USA, AZ and Arizona, Phoenix, 85001",Mostly Cloudy,64,64,69,53,20,37,29.87 Steady ,37,10,E,5
Tue Feb  2 19:52:18 2010," US and USA, AZ and Arizona, Phoenix, 85001",Mostly Cloudy,65,65,69,53,20,37,29.87 Steady ,37,10,E,9
Tue Feb  2 20:43:28 2010," US and USA, AZ and Arizona, Phoenix, 85001",Mostly Cloudy,67,67,69,53,20,32,29.84 Steady ,36,10,E,5
Tue Feb  2 21:30:18 2010," US and USA, AZ and Arizona, Phoenix, 85001",Mostly Cloudy,68,68,70,53,20,31,29.81 Falling Rapidly ,36,10,NE,4
Tue Feb  2 22:18:42 2010," US and USA, AZ and Arizona, Phoenix, 85001",Mostly Cloudy,71,71,70,53,20,28,29.78 Falling Rapidly ,36,10,E,6
Tue Feb  2 23:02:59 2010," US and USA, AZ and Arizona, Phoenix, 85001",Mostly Cloudy,71,71,70,53,60,27,29.78 Steady ,35,10,ESE,6
Tue Feb  2 23:48:18 2010," US and USA, AZ and Arizona, Phoenix, 85001",Mostly Cloudy,70,70,70,53,60,30,29.75 Steady ,37,9,CALM,0
Wed Feb  3 00:32:43 2010," US and USA, AZ and Arizona, Phoenix, 85001",Mostly Cloudy,71,71,70,53,60,32,29.74 Steady ,40,8,SSE,4
Wed Feb  3 01:19:53 2010," US and USA, AZ and Arizona, Phoenix, 85001",Mostly Cloudy,71,71,70,53,60,30,29.73 Falling ,38,10,E,3
Wed Feb  3 02:05:06 2010," US and USA, AZ and Arizona, Phoenix, 85001",Cloudy,69,69,70,53,60,34,29.73 Steady ,39,7,ESE,4
Wed Feb  3 02:53:23 2010," US and USA, AZ and Arizona, Phoenix, 85001",Mostly Cloudy,66,66,70,53,60,40,29.73 Steady ,41,7,NW,1
Wed Feb  3 03:40:12 2010," US and USA, AZ and Arizona, Phoenix, 85001",Mostly Cloudy,65,65,70,53,60,45,29.72 Steady ,44,8,CALM,0
Wed Feb  3 04:28:21 2010," US and USA, AZ and Arizona, Phoenix, 85001",Mostly Cloudy,63,63,70,53,60,56,29.73 Rising ,47,10,WSW,3
Wed Feb  3 05:15:12 2010," US and USA, AZ and Arizona, Phoenix, 85001",Cloudy,62,62,70,53,60,53,29.71 Falling Rapidly ,45,10,SW,5
Wed Feb  3 06:03:00 2010," US and USA, AZ and Arizona, Phoenix, 85001",Cloudy,61,61,70,53,60,58,29.71 Steady ,46,9,SSW,6
Thu Feb  4 06:05:29 2010," US and USA, AZ and Arizona, Phoenix, 85001",Mostly Cloudy,60,60,68,51,30,72,29.69 Steady ,51,10,SE,9
Thu Feb  4 06:48:33 2010," US and USA, AZ and Arizona, Phoenix, 85001",Mostly Cloudy,59,59,68,51,30,68,29.70 Steady ,48,9,SSE,11
Thu Feb  4 07:32:11 2010," US and USA, AZ and Arizona, Phoenix, 85001",Partly Cloudy,57,57,68,51,20,69,29.73 Rising Rapidly ,47,10,SE,9
Thu Feb  4 08:14:43 2010," US and USA, AZ and Arizona, Phoenix, 85001",Mostly Clear,55,55,68,51,20,75,29.73 Steady ,47,9,SSE,9
Thu Feb  4 08:58:23 2010," US and USA, AZ and Arizona, Phoenix, 85001",Mostly Clear,54,54,68,51,20,77,29.75 Steady ,47,9,SE,9
Thu Feb  4 09:42:19 2010," US and USA, AZ and Arizona, Phoenix, 85001",Mostly Clear,54,54,68,52,20,80,29.78 Steady ,48,10,E,7
Thu Feb  4 10:25:58 2010," US and USA, AZ and Arizona, Phoenix, 85001",Partly Cloudy,54,54,68,51,20,80,29.78 Steady ,48,10,ESE,3
Thu Feb  4 11:11:54 2010," US and USA, AZ and Arizona, Phoenix, 85001",Partly Cloudy,53,53,68,51,20,85,29.78 Steady ,49,9,NE,4
Thu Feb  4 11:55:25 2010," US and USA, AZ and Arizona, Phoenix, 85001",Mostly Clear,53,53,68,51,20,83,29.78 Steady ,48,10,ESE,7
Thu Feb  4 12:38:30 2010," US and USA, AZ and Arizona, Phoenix, 85001",Clear,51,51,68,51,20,86,29.80 Steady ,47,10,ESE,6
Thu Feb  4 13:22:35 2010," US and USA, AZ and Arizona, Phoenix, 85001",Clear,51,51,68,51,20,83,29.82 Rising Rapidly ,46,10,E,6
Thu Feb  4 14:07:24 2010," US and USA, AZ and Arizona, Phoenix, 85001",Clear,50,47,68,51,20,87,29.82 Steady ,46,9,ESE,7
Wed Feb  3 06:49:44 2010," US and USA, AZ and Arizona, Phoenix, 85001",Cloudy,60,60,70,53,60,64,29.71 Steady ,48,9,WSW,5
Wed Feb  3 07:34:12 2010," US and USA, CA and California, Los Angeles, 90001",Mostly Cloudy,56,56,64,51,10,82,29.79 Steady ,51,8,CALM,0
Wed Feb  3 08:17:22 2010," US and USA, CA and California, Los Angeles, 90001",Mostly Cloudy,56,56,64,51,10,82,29.79 Steady ,51,8,CALM,0
Wed Feb  3 09:03:51 2010," US and USA, CA and California, Los Angeles, 90001",Mostly Cloudy,54,54,64,51,10,89,29.79 Steady ,51,8,CALM,0
Wed Feb  3 09:47:40 2010," US and USA, CA and California, Los Angeles, 90001",Cloudy,55,55,64,51,10,87,29.79 Steady ,51,7,CALM,0
Wed Feb  3 10:31:05 2010," US and USA, CA and California, Los Angeles, 90001",Partly Cloudy,56,56,64,51,10,80,29.78 Falling ,50,7,CALM,0
Wed Feb  3 11:17:57 2010," US and USA, CA and California, Los Angeles, 90001",Clear,54,54,68,51,10,83,29.77 Falling ,49,6,CALM,0
Wed Feb  3 12:02:41 2010," US and USA, CA and California, Los Angeles, 90001",Clear,53,53,68,51,10,85,29.77 Steady ,48,6,CALM,0
Wed Feb  3 12:45:53 2010," US and USA, CA and California, Los Angeles, 90001",Clear,51,51,68,51,10,86,29.75 Steady ,48,6,CALM,0
Wed Feb  3 13:29:36 2010," US and USA, CA and California, Los Angeles, 90001",Clear,51,51,68,51,10,83,29.75 Steady ,46,8,CALM,0
Wed Feb  3 14:15:44 2010," US and USA, CA and California, Los Angeles, 90001",Clear,50,50,68,51,10,83,29.75 Steady ,45,7,CALM,0
Wed Feb  3 15:01:44 2010," US and USA, CA and California, Los Angeles, 90001",Clear,48,48,68,51,10,87,29.75 Steady ,45,6,CALM,0
Wed Feb  3 15:46:32 2010," US and USA, CA and California, Los Angeles, 90001",Sunny,49,49,68,51,10,85,29.75 Steady ,45,7,CALM,0
Wed Feb  3 16:32:25 2010," US and USA, CA and California, Los Angeles, 90001",Sunny,49,49,68,51,10,83,29.76 Rising ,44,7,CALM,0
Wed Feb  3 17:19:35 2010," US and USA, CA and California, Los Angeles, 90001",Sunny,51,51,68,51,10,77,29.77 Rising ,44,7,CALM,0
Wed Feb  3 18:07:53 2010," US and USA, CA and California, Los Angeles, 90001",Sunny,56,56,68,51,10,66,29.77 Steady ,45,9,CALM,0
Wed Feb  3 18:51:01 2010," US and USA, CA and California, Los Angeles, 90001",Sunny,60,60,69,51,0,60,29.79 Steady ,46,8,CALM,0
Wed Feb  3 19:35:16 2010," US and USA, CA and California, Los Angeles, 90001",Sunny,63,63,71,52,0,52,29.79 Steady ,45,8,WNW,1
Wed Feb  3 20:19:21 2010," US and USA, CA and California, Los Angeles, 90001",Sunny,64,64,71,52,0,46,29.78 Falling ,43,10,CALM,0
Wed Feb  3 21:03:40 2010," US and USA, CA and California, Los Angeles, 90001",Sunny,66,66,71,52,0,44,29.78 Steady ,44,10,WNW,1
Wed Feb  3 21:51:45 2010," US and USA, CA and California, Los Angeles, 90001",Sunny,67,67,68,52,0,54,29.76 Steady ,50,10,W,2
Wed Feb  3 22:37:18 2010," US and USA, CA and California, Los Angeles, 90001",Sunny,69,69,70,52,0,43,29.73 Steady ,45,9,WSW,5
Wed Feb  3 23:28:12 2010," US and USA, CA and California, Los Angeles, 90001",Sunny,68,68,70,52,10,39,29.71 Falling Rapidly ,42,10,CALM,0
Thu Feb  4 00:13:09 2010," US and USA, CA and California, Los Angeles, 90001",Sunny,68,68,70,52,10,45,29.72 Rising ,46,10,SW,3
Thu Feb  4 00:57:11 2010," US and USA, CA and California, Los Angeles, 90001",Sunny,67,67,70,52,10,49,29.72 Steady ,47,9,SSW,2
Thu Feb  4 01:40:29 2010," US and USA, CA and California, Los Angeles, 90001",Sunny,63,63,70,52,10,53,29.73 Steady ,46,8,CALM,0
Thu Feb  4 02:28:13 2010," US and USA, CA and California, Los Angeles, 90001",Sunny,63,63,70,52,10,56,29.74 Rising ,47,10,CALM,0
Thu Feb  4 03:11:25 2010," US and USA, CA and California, Los Angeles, 90001",Clear,60,60,70,52,10,66,29.74 Steady ,48,8,CALM,0
Thu Feb  4 03:55:52 2010," US and USA, CA and California, Los Angeles, 90001",Clear,60,60,70,52,10,64,29.76 Steady ,47,9,CALM,0
Thu Feb  4 04:39:08 2010," US and USA, CA and California, Los Angeles, 90001",Clear,59,59,70,52,10,80,29.81 Steady ,53,10,CALM,0
Thu Feb  4 05:22:30 2010," US and USA, CA and California, Los Angeles, 90001",Clear,59,59,70,52,10,78,29.83 Rising Rapidly ,52,10,CALM,0
Thu Feb  4 15:00:05 2010," US and USA, CA and California, Los Angeles, 90001",Cloudy,58,58,65,52,10,72,29.88 Steady ,49,8,ESE,4
Thu Jan 28 15:39:44 2010," US and USA, CA and California, Los Angeles, 90001",Sunny,51,51,71,50,0,70,29.97 Steady ,41,9,E,4
Thu Jan 28 16:00:33 2010," US and USA, CA and California, Los Angeles, 90001",Sunny,51,51,71,50,0,70,29.97 Steady ,41,9,E,4
Thu Jan 28 16:49:52 2010," US and USA, CA and California, Los Angeles, 90001",Sunny,51,51,71,50,0,72,29.99 Steady ,42,10,CALM,0
Thu Jan 28 17:14:05 2010," US and USA, CA and California, Los Angeles, 90001",Sunny,53,53,71,50,0,69,30.01 Rising Rapidly ,43,10,CALM,0
Thu Jan 28 17:30:06 2010," US and USA, CA and California, Los Angeles, 90001",Sunny,53,53,71,50,0,69,30.01 Rising Rapidly ,43,10,CALM,0
Fri Jan 29 08:42:19 2010," US and USA, CA and California, Los Angeles, 90001",Partly Cloudy,56,56,70,51,0,80,30.06 Steady ,50,9,CALM,0
Fri Jan 29 09:26:14 2010," US and USA, CA and California, Los Angeles, 90001",Partly Cloudy,57,57,70,51,0,72,30.05 Falling ,48,10,CALM,0
Fri Jan 29 11:58:16 2010," US and USA, CA and California, Los Angeles, 90001",Partly Cloudy,55,55,69,50,0,69,30.05 Steady ,45,10,CALM,0
Fri Jan 29 12:42:58 2010," US and USA, CA and California, Los Angeles, 90001",Clear,52,52,69,50,0,79,30.04 Steady ,45,10,CALM,0
Fri Jan 29 13:30:42 2010," US and USA, CA and California, Los Angeles, 90001",Clear,52,52,69,50,0,71,30.04 Steady ,43,10,CALM,0
Fri Jan 29 14:18:31 2010," US and USA, CA and California, Los Angeles, 90001",Partly Cloudy,50,50,69,50,0,77,30.04 Steady ,43,10,CALM,0
Fri Jan 29 15:03:19 2010," US and USA, CA and California, Los Angeles, 90001",Mostly Clear,50,50,69,50,0,77,30.04 Steady ,43,10,CALM,0
Fri Jan 29 15:48:52 2010," US and USA, CA and California, Los Angeles, 90001",Mostly Sunny,50,50,69,50,0,78,30.03 Steady ,43,10,ENE,1
Fri Jan 29 16:36:40 2010," US and USA, CA and California, Los Angeles, 90001",Partly Cloudy,52,52,69,50,0,63,30.05 Rising Rapidly ,40,10,CALM,0
Fri Jan 29 17:21:05 2010," US and USA, CA and California, Los Angeles, 90001",Sunny,54,54,69,50,0,59,30.05 Steady ,40,10,CALM,0
Fri Jan 29 18:09:34 2010," US and USA, CA and California, Los Angeles, 90001",Sunny,58,58,69,50,0,56,30.05 Steady ,43,10,CALM,0
Fri Jan 29 18:54:32 2010," US and USA, CA and California, Los Angeles, 90001",Partly Cloudy,61,61,68,50,0,50,30.06 Steady ,42,10,SSE,1
Fri Jan 29 19:46:32 2010," US and USA, CA and California, Los Angeles, 90001",Partly Cloudy,64,64,66,51,0,40,30.07 Steady ,39,10,NE,4
Fri Jan 29 20:44:21 2010," US and USA, CA and California, Los Angeles, 90001",Partly Cloudy,64,64,66,51,0,40,30.06 Steady ,40,10,SSE,1
Fri Jan 29 21:28:58 2010," US and USA, CA and California, Los Angeles, 90001",Partly Cloudy,66,66,67,51,0,38,30.03 Falling Rapidly ,40,10,CALM,0
Fri Jan 29 22:15:35 2010," US and USA, CA and California, Los Angeles, 90001",Partly Cloudy,67,67,66,51,0,37,30.01 Falling Rapidly ,40,10,CALM,0
Fri Jan 29 23:00:30 2010," US and USA, CA and California, Los Angeles, 90001",Partly Cloudy,67,67,66,51,0,38,30.01 Steady ,40,10,CALM,0
Fri Jan 29 23:44:45 2010," US and USA, CA and California, Los Angeles, 90001",Partly Cloudy,66,66,66,51,10,42,30.01 Steady ,42,9,WSW,1
Sat Jan 30 00:28:51 2010," US and USA, CA and California, Los Angeles, 90001",Partly Cloudy,66,66,66,51,10,45,30.00 Falling ,44,10,W,5
Sat Jan 30 01:12:59 2010," US and USA, CA and California, Los Angeles, 90001",Partly Cloudy,64,64,66,51,10,51,30.00 Steady ,45,8,W,6
Sat Jan 30 01:56:57 2010," US and USA, CA and California, Los Angeles, 90001",Partly Cloudy,63,63,66,51,10,55,30.00 Steady ,47,8,SW,1
Sat Jan 30 02:41:15 2010," US and USA, CA and California, Los Angeles, 90001",Mostly Clear,61,61,66,51,10,64,30.01 Steady ,49,10,CALM,0
Sat Jan 30 03:24:45 2010," US and USA, CA and California, Los Angeles, 90001",Partly Cloudy,60,60,66,51,10,69,30.01 Steady ,50,10,CALM,0
Sat Jan 30 04:08:41 2010," US and USA, CA and California, Los Angeles, 90001",Partly Cloudy,57,57,66,51,10,77,30.01 Steady ,50,8,NNE,1
Sat Jan 30 04:52:27 2010," US and USA, CA and California, Los Angeles, 90001",Clear,56,56,66,51,10,86,30.02 Steady ,52,7,CALM,0
Sat Jan 30 05:36:11 2010," US and USA, CA and California, Los Angeles, 90001",Clear,56,56,66,51,10,86,30.02 Steady ,52,6,CALM,0
Sat Jan 30 06:20:18 2010," US and USA, CA and California, Los Angeles, 90001",Clear,56,56,66,51,10,86,30.02 Steady ,52,6,CALM,0
Sat Jan 30 07:06:17 2010," US and USA, CA and California, Los Angeles, 90001",Clear,56,56,66,51,10,87,30.02 Steady ,52,5,CALM,0
Sat Jan 30 07:48:57 2010," US and USA, CA and California, Los Angeles, 90001",Clear,55,55,66,51,10,88,30.03 Steady ,51,5,CALM,0
Sat Jan 30 08:32:12 2010," US and USA, CA and California, Los Angeles, 90001",Clear,54,54,66,51,10,87,30.03 Steady ,50,5,CALM,0
Sat Jan 30 11:13:58 2010," US and USA, CA and California, Los Angeles, 90001",Mostly Cloudy,54,54,68,48,10,86,30.01 Falling ,50,5,CALM,0
Sat Jan 30 12:01:48 2010," US and USA, CA and California, Los Angeles, 90001",Cloudy,54,54,68,48,10,82,30.00 Falling ,48,6,CALM,0
Sat Jan 30 12:45:24 2010," US and USA, CA and California, Los Angeles, 90001",Partly Cloudy,53,53,68,48,10,84,30.00 Steady ,49,6,CALM,0
Sat Jan 30 13:28:38 2010," US and USA, CA and California, Los Angeles, 90001",Clear,52,52,68,48,10,83,29.99 Falling ,47,5,CALM,0
Sat Jan 30 14:12:49 2010," US and USA, CA and California, Los Angeles, 90001",Clear,52,52,68,48,10,84,29.99 Steady ,48,5,CALM,0
Sat Jan 30 14:57:06 2010," US and USA, CA and California, Los Angeles, 90001",Clear,52,52,68,48,10,80,29.98 Steady ,46,7,CALM,0
Sat Jan 30 15:42:44 2010," US and USA, CA and California, Los Angeles, 90001",Sunny,49,49,68,48,10,87,29.99 Steady ,46,5,CALM,0
Sat Jan 30 16:27:42 2010," US and USA, CA and California, Los Angeles, 90001",Sunny,50,50,68,48,10,87,29.99 Steady ,46,5,CALM,0
Sat Jan 30 17:12:09 2010," US and USA, CA and California, Los Angeles, 90001",Sunny,49,49,68,48,10,88,30.00 Steady ,46,5,CALM,0
Sat Jan 30 17:55:19 2010," US and USA, CA and California, Los Angeles, 90001",Mostly Cloudy,54,54,68,48,10,77,30.01 Steady ,46,6,CALM,0
Sat Jan 30 18:39:19 2010," US and USA, CA and California, Los Angeles, 90001",Mostly Cloudy,57,57,67,48,10,68,30.01 Steady ,47,7,CALM,0
Sat Jan 30 19:22:37 2010," US and USA, CA and California, Los Angeles, 90001",Partly Cloudy,59,59,66,48,10,67,30.01 Steady ,48,6,CALM,0
Sat Jan 30 20:06:53 2010," US and USA, CA and California, Los Angeles, 90001",Partly Cloudy,62,62,66,48,10,62,30.01 Steady ,49,7,W,1
Sat Jan 30 20:49:57 2010," US and USA, CA and California, Los Angeles, 90001",Mostly Sunny,63,63,66,48,10,62,30.00 Steady ,50,8,WSW,4
Sat Jan 30 21:33:44 2010," US and USA, CA and California, Los Angeles, 90001",Sunny,63,63,64,48,10,59,29.98 Steady ,48,7,W,4
Sat Jan 30 22:17:15 2010," US and USA, CA and California, Los Angeles, 90001",Partly Cloudy,63,63,64,48,10,58,29.95 Falling Rapidly ,48,10,CALM,0
Sat Jan 30 23:02:41 2010," US and USA, CA and California, Los Angeles, 90001",Partly Cloudy,63,63,64,48,10,58,29.95 Steady ,48,10,NW,1
Sat Jan 30 23:47:35 2010," US and USA, CA and California, Los Angeles, 90001",Mostly Sunny,63,63,64,48,10,58,29.94 Steady ,48,10,CALM,0
Sun Jan 31 00:31:34 2010," US and USA, CA and California, Los Angeles, 90001",Partly Cloudy,63,63,64,48,10,58,29.93 Falling ,48,10,SW,3
Sun Jan 31 01:22:01 2010," US and USA, CA and California, Los Angeles, 90001",Sunny,61,61,64,48,10,60,29.93 Steady ,47,10,CALM,0
Sun Jan 31 02:06:01 2010," US and USA, CA and California, Los Angeles, 90001",Sunny,58,58,64,48,10,67,29.93 Steady ,47,8,CALM,0
Sun Jan 31 02:49:25 2010," US and USA, CA and California, Los Angeles, 90001",Clear,57,57,64,48,10,73,29.94 Steady ,48,9,W,4
Sun Jan 31 03:33:20 2010," US and USA, CA and California, Los Angeles, 90001",Clear,55,55,64,48,10,79,29.94 Steady ,49,9,WNW,3
Sun Jan 31 04:17:08 2010," US and USA, CA and California, Los Angeles, 90001",Clear,56,56,64,48,10,77,29.94 Steady ,49,10,CALM,0
Sun Jan 31 05:01:24 2010," US and USA, CA and California, Los Angeles, 90001",Clear,54,54,64,48,10,83,29.94 Steady ,49,9,CALM,0
Sun Jan 31 05:47:47 2010," US and USA, CA and California, Los Angeles, 90001",Clear,54,54,64,48,10,82,29.94 Steady ,49,10,CALM,0
Sun Jan 31 06:32:39 2010," US and USA, CA and California, Los Angeles, 90001",Clear,54,54,64,48,10,83,29.94 Steady ,49,10,CALM,0
Sun Jan 31 07:15:31 2010," US and USA, CA and California, Los Angeles, 90001",Clear,54,54,64,48,10,83,29.94 Rising ,49,10,CALM,0
Sun Jan 31 08:02:14 2010," US and USA, CA and California, Los Angeles, 90001",Clear,53,53,64,48,10,84,29.94 Steady ,49,10,CALM,0
Sun Jan 31 08:46:54 2010," US and USA, CA and California, Los Angeles, 90001",Clear,52,52,64,48,10,84,29.95 Steady ,48,10,CALM,0
Sun Jan 31 09:30:09 2010," US and USA, CA and California, Los Angeles, 90001",Partly Cloudy,53,53,64,48,10,83,29.95 Steady ,48,10,CALM,0
Sun Jan 31 10:13:20 2010," US and USA, CA and California, Los Angeles, 90001",Clear,53,53,64,48,10,83,29.94 Falling ,48,8,CALM,0
Sun Jan 31 10:57:08 2010," US and USA, CA and California, Los Angeles, 90001",Clear,52,52,64,48,10,82,29.94 Steady ,47,8,CALM,0
Sun Jan 31 11:40:39 2010," US and USA, CA and California, Los Angeles, 90001",Clear,50,50,68,49,10,87,29.94 Steady ,47,6,CALM,0
Sun Jan 31 12:24:14 2010," US and USA, CA and California, Los Angeles, 90001",Clear,52,52,68,49,10,80,29.94 Steady ,46,7,CALM,0
Sun Jan 31 13:07:37 2010," US and USA, CA and California, Los Angeles, 90001",Clear,51,51,68,49,10,82,29.94 Steady ,46,7,CALM,0
Sun Jan 31 13:51:14 2010," US and USA, CA and California, Los Angeles, 90001",Clear,49,49,68,49,10,84,29.93 Steady ,45,6,CALM,0
Sun Jan 31 14:34:02 2010," US and USA, CA and California, Los Angeles, 90001",Clear,48,48,68,49,10,84,29.93 Steady ,44,7,CALM,0
Sun Jan 31 15:18:08 2010," US and USA, CA and California, Los Angeles, 90001",Clear,48,48,68,49,10,83,29.94 Rising ,43,6,CALM,0
Sun Jan 31 16:01:40 2010," US and USA, CA and California, Los Angeles, 90001",Sunny,48,48,68,49,10,84,29.94 Steady ,43,6,E,1
Sun Jan 31 16:51:27 2010," US and USA, CA and California, Los Angeles, 90001",Sunny,47,47,68,49,10,86,29.95 Rising ,43,5,CALM,0
Sun Jan 31 17:35:05 2010," US and USA, CA and California, Los Angeles, 90001",Sunny,52,52,67,49,10,78,29.96 Steady ,45,5,CALM,0
Sun Jan 31 18:20:05 2010," US and USA, CA and California, Los Angeles, 90001",Sunny,52,52,68,49,10,74,29.98 Rising Rapidly ,44,6,CALM,0
Sun Jan 31 19:03:52 2010," US and USA, CA and California, Los Angeles, 90001",Sunny,55,55,68,49,10,71,29.98 Steady ,46,6,CALM,0
Sun Jan 31 19:49:22 2010," US and USA, CA and California, Los Angeles, 90001",Sunny,60,60,66,49,10,62,29.99 Steady ,46,7,CALM,0
Sun Jan 31 20:32:12 2010," US and USA, CA and California, Los Angeles, 90001",Sunny,64,64,66,49,10,48,29.97 Steady ,44,8,CALM,0
Sun Jan 31 21:16:50 2010," US and USA, CA and California, Los Angeles, 90001",Sunny,64,64,67,49,10,46,29.93 Falling Rapidly ,43,8,CALM,0
Sun Jan 31 21:59:37 2010," US and USA, CA and California, Los Angeles, 90001",Sunny,65,65,67,49,10,43,29.93 Steady ,42,9,CALM,0
Sun Jan 31 22:44:27 2010," US and USA, CA and California, Los Angeles, 90001",Sunny,65,65,66,49,10,47,29.92 Steady ,44,6,WSW,1
Sun Jan 31 23:27:47 2010," US and USA, CA and California, Los Angeles, 90001",Sunny,66,66,66,49,10,52,29.90 Falling Rapidly ,48,8,W,5
Mon Feb  1 00:11:45 2010," US and USA, CA and California, Los Angeles, 90001",Sunny,64,64,66,49,10,56,29.90 Steady ,48,7,WNW,5
Mon Feb  1 00:54:40 2010," US and USA, CA and California, Los Angeles, 90001",Mostly Sunny,62,62,66,49,10,57,29.92 Steady ,47,8,WNW,5
Mon Feb  1 01:40:57 2010," US and USA, CA and California, Los Angeles, 90001",Partly Cloudy,61,61,66,49,10,61,29.92 Steady ,47,8,CALM,0
Mon Feb  1 02:24:57 2010," US and USA, CA and California, Los Angeles, 90001",Partly Cloudy,60,60,66,49,10,64,29.93 Rising ,48,8,WNW,3
Mon Feb  1 03:08:37 2010," US and USA, CA and California, Los Angeles, 90001",Partly Cloudy,58,58,66,49,10,70,29.93 Steady ,48,7,NW,3
Mon Feb  1 03:53:18 2010," US and USA, CA and California, Los Angeles, 90001",Clear,57,57,66,49,10,73,29.94 Steady ,49,9,CALM,0
Mon Feb  1 04:38:06 2010," US and USA, CA and California, Los Angeles, 90001",Clear,56,56,66,49,10,77,29.94 Steady ,49,10,CALM,0
Mon Feb  1 05:21:15 2010," US and USA, CA and California, Los Angeles, 90001",Clear,57,57,66,49,10,74,29.95 Rising ,49,10,CALM,0
Mon Feb  1 06:06:09 2010," US and USA, CA and California, Los Angeles, 90001",Clear,56,56,66,49,10,77,29.95 Steady ,49,10,CALM,0
Mon Feb  1 06:49:19 2010," US and USA, CA and California, Los Angeles, 90001",Partly Cloudy,56,56,66,49,10,79,29.95 Steady ,49,10,CALM,0
Mon Feb  1 07:33:08 2010," US and USA, CA and California, Los Angeles, 90001",Clear,55,55,66,49,10,79,29.95 Steady ,49,9,CALM,0
Mon Feb  1 08:16:33 2010," US and USA, CA and California, Los Angeles, 90001",Clear,55,55,66,49,10,80,29.95 Steady ,49,9,ESE,1
Mon Feb  1 09:00:01 2010," US and USA, CA and California, Los Angeles, 90001",Mostly Clear,55,55,66,49,10,79,29.95 Steady ,48,8,ESE,1
Mon Feb  1 09:42:58 2010," US and USA, CA and California, Los Angeles, 90001",Clear,55,55,66,49,10,79,29.96 Steady ,48,8,CALM,0
Mon Feb  1 10:26:31 2010," US and USA, CA and California, Los Angeles, 90001",Partly Cloudy,54,54,66,49,10,77,29.96 Steady ,47,7,CALM,0
Mon Feb  1 11:09:28 2010," US and USA, CA and California, Los Angeles, 90001",Partly Cloudy,53,53,66,49,10,80,29.96 Steady ,47,7,CALM,0
Mon Feb  1 11:52:55 2010," US and USA, CA and California, Los Angeles, 90001",Clear,51,51,66,51,10,84,29.96 Steady ,47,5,CALM,0
Mon Feb  1 12:36:18 2010," US and USA, CA and California, Los Angeles, 90001",Clear,51,51,66,51,10,87,29.96 Steady ,47,5,CALM,0
Mon Feb  1 13:19:49 2010," US and USA, CA and California, Los Angeles, 90001",Clear,51,51,66,51,10,80,29.95 Falling ,45,6,CALM,0
Mon Feb  1 14:03:43 2010," US and USA, CA and California, Los Angeles, 90001",Clear,51,51,66,51,10,80,29.95 Steady ,45,6,CALM,0
Mon Feb  1 14:48:46 2010," US and USA, CA and California, Los Angeles, 90001",Partly Cloudy,50,50,66,51,10,80,29.95 Steady ,44,7,CALM,0
Mon Feb  1 15:32:31 2010," US and USA, CA and California, Los Angeles, 90001",Partly Cloudy,51,51,66,51,10,77,29.95 Steady ,44,8,CALM,0
Mon Feb  1 16:17:14 2010," US and USA, CA and California, Los Angeles, 90001",Partly Cloudy,51,51,66,51,10,78,29.95 Steady ,44,8,CALM,0
Mon Feb  1 17:02:01 2010," US and USA, CA and California, Los Angeles, 90001",Partly Cloudy,52,52,66,51,10,73,29.95 Steady ,43,9,CALM,0
Mon Feb  1 17:45:49 2010," US and USA, CA and California, Los Angeles, 90001",Partly Cloudy,54,54,65,51,10,70,29.97 Steady ,44,8,CALM,0
Mon Feb  1 18:29:19 2010," US and USA, CA and California, Los Angeles, 90001",Partly Cloudy,57,57,65,51,10,62,29.96 Falling ,44,7,CALM,0
Mon Feb  1 19:13:05 2010," US and USA, CA and California, Los Angeles, 90001",Partly Cloudy,61,61,65,51,10,53,29.96 Steady ,44,9,CALM,0
Mon Feb  1 19:57:55 2010," US and USA, CA and California, Los Angeles, 90001",Partly Cloudy,63,63,65,51,10,51,29.97 Steady ,45,7,E,1
Mon Feb  1 20:44:20 2010," US and USA, CA and California, Los Angeles, 90001",Mostly Sunny,65,65,65,51,10,51,29.96 Steady ,46,6,CALM,0
Mon Feb  1 21:29:20 2010," US and USA, CA and California, Los Angeles, 90001",Partly Cloudy,65,65,67,51,10,47,29.93 Falling Rapidly ,44,6,CALM,0
Mon Feb  1 22:12:41 2010," US and USA, CA and California, Los Angeles, 90001",Mostly Sunny,67,67,67,51,10,45,29.93 Steady ,45,7,CALM,0
Mon Feb  1 22:56:00 2010," US and USA, CA and California, Los Angeles, 90001",Mostly Sunny,66,66,66,51,10,45,29.90 Steady ,44,6,CALM,0
Mon Feb  1 23:42:07 2010," US and USA, CA and California, Los Angeles, 90001",Mostly Sunny,68,68,66,51,10,43,29.88 Steady ,44,6,CALM,0
Tue Feb  2 00:29:01 2010," US and USA, CA and California, Los Angeles, 90001",Sunny,67,67,66,51,10,57,29.87 Falling ,51,8,WSW,4
Tue Feb  2 01:14:37 2010," US and USA, CA and California, Los Angeles, 90001",Partly Cloudy,64,64,66,51,10,63,29.88 Rising ,51,8,SW,3
Tue Feb  2 01:57:44 2010," US and USA, CA and California, Los Angeles, 90001",Partly Cloudy,62,62,66,51,10,71,29.88 Steady ,52,6,SW,2
Tue Feb  2 02:41:47 2010," US and USA, CA and California, Los Angeles, 90001",Partly Cloudy,61,61,66,51,10,71,29.89 Steady ,51,7,CALM,0
Tue Feb  2 03:25:19 2010," US and USA, CA and California, Los Angeles, 90001",Partly Cloudy,60,60,66,51,10,69,29.89 Steady ,50,9,WNW,3
Tue Feb  2 04:09:06 2010," US and USA, CA and California, Los Angeles, 90001",Partly Cloudy,59,59,66,51,10,72,29.89 Steady ,50,8,WNW,3
Tue Feb  2 04:52:39 2010," US and USA, CA and California, Los Angeles, 90001",Partly Cloudy,58,58,66,51,10,76,29.90 Steady ,51,9,WNW,3
Tue Feb  2 05:36:01 2010," US and USA, CA and California, Los Angeles, 90001",Partly Cloudy,58,58,66,51,10,78,29.89 Steady ,51,7,CALM,0
Tue Feb  2 06:19:20 2010," US and USA, CA and California, Los Angeles, 90001",Partly Cloudy,58,58,66,51,10,78,29.89 Steady ,51,7,CALM,0
Tue Feb  2 07:06:28 2010," US and USA, CA and California, Los Angeles, 90001",Partly Cloudy,57,57,66,51,10,80,29.89 Steady ,51,5,CALM,0
Tue Feb  2 07:49:27 2010," US and USA, CA and California, Los Angeles, 90001",Mostly Cloudy,57,57,66,51,10,81,29.88 Steady ,51,5,CALM,0
Tue Feb  2 08:32:39 2010," US and USA, CA and California, Los Angeles, 90001",Partly Cloudy,57,57,66,51,10,81,29.89 Steady ,51,5,CALM,0
Tue Feb  2 09:16:09 2010," US and USA, CA and California, Los Angeles, 90001",Partly Cloudy,55,55,66,51,10,86,29.89 Steady ,51,3,CALM,0
Tue Feb  2 09:59:40 2010," US and USA, CA and California, Los Angeles, 90001",Partly Cloudy,55,55,66,51,10,88,29.89 Steady ,51,5,CALM,0
Tue Feb  2 10:43:14 2010," US and USA, CA and California, Los Angeles, 90001",Cloudy,54,54,66,51,10,88,29.89 Steady ,51,5,CALM,0
Tue Feb  2 11:27:22 2010," US and USA, CA and California, Los Angeles, 90001",Fog,54,54,67,50,10,86,29.88 Steady ,50,2.5,CALM,0
Tue Feb  2 12:11:23 2010," US and USA, CA and California, Los Angeles, 90001",Fog,53,53,67,50,10,90,29.88 Steady ,50,1.5,CALM,0
Tue Feb  2 12:55:16 2010," US and USA, CA and California, Los Angeles, 90001",Mostly Cloudy,53,53,67,50,10,91,29.88 Steady ,50,5,NE,1
Tue Feb  2 13:38:37 2010," US and USA, CA and California, Los Angeles, 90001",Haze,55,55,67,50,10,88,29.87 Steady ,52,3,CALM,0
Tue Feb  2 14:22:16 2010," US and USA, CA and California, Los Angeles, 90001",Haze,56,56,66,50,10,84,29.86 Falling ,51,3,CALM,0
Tue Feb  2 15:06:37 2010," US and USA, CA and California, Los Angeles, 90001",Haze,55,55,66,50,10,88,29.86 Steady ,52,3,CALM,0
Tue Feb  2 15:53:01 2010," US and USA, CA and California, Los Angeles, 90001",Cloudy,55,55,66,50,10,81,29.86 Steady ,50,5,CALM,0
Tue Feb  2 16:45:31 2010," US and USA, CA and California, Los Angeles, 90001",Cloudy,55,55,66,50,10,82,29.86 Steady ,50,5,CALM,0
Tue Feb  2 17:34:00 2010," US and USA, CA and California, Los Angeles, 90001",Partly Cloudy,57,57,66,50,10,77,29.86 Steady ,50,5,NE,3
Tue Feb  2 18:18:35 2010," US and USA, CA and California, Los Angeles, 90001",Haze,57,57,66,50,10,77,29.86 Steady ,50,2.5,CALM,0
Tue Feb  2 19:02:46 2010," US and USA, CA and California, Los Angeles, 90001",Partly Cloudy,60,60,66,50,10,70,29.86 Steady ,51,5,CALM,0
Tue Feb  2 19:52:10 2010," US and USA, CA and California, Los Angeles, 90001",Partly Cloudy,63,63,65,51,10,66,29.85 Steady ,51,5,SSW,1
Tue Feb  2 20:43:19 2010," US and USA, CA and California, Los Angeles, 90001",Partly Cloudy,64,64,65,51,10,50,29.84 Steady ,45,6,CALM,0
Tue Feb  2 21:30:11 2010," US and USA, CA and California, Los Angeles, 90001",Partly Cloudy,65,65,65,51,10,50,29.82 Falling Rapidly ,46,5,CALM,0
Tue Feb  2 22:18:33 2010," US and USA, CA and California, Los Angeles, 90001",Partly Cloudy,64,64,64,51,10,60,29.80 Falling Rapidly ,50,4,W,5
Tue Feb  2 23:02:51 2010," US and USA, CA and California, Los Angeles, 90001",Partly Cloudy,64,64,64,51,10,58,29.80 Steady ,49,5,W,5
Tue Feb  2 23:48:10 2010," US and USA, CA and California, Los Angeles, 90001",Partly Cloudy,63,63,64,51,20,63,29.79 Steady ,50,5,W,5
Wed Feb  3 00:32:35 2010," US and USA, CA and California, Los Angeles, 90001",Partly Cloudy,63,63,64,51,20,64,29.79 Steady ,50,5,W,3
Wed Feb  3 01:19:45 2010," US and USA, CA and California, Los Angeles, 90001",Partly Cloudy,64,64,64,51,20,58,29.78 Falling ,49,10,W,3
Wed Feb  3 02:04:58 2010," US and USA, CA and California, Los Angeles, 90001",Mostly Sunny,62,62,64,51,20,63,29.78 Steady ,49,9,W,2
Wed Feb  3 02:53:15 2010," US and USA, CA and California, Los Angeles, 90001",Clear,61,61,64,51,20,65,29.78 Steady ,49,8,W,4
Wed Feb  3 03:40:04 2010," US and USA, CA and California, Los Angeles, 90001",Mostly Cloudy,59,59,64,51,20,73,29.78 Steady ,50,9,W,4
Wed Feb  3 04:28:13 2010," US and USA, CA and California, Los Angeles, 90001",Clear,58,58,64,51,10,72,29.79 Rising ,49,10,CALM,0
Wed Feb  3 05:15:04 2010," US and USA, CA and California, Los Angeles, 90001",Clear,57,57,64,51,10,77,29.79 Steady ,50,9,CALM,0
Wed Feb  3 06:02:52 2010," US and USA, CA and California, Los Angeles, 90001",Clear,56,56,64,51,10,79,29.79 Steady ,50,9,CALM,0
Thu Feb  4 06:05:21 2010," US and USA, CA and California, Los Angeles, 90001",Clear,58,58,70,52,10,80,29.83 Steady ,52,10,ESE,1
Thu Feb  4 06:48:25 2010," US and USA, CA and California, Los Angeles, 90001",Clear,56,56,70,52,10,81,29.83 Steady ,51,10,CALM,0
Thu Feb  4 07:32:03 2010," US and USA, CA and California, Los Angeles, 90001",Clear,58,58,70,52,10,81,29.85 Rising Rapidly ,52,8,E,5
Thu Feb  4 08:14:35 2010," US and USA, CA and California, Los Angeles, 90001",Mostly Cloudy,56,56,70,52,10,83,29.86 Steady ,51,7,E,5
Thu Feb  4 08:58:15 2010," US and USA, CA and California, Los Angeles, 90001",Cloudy,57,57,70,52,10,82,29.86 Steady ,52,7,ESE,3
Thu Feb  4 09:42:11 2010," US and USA, CA and California, Los Angeles, 90001",Cloudy,57,57,70,51,10,82,29.86 Steady ,52,7,ESE,4
Thu Feb  4 10:25:50 2010," US and USA, CA and California, Los Angeles, 90001",Cloudy,58,58,70,51,10,78,29.86 Steady ,51,8,ESE,3
Thu Feb  4 11:11:46 2010," US and USA, CA and California, Los Angeles, 90001",Cloudy,57,57,70,51,10,84,29.86 Steady ,52,9,E,3
Thu Feb  4 11:55:17 2010," US and USA, CA and California, Los Angeles, 90001",Cloudy,57,57,65,52,10,81,29.87 Steady ,51,8,CALM,0
Thu Feb  4 12:38:23 2010," US and USA, CA and California, Los Angeles, 90001",Cloudy,57,57,65,52,10,77,29.88 Falling ,50,8,ENE,5
Thu Feb  4 13:22:27 2010," US and USA, CA and California, Los Angeles, 90001",Cloudy,58,58,65,52,10,75,29.88 Steady ,50,8,ESE,3
Thu Feb  4 14:07:16 2010," US and USA, CA and California, Los Angeles, 90001",Cloudy,57,57,65,52,10,77,29.88 Steady ,50,8,SE,3
Wed Feb  3 06:49:36 2010," US and USA, CA and California, Los Angeles, 90001",Clear,55,55,64,51,10,86,29.79 Steady ,51,8,CALM,0
Wed Feb  3 07:34:10 2010," US and USA, CA and California, San Diego, 92101",Cloudy,58,58,61,52,20,79,29.82 Steady ,51,10,NNE,4
Wed Feb  3 09:03:49 2010," US and USA, CA and California, San Diego, 92101",Mostly Cloudy,58,58,61,52,20,79,29.81 Steady ,51,8,NNW,3
Wed Feb  3 09:47:38 2010," US and USA, CA and California, San Diego, 92101",Mostly Cloudy,57,57,61,51,20,81,29.80 Steady ,51,7,N,4
Wed Feb  3 10:31:03 2010," US and USA, CA and California, San Diego, 92101",Partly Cloudy,56,56,61,51,20,80,29.78 Falling Rapidly ,50,6,CALM,0
Wed Feb  3 11:17:54 2010," US and USA, CA and California, San Diego, 92101",Mostly Cloudy,55,55,62,50,20,86,29.77 Falling ,51,6,CALM,0
Wed Feb  3 12:02:38 2010," US and USA, CA and California, San Diego, 92101",Cloudy,55,55,62,50,20,84,29.77 Steady ,50,6,NW,1
Wed Feb  3 12:45:51 2010," US and USA, CA and California, San Diego, 92101",Mostly Cloudy,55,55,62,50,20,84,29.77 Steady ,50,6,NNE,6
Wed Feb  3 13:29:34 2010," US and USA, CA and California, San Diego, 92101",Cloudy,55,55,62,50,20,83,29.77 Steady ,50,6,CALM,0
Wed Feb  3 14:15:41 2010," US and USA, CA and California, San Diego, 92101",Cloudy,56,56,62,50,20,80,29.77 Steady ,50,6,NNE,5
Wed Feb  3 15:01:42 2010," US and USA, CA and California, San Diego, 92101",Cloudy,56,56,62,50,20,82,29.77 Steady ,50,6,NE,5
Wed Feb  3 15:46:30 2010," US and USA, CA and California, San Diego, 92101",Cloudy,56,56,61,50,20,81,29.77 Steady ,50,5,CALM,0
Wed Feb  3 16:32:23 2010," US and USA, CA and California, San Diego, 92101",Mostly Cloudy,56,56,62,50,20,80,29.78 Rising ,50,5,NE,3
Wed Feb  3 17:19:33 2010," US and USA, CA and California, San Diego, 92101",Mostly Cloudy,57,57,61,50,20,77,29.79 Rising ,50,6,NE,3
Wed Feb  3 18:07:51 2010," US and USA, CA and California, San Diego, 92101",Mostly Cloudy,59,59,61,50,20,71,29.79 Steady ,50,7,NNE,2
Wed Feb  3 18:50:59 2010," US and USA, CA and California, San Diego, 92101",Cloudy,58,58,62,50,10,71,29.81 Steady ,49,7,CALM,0
Wed Feb  3 19:35:14 2010," US and USA, CA and California, San Diego, 92101",Mostly Cloudy,60,60,62,50,10,69,29.83 Steady ,49,10,NNW,7
Wed Feb  3 20:19:19 2010," US and USA, CA and California, San Diego, 92101",Mostly Cloudy,61,61,62,50,10,67,29.84 Rising ,50,10,WNW,9
Wed Feb  3 21:03:38 2010," US and USA, CA and California, San Diego, 92101",Mostly Cloudy,61,61,62,50,10,70,29.84 Steady ,51,10,WNW,12
Wed Feb  3 21:51:42 2010," US and USA, CA and California, San Diego, 92101",Partly Cloudy,63,63,61,50,10,64,29.81 Falling Rapidly ,50,10,NNW,8
Wed Feb  3 22:37:15 2010," US and USA, CA and California, San Diego, 92101",Partly Cloudy,62,62,61,50,10,65,29.79 Steady ,50,10,NW,1
Wed Feb  3 23:28:10 2010," US and USA, CA and California, San Diego, 92101",Partly Cloudy,62,62,61,50,10,65,29.78 Falling ,50,10,NW,7
Thu Feb  4 00:13:06 2010," US and USA, CA and California, San Diego, 92101",Partly Cloudy,61,61,61,50,10,70,29.77 Falling ,51,10,SSW,9
Thu Feb  4 00:57:09 2010," US and USA, CA and California, San Diego, 92101",Mostly Sunny,60,60,61,50,10,71,29.77 Steady ,51,10,SSW,10
Thu Feb  4 01:40:27 2010," US and USA, CA and California, San Diego, 92101",Mostly Sunny,59,59,61,50,10,77,29.78 Steady ,52,9,SW,10
Thu Feb  4 02:28:11 2010," US and USA, CA and California, San Diego, 92101",Partly Cloudy,60,60,61,50,10,72,29.79 Rising ,51,10,SSW,8
Thu Feb  4 03:11:22 2010," US and USA, CA and California, San Diego, 92101",Mostly Clear,58,58,61,50,10,77,29.79 Steady ,51,9,SSW,7
Thu Feb  4 03:55:50 2010," US and USA, CA and California, San Diego, 92101",Mostly Clear,58,58,61,50,10,77,29.81 Steady ,51,9,SW,6
Thu Feb  4 04:39:06 2010," US and USA, CA and California, San Diego, 92101",Mostly Cloudy,58,58,61,50,10,80,29.85 Steady ,51,10,SW,6
Thu Feb  4 05:22:28 2010," US and USA, CA and California, San Diego, 92101",Mostly Cloudy,58,58,61,50,10,78,29.87 Rising Rapidly ,51,10,CALM,0
Thu Feb  4 15:00:02 2010," US and USA, CA and California, San Diego, 92101",Mostly Cloudy,54,54,62,52,0,77,29.92 Steady ,47,6,ESE,6
Thu Jan 28 15:39:42 2010," US and USA, CA and California, San Diego, 92101",Sunny,50,50,65,49,0,83,29.99 Steady ,45,10,ENE,1
Thu Jan 28 16:00:30 2010," US and USA, CA and California, San Diego, 92101",Sunny,50,50,65,49,0,83,29.99 Steady ,45,10,ENE,1
Thu Jan 28 16:49:49 2010," US and USA, CA and California, San Diego, 92101",Mostly Sunny,52,52,65,49,0,78,30.01 Steady ,46,10,CALM,0
Thu Jan 28 17:14:03 2010," US and USA, CA and California, San Diego, 92101",Sunny,54,54,64,49,0,75,30.03 Rising Rapidly ,46,8,CALM,0
Thu Jan 28 17:30:04 2010," US and USA, CA and California, San Diego, 92101",Sunny,54,54,64,49,0,75,30.03 Rising Rapidly ,46,8,CALM,0
Fri Jan 29 08:42:16 2010," US and USA, CA and California, San Diego, 92101",Partly Cloudy,55,55,63,49,10,86,30.07 Steady ,51,5,ESE,1
Fri Jan 29 09:26:12 2010," US and USA, CA and California, San Diego, 92101",Mostly Cloudy,53,53,63,50,10,86,30.08 Rising ,49,5,NW,5
Fri Jan 29 11:58:14 2010," US and USA, CA and California, San Diego, 92101",Mostly Cloudy,54,54,64,49,10,83,30.06 Steady ,49,6,CALM,0
Fri Jan 29 12:42:56 2010," US and USA, CA and California, San Diego, 92101",Mostly Cloudy,54,54,64,49,10,77,30.05 Steady ,47,8,CALM,0
Fri Jan 29 13:30:39 2010," US and USA, CA and California, San Diego, 92101",Mostly Cloudy,53,53,64,49,10,77,30.05 Steady ,46,9,CALM,0
Fri Jan 29 14:18:29 2010," US and USA, CA and California, San Diego, 92101",Mostly Cloudy,52,52,64,49,10,80,30.05 Steady ,46,9,CALM,0
Fri Jan 29 15:03:17 2010," US and USA, CA and California, San Diego, 92101",Mostly Cloudy,52,52,64,49,10,80,30.05 Steady ,46,9,ENE,1
Fri Jan 29 15:48:49 2010," US and USA, CA and California, San Diego, 92101",Mostly Cloudy,51,51,64,49,10,79,30.05 Steady ,45,9,CALM,0
Fri Jan 29 16:36:38 2010," US and USA, CA and California, San Diego, 92101",Mostly Cloudy,51,51,65,49,10,77,30.06 Rising ,44,10,CALM,0
Fri Jan 29 17:21:03 2010," US and USA, CA and California, San Diego, 92101",Mostly Cloudy,53,53,64,49,10,71,30.08 Rising Rapidly ,44,9,E,3
Fri Jan 29 18:09:31 2010," US and USA, CA and California, San Diego, 92101",Mostly Cloudy,55,55,64,49,10,70,30.08 Steady ,46,10,E,3
Fri Jan 29 18:54:30 2010," US and USA, CA and California, San Diego, 92101",Mostly Cloudy,59,59,64,49,10,50,30.08 Steady ,41,10,E,5
Fri Jan 29 19:46:29 2010," US and USA, CA and California, San Diego, 92101",Mostly Cloudy,61,61,63,53,10,55,30.10 Steady ,45,8,S,7
Fri Jan 29 20:44:19 2010," US and USA, CA and California, San Diego, 92101",Mostly Cloudy,61,61,63,53,10,51,30.09 Steady ,43,10,S,6
Fri Jan 29 21:28:55 2010," US and USA, CA and California, San Diego, 92101",Mostly Cloudy,61,61,62,53,10,62,30.06 Falling Rapidly ,48,9,S,6
Fri Jan 29 22:15:32 2010," US and USA, CA and California, San Diego, 92101",Mostly Cloudy,62,62,63,53,10,65,30.04 Falling Rapidly ,50,9,WSW,9
Fri Jan 29 23:00:27 2010," US and USA, CA and California, San Diego, 92101",Mostly Cloudy,62,62,63,53,10,64,30.04 Steady ,49,9,WSW,11
Fri Jan 29 23:44:43 2010," US and USA, CA and California, San Diego, 92101",Mostly Cloudy,60,60,63,53,10,71,30.03 Steady ,51,9,SW,6
Sat Jan 30 00:28:49 2010," US and USA, CA and California, San Diego, 92101",Mostly Cloudy,62,62,63,53,10,70,30.03 Steady ,52,9,WNW,6
Sat Jan 30 01:12:57 2010," US and USA, CA and California, San Diego, 92101",Mostly Cloudy,61,61,63,53,10,73,30.03 Steady ,52,9,WNW,3
Sat Jan 30 01:56:54 2010," US and USA, CA and California, San Diego, 92101",Cloudy,60,60,63,53,10,76,30.03 Steady ,52,9,WNW,5
Sat Jan 30 02:41:13 2010," US and USA, CA and California, San Diego, 92101",Cloudy,60,60,63,53,10,74,30.04 Steady ,51,10,NW,3
Sat Jan 30 03:24:43 2010," US and USA, CA and California, San Diego, 92101",Cloudy,59,59,63,53,10,78,30.04 Steady ,52,10,WNW,3
Sat Jan 30 04:08:39 2010," US and USA, CA and California, San Diego, 92101",Cloudy,58,58,63,53,10,81,30.04 Steady ,52,9,ESE,3
Sat Jan 30 04:52:25 2010," US and USA, CA and California, San Diego, 92101",Cloudy,58,58,63,53,10,78,30.04 Steady ,52,6,WNW,4
Sat Jan 30 05:36:07 2010," US and USA, CA and California, San Diego, 92101",Cloudy,57,57,63,53,10,84,30.04 Steady ,52,10,CALM,0
Sat Jan 30 06:20:16 2010," US and USA, CA and California, San Diego, 92101",Cloudy,57,57,63,53,10,84,30.04 Steady ,52,10,CALM,0
Sat Jan 30 07:06:14 2010," US and USA, CA and California, San Diego, 92101",Partly Cloudy,56,56,63,53,10,81,30.04 Steady ,50,9,CALM,0
Sat Jan 30 07:48:55 2010," US and USA, CA and California, San Diego, 92101",Mostly Clear,56,56,63,53,10,78,30.05 Steady ,49,8,NNW,1
Sat Jan 30 08:32:09 2010," US and USA, CA and California, San Diego, 92101",Clear,55,55,63,53,10,81,30.05 Steady ,49,6,CALM,0
Sat Jan 30 11:13:56 2010," US and USA, CA and California, San Diego, 92101",Clear,51,51,63,49,10,86,30.02 Steady ,47,4,CALM,0
Sat Jan 30 12:01:45 2010," US and USA, CA and California, San Diego, 92101",Clear,51,51,63,49,10,87,30.02 Steady ,47,5,CALM,0
Sat Jan 30 12:45:22 2010," US and USA, CA and California, San Diego, 92101",Clear,51,51,63,49,10,86,30.01 Steady ,47,5,CALM,0
Sat Jan 30 13:28:36 2010," US and USA, CA and California, San Diego, 92101",Partly Cloudy,50,50,63,49,10,86,30.00 Falling ,46,3,CALM,0
Sat Jan 30 14:12:47 2010," US and USA, CA and California, San Diego, 92101",Mostly Clear,50,50,63,49,10,88,30.00 Steady ,46,5,CALM,0
Sat Jan 30 14:57:04 2010," US and USA, CA and California, San Diego, 92101",Mostly Cloudy,48,48,63,49,10,93,29.99 Steady ,46,5,SE,1
Sat Jan 30 15:42:41 2010," US and USA, CA and California, San Diego, 92101",Mostly Cloudy,50,50,63,49,10,89,30.00 Steady ,47,5,SSE,1
Sat Jan 30 16:27:40 2010," US and USA, CA and California, San Diego, 92101",Mostly Cloudy,52,52,63,49,10,82,30.01 Rising ,46,4,N,3
Sat Jan 30 17:12:06 2010," US and USA, CA and California, San Diego, 92101",Mostly Cloudy,53,53,63,49,10,83,30.01 Steady ,48,5,NNW,3
Sat Jan 30 17:55:17 2010," US and USA, CA and California, San Diego, 92101",Partly Cloudy,54,54,63,49,10,83,30.02 Steady ,49,5,NNE,1
Sat Jan 30 18:39:16 2010," US and USA, CA and California, San Diego, 92101",Partly Cloudy,58,58,62,49,10,74,30.03 Steady ,49,5,NE,6
Sat Jan 30 19:22:34 2010," US and USA, CA and California, San Diego, 92101",Partly Cloudy,60,60,62,50,10,64,30.02 Falling ,48,9,CALM,0
Sat Jan 30 20:06:50 2010," US and USA, CA and California, San Diego, 92101",Partly Cloudy,62,62,62,50,10,60,30.02 Steady ,48,10,CALM,0
Sat Jan 30 20:49:55 2010," US and USA, CA and California, San Diego, 92101",Partly Cloudy,62,62,62,50,10,62,30.01 Steady ,49,9,W,2
Sat Jan 30 21:33:42 2010," US and USA, CA and California, San Diego, 92101",Partly Cloudy,61,61,62,50,0,69,29.98 Steady ,51,10,WNW,15
Sat Jan 30 22:17:12 2010," US and USA, CA and California, San Diego, 92101",Partly Cloudy,61,61,61,50,0,72,29.94 Falling Rapidly ,52,10,WNW,15
Sat Jan 30 23:02:39 2010," US and USA, CA and California, San Diego, 92101",Partly Cloudy,60,60,61,50,0,76,29.94 Steady ,52,9,NW,18
Sat Jan 30 23:47:33 2010," US and USA, CA and California, San Diego, 92101",Partly Cloudy,59,59,61,50,20,71,29.96 Steady ,50,10,WNW,12
Sun Jan 31 00:31:32 2010," US and USA, CA and California, San Diego, 92101",Partly Cloudy,60,60,61,50,20,69,29.95 Falling ,50,10,NW,12
Sun Jan 31 01:21:59 2010," US and USA, CA and California, San Diego, 92101",Partly Cloudy,60,60,61,50,20,69,29.96 Rising ,50,10,NW,12
Sun Jan 31 02:05:58 2010," US and USA, CA and California, San Diego, 92101",Partly Cloudy,58,58,61,50,20,74,29.96 Steady ,50,9,NW,11
Sun Jan 31 02:49:23 2010," US and USA, CA and California, San Diego, 92101",Partly Cloudy,57,57,61,50,20,74,29.97 Steady ,49,10,NNW,9
Sun Jan 31 03:33:18 2010," US and USA, CA and California, San Diego, 92101",Partly Cloudy,57,57,61,50,20,74,29.96 Steady ,49,10,NNE,5
Sun Jan 31 04:17:05 2010," US and USA, CA and California, San Diego, 92101",Partly Cloudy,57,57,61,50,20,74,29.96 Steady ,49,10,CALM,0
Sun Jan 31 05:01:21 2010," US and USA, CA and California, San Diego, 92101",Partly Cloudy,56,56,61,50,20,77,29.96 Steady ,49,10,NW,1
Sun Jan 31 05:47:45 2010," US and USA, CA and California, San Diego, 92101",Partly Cloudy,55,55,61,50,20,79,29.96 Steady ,49,9,NW,1
Sun Jan 31 06:32:36 2010," US and USA, CA and California, San Diego, 92101",Partly Cloudy,55,55,61,50,20,80,29.96 Steady ,49,9,NW,2
Sun Jan 31 07:15:28 2010," US and USA, CA and California, San Diego, 92101",Partly Cloudy,54,54,61,50,20,80,29.96 Steady ,48,7,CALM,0
Sun Jan 31 08:02:12 2010," US and USA, CA and California, San Diego, 92101",Partly Cloudy,54,54,61,50,20,81,29.96 Steady ,48,7,CALM,0
Sun Jan 31 08:46:52 2010," US and USA, CA and California, San Diego, 92101",Partly Cloudy,53,53,61,50,20,84,29.97 Steady ,48,6,NNE,1
Sun Jan 31 09:30:07 2010," US and USA, CA and California, San Diego, 92101",Partly Cloudy,53,53,61,49,10,83,29.97 Steady ,48,7,CALM,0
Sun Jan 31 10:13:18 2010," US and USA, CA and California, San Diego, 92101",Mostly Cloudy,52,52,61,49,10,83,29.97 Steady ,47,6,CALM,0
Sun Jan 31 10:57:05 2010," US and USA, CA and California, San Diego, 92101",Mostly Cloudy,51,51,61,49,10,85,29.97 Steady ,47,6,NE,1
Sun Jan 31 11:40:37 2010," US and USA, CA and California, San Diego, 92101",Mostly Cloudy,51,51,61,49,10,84,29.96 Steady ,47,7,CALM,0
Sun Jan 31 12:24:12 2010," US and USA, CA and California, San Diego, 92101",Cloudy,53,53,61,49,10,83,29.95 Falling ,48,6,CALM,0
Sun Jan 31 13:07:35 2010," US and USA, CA and California, San Diego, 92101",Cloudy,52,52,61,49,10,85,29.95 Steady ,47,5,SE,1
Sun Jan 31 13:51:11 2010," US and USA, CA and California, San Diego, 92101",Cloudy,53,53,61,49,10,80,29.95 Steady ,47,6,CALM,0
Sun Jan 31 14:34:00 2010," US and USA, CA and California, San Diego, 92101",Partly Cloudy,52,52,61,49,10,82,29.94 Steady ,46,5,CALM,0
Sun Jan 31 15:18:06 2010," US and USA, CA and California, San Diego, 92101",Partly Cloudy,51,51,61,49,10,83,29.95 Rising ,46,5,CALM,0
Sun Jan 31 16:01:37 2010," US and USA, CA and California, San Diego, 92101",Mostly Sunny,51,51,61,49,10,84,29.95 Steady ,46,5,CALM,0
Sun Jan 31 16:51:25 2010," US and USA, CA and California, San Diego, 92101",Partly Cloudy,50,50,61,49,10,86,29.97 Rising Rapidly ,46,4,CALM,0
Sun Jan 31 17:35:02 2010," US and USA, CA and California, San Diego, 92101",Partly Cloudy,53,53,61,49,20,82,29.98 Steady ,47,5,CALM,0
Sun Jan 31 18:20:03 2010," US and USA, CA and California, San Diego, 92101",Partly Cloudy,53,53,61,49,10,80,29.98 Steady ,47,4,CALM,0
Sun Jan 31 19:03:50 2010," US and USA, CA and California, San Diego, 92101",Partly Cloudy,55,55,61,49,10,76,29.98 Steady ,47,5,CALM,0
Sun Jan 31 19:49:20 2010," US and USA, CA and California, San Diego, 92101",Partly Cloudy,58,58,61,49,20,70,29.99 Steady ,48,6,NW,8
Sun Jan 31 20:32:09 2010," US and USA, CA and California, San Diego, 92101",Partly Cloudy,60,60,61,49,20,66,29.99 Steady ,48,9,WNW,10
Sun Jan 31 21:16:47 2010," US and USA, CA and California, San Diego, 92101",Partly Cloudy,60,60,61,49,20,64,29.97 Falling Rapidly ,48,10,WNW,10
Sun Jan 31 21:59:35 2010," US and USA, CA and California, San Diego, 92101",Partly Cloudy,60,60,61,49,10,63,29.97 Steady ,48,10,WNW,12
Sun Jan 31 22:44:24 2010," US and USA, CA and California, San Diego, 92101",Partly Cloudy,60,60,61,49,10,64,29.94 Steady ,48,10,WNW,15
Sun Jan 31 23:27:45 2010," US and USA, CA and California, San Diego, 92101",Partly Cloudy,61,61,61,49,10,62,29.93 Falling ,48,9,W,10
Mon Feb  1 00:11:43 2010," US and USA, CA and California, San Diego, 92101",Partly Cloudy,60,60,61,49,10,63,29.93 Steady ,47,9,WNW,12
Mon Feb  1 00:54:37 2010," US and USA, CA and California, San Diego, 92101",Partly Cloudy,59,59,61,49,10,68,29.94 Steady ,49,10,NW,11
Mon Feb  1 01:40:55 2010," US and USA, CA and California, San Diego, 92101",Partly Cloudy,58,58,61,49,10,75,29.95 Steady ,50,10,WNW,8
Mon Feb  1 02:24:55 2010," US and USA, CA and California, San Diego, 92101",Mostly Cloudy,58,58,61,49,10,72,29.96 Rising ,49,10,WNW,7
Mon Feb  1 03:08:35 2010," US and USA, CA and California, San Diego, 92101",Mostly Cloudy,57,57,61,49,10,76,29.96 Steady ,49,9,NW,7
Mon Feb  1 03:53:15 2010," US and USA, CA and California, San Diego, 92101",Partly Cloudy,56,56,61,49,10,76,29.97 Steady ,49,10,NW,3
Mon Feb  1 04:38:04 2010," US and USA, CA and California, San Diego, 92101",Mostly Clear,57,57,61,49,10,74,29.98 Steady ,49,10,CALM,0
Mon Feb  1 05:21:13 2010," US and USA, CA and California, San Diego, 92101",Partly Cloudy,56,56,61,49,10,77,29.98 Steady ,49,10,CALM,0
Mon Feb  1 06:06:07 2010," US and USA, CA and California, San Diego, 92101",Mostly Clear,56,56,61,49,10,78,29.98 Steady ,49,10,WNW,1
Mon Feb  1 06:49:17 2010," US and USA, CA and California, San Diego, 92101",Partly Cloudy,54,54,61,49,10,82,29.99 Steady ,49,10,N,1
Mon Feb  1 07:33:06 2010," US and USA, CA and California, San Diego, 92101",Partly Cloudy,55,55,61,49,10,82,29.99 Steady ,49,10,CALM,0
Mon Feb  1 08:16:31 2010," US and USA, CA and California, San Diego, 92101",Partly Cloudy,55,55,61,49,10,83,29.99 Steady ,49,10,CALM,0
Mon Feb  1 08:59:59 2010," US and USA, CA and California, San Diego, 92101",Partly Cloudy,54,54,61,49,10,83,29.98 Steady ,48,10,NE,1
Mon Feb  1 09:42:55 2010," US and USA, CA and California, San Diego, 92101",Partly Cloudy,53,53,61,50,10,84,29.98 Steady ,48,6,ENE,1
Mon Feb  1 10:26:29 2010," US and USA, CA and California, San Diego, 92101",Partly Cloudy,54,54,61,50,10,80,29.97 Falling ,48,6,CALM,0
Mon Feb  1 11:09:26 2010," US and USA, CA and California, San Diego, 92101",Partly Cloudy,54,54,61,50,10,80,29.97 Steady ,48,6,SE,1
Mon Feb  1 11:52:53 2010," US and USA, CA and California, San Diego, 92101",Mostly Cloudy,53,53,63,52,10,82,29.98 Steady ,48,6,CALM,0
Mon Feb  1 12:36:16 2010," US and USA, CA and California, San Diego, 92101",Mostly Cloudy,53,53,64,52,10,82,29.96 Steady ,48,5,CALM,0
Mon Feb  1 13:19:47 2010," US and USA, CA and California, San Diego, 92101",Mostly Cloudy,52,52,64,52,10,83,29.95 Falling ,47,5,CALM,0
Mon Feb  1 14:03:41 2010," US and USA, CA and California, San Diego, 92101",Mostly Cloudy,53,53,64,52,10,81,29.95 Steady ,47,5,CALM,0
Mon Feb  1 14:48:44 2010," US and USA, CA and California, San Diego, 92101",Mostly Cloudy,52,52,63,52,10,85,29.96 Steady ,47,5,CALM,0
Mon Feb  1 15:32:29 2010," US and USA, CA and California, San Diego, 92101",Mostly Cloudy,52,52,63,52,10,83,29.96 Steady ,47,5,CALM,0
Mon Feb  1 16:17:12 2010," US and USA, CA and California, San Diego, 92101",Mostly Cloudy,52,52,63,52,10,82,29.97 Rising ,46,5,CALM,0
Mon Feb  1 17:01:59 2010," US and USA, CA and California, San Diego, 92101",Mostly Cloudy,53,53,63,52,10,83,29.97 Steady ,48,5,E,1
Mon Feb  1 17:45:47 2010," US and USA, CA and California, San Diego, 92101",Mostly Cloudy,54,54,63,52,10,81,29.99 Steady ,48,5,CALM,0
Mon Feb  1 18:29:16 2010," US and USA, CA and California, San Diego, 92101",Mostly Cloudy,58,58,62,52,10,75,29.99 Steady ,50,6,NNE,3
Mon Feb  1 19:13:03 2010," US and USA, CA and California, San Diego, 92101",Mostly Cloudy,60,60,62,52,10,67,29.99 Steady ,49,7,N,3
Mon Feb  1 19:57:53 2010," US and USA, CA and California, San Diego, 92101",Mostly Cloudy,60,60,62,51,10,66,30.00 Steady ,48,8,NNW,5
Mon Feb  1 20:44:18 2010," US and USA, CA and California, San Diego, 92101",Mostly Cloudy,61,61,62,51,10,64,29.97 Steady ,49,10,NE,3
Mon Feb  1 21:29:18 2010," US and USA, CA and California, San Diego, 92101",Mostly Cloudy,61,61,62,51,10,64,29.95 Falling Rapidly ,49,8,SW,4
Mon Feb  1 22:12:39 2010," US and USA, CA and California, San Diego, 92101",Mostly Cloudy,62,62,62,51,10,61,29.95 Steady ,49,9,SW,5
Mon Feb  1 22:55:58 2010," US and USA, CA and California, San Diego, 92101",Mostly Cloudy,62,62,62,51,10,65,29.92 Steady ,50,9,W,8
Mon Feb  1 23:42:05 2010," US and USA, CA and California, San Diego, 92101",Mostly Cloudy,61,61,62,51,10,68,29.90 Steady ,50,9,CALM,0
Tue Feb  2 00:28:59 2010," US and USA, CA and California, San Diego, 92101",Mostly Cloudy,61,61,62,51,10,70,29.89 Falling ,51,8,SW,3
Tue Feb  2 01:14:35 2010," US and USA, CA and California, San Diego, 92101",Mostly Cloudy,62,62,62,51,10,65,29.90 Rising ,50,7,WNW,9
Tue Feb  2 01:57:42 2010," US and USA, CA and California, San Diego, 92101",Mostly Cloudy,60,60,62,51,10,74,29.90 Steady ,52,5,WNW,10
Tue Feb  2 02:41:45 2010," US and USA, CA and California, San Diego, 92101",Mostly Cloudy,59,59,62,51,10,76,29.90 Steady ,51,7,WNW,6
Tue Feb  2 03:25:17 2010," US and USA, CA and California, San Diego, 92101",Mostly Cloudy,57,57,62,51,10,82,29.92 Rising Rapidly ,52,8,WNW,6
Tue Feb  2 04:09:04 2010," US and USA, CA and California, San Diego, 92101",Mostly Cloudy,57,57,62,51,10,82,29.92 Steady ,52,8,WNW,6
Tue Feb  2 04:52:37 2010," US and USA, CA and California, San Diego, 92101",Mostly Cloudy,57,57,62,51,10,80,29.92 Steady ,51,10,WNW,5
Tue Feb  2 05:35:58 2010," US and USA, CA and California, San Diego, 92101",Mostly Cloudy,57,57,62,51,10,80,29.92 Steady ,51,8,W,1
Tue Feb  2 06:19:18 2010," US and USA, CA and California, San Diego, 92101",Mostly Cloudy,57,57,62,51,10,82,29.92 Steady ,51,8,W,1
Tue Feb  2 07:06:25 2010," US and USA, CA and California, San Diego, 92101",Partly Cloudy,56,56,62,51,10,85,29.91 Steady ,51,6,NW,1
Tue Feb  2 07:49:24 2010," US and USA, CA and California, San Diego, 92101",Partly Cloudy,57,57,62,51,10,79,29.91 Steady ,50,8,CALM,0
Tue Feb  2 08:32:37 2010," US and USA, CA and California, San Diego, 92101",Partly Cloudy,55,55,62,51,10,82,29.91 Steady ,50,5,NE,1
Tue Feb  2 09:16:07 2010," US and USA, CA and California, San Diego, 92101",Mostly Cloudy,55,55,62,51,10,83,29.92 Rising ,50,5,CALM,0
Tue Feb  2 09:59:38 2010," US and USA, CA and California, San Diego, 92101",Mostly Cloudy,55,55,62,51,10,82,29.91 Falling ,50,5,CALM,0
Tue Feb  2 10:43:12 2010," US and USA, CA and California, San Diego, 92101",Cloudy,56,56,62,51,10,81,29.91 Steady ,50,5,CALM,0
Tue Feb  2 11:27:20 2010," US and USA, CA and California, San Diego, 92101",Cloudy,56,56,62,51,10,80,29.91 Steady ,50,5,CALM,0
Tue Feb  2 12:11:21 2010," US and USA, CA and California, San Diego, 92101",Cloudy,56,56,62,51,10,80,29.91 Steady ,50,5,CALM,0
Tue Feb  2 12:55:13 2010," US and USA, CA and California, San Diego, 92101",Cloudy,57,57,62,51,10,75,29.89 Steady ,49,7,CALM,0
Tue Feb  2 13:38:34 2010," US and USA, CA and California, San Diego, 92101",Mostly Cloudy,54,54,62,51,10,82,29.88 Steady ,49,5,NNE,6
Tue Feb  2 14:22:13 2010," US and USA, CA and California, San Diego, 92101",Mostly Cloudy,54,54,62,51,10,83,29.87 Falling ,49,5,NNE,3
Tue Feb  2 15:06:35 2010," US and USA, CA and California, San Diego, 92101",Mostly Cloudy,53,53,62,51,10,85,29.87 Steady ,48,5,NNE,4
Tue Feb  2 15:52:59 2010," US and USA, CA and California, San Diego, 92101",Mostly Cloudy,53,53,61,51,10,82,29.87 Steady ,48,5,SE,1
Tue Feb  2 16:45:29 2010," US and USA, CA and California, San Diego, 92101",Mostly Cloudy,53,53,62,51,10,83,29.86 Steady ,48,5,NE,4
Tue Feb  2 17:33:57 2010," US and USA, CA and California, San Diego, 92101",Mostly Cloudy,54,54,62,51,10,80,29.86 Steady ,48,5,SE,1
Tue Feb  2 18:18:33 2010," US and USA, CA and California, San Diego, 92101",Mostly Cloudy,56,56,61,51,10,75,29.86 Steady ,48,5,CALM,0
Tue Feb  2 19:02:43 2010," US and USA, CA and California, San Diego, 92101",Mostly Cloudy,58,58,61,51,10,70,29.86 Steady ,49,6,CALM,0
Tue Feb  2 19:52:08 2010," US and USA, CA and California, San Diego, 92101",Mostly Cloudy,60,60,61,52,10,67,29.87 Steady ,49,7,WNW,4
Tue Feb  2 20:43:17 2010," US and USA, CA and California, San Diego, 92101",Mostly Cloudy,61,61,61,52,10,64,29.86 Steady ,49,10,NW,9
Tue Feb  2 21:30:08 2010," US and USA, CA and California, San Diego, 92101",Mostly Cloudy,60,60,61,52,10,67,29.84 Falling Rapidly ,49,9,WNW,7
Tue Feb  2 22:18:31 2010," US and USA, CA and California, San Diego, 92101",Mostly Cloudy,61,61,61,52,10,64,29.82 Falling Rapidly ,49,10,W,8
Tue Feb  2 23:02:49 2010," US and USA, CA and California, San Diego, 92101",Mostly Cloudy,61,61,61,52,10,64,29.82 Steady ,49,10,W,9
Tue Feb  2 23:48:07 2010," US and USA, CA and California, San Diego, 92101",Mostly Cloudy,60,60,61,52,20,68,29.81 Steady ,50,10,NW,10
Wed Feb  3 00:32:33 2010," US and USA, CA and California, San Diego, 92101",Mostly Cloudy,60,60,61,52,20,69,29.80 Steady ,50,10,WNW,7
Wed Feb  3 01:19:43 2010," US and USA, CA and California, San Diego, 92101",Mostly Cloudy,60,60,61,52,20,69,29.80 Steady ,50,10,WNW,9
Wed Feb  3 02:04:56 2010," US and USA, CA and California, San Diego, 92101",Mostly Cloudy,59,59,61,52,20,74,29.80 Steady ,50,9,NW,10
Wed Feb  3 02:53:13 2010," US and USA, CA and California, San Diego, 92101",Mostly Cloudy,58,58,61,52,20,77,29.81 Steady ,50,9,WNW,6
Wed Feb  3 03:40:02 2010," US and USA, CA and California, San Diego, 92101",Mostly Cloudy,58,58,61,52,20,77,29.81 Steady ,51,10,NW,6
Wed Feb  3 04:28:11 2010," US and USA, CA and California, San Diego, 92101",Mostly Cloudy,58,58,61,52,20,75,29.82 Rising ,50,10,NNW,6
Wed Feb  3 05:15:02 2010," US and USA, CA and California, San Diego, 92101",Cloudy,58,58,61,52,20,78,29.82 Steady ,51,10,N,3
Wed Feb  3 06:02:49 2010," US and USA, CA and California, San Diego, 92101",Cloudy,58,58,61,52,20,79,29.82 Steady ,51,10,N,4
Thu Feb  4 06:05:19 2010," US and USA, CA and California, San Diego, 92101",Mostly Cloudy,58,58,61,50,10,79,29.87 Steady ,51,10,CALM,0
Thu Feb  4 06:48:23 2010," US and USA, CA and California, San Diego, 92101",Partly Cloudy,57,57,61,50,10,82,29.90 Rising ,52,10,SE,3
Thu Feb  4 07:32:01 2010," US and USA, CA and California, San Diego, 92101",Mostly Cloudy,58,58,61,50,10,78,29.90 Steady ,51,10,E,3
Thu Feb  4 08:14:33 2010," US and USA, CA and California, San Diego, 92101",Partly Cloudy,57,57,61,50,10,83,29.90 Steady ,52,10,ESE,7
Thu Feb  4 08:58:13 2010," US and USA, CA and California, San Diego, 92101",Mostly Clear,57,57,61,50,10,78,29.90 Steady ,50,9,ESE,8
Thu Feb  4 09:42:09 2010," US and USA, CA and California, San Diego, 92101",Mostly Clear,55,55,61,51,0,77,29.90 Steady ,48,9,ESE,7
Thu Feb  4 10:25:48 2010," US and USA, CA and California, San Diego, 92101",Partly Cloudy,54,54,61,51,0,80,29.90 Steady ,48,7,ESE,6
Thu Feb  4 11:11:44 2010," US and USA, CA and California, San Diego, 92101",Mostly Clear,53,53,61,51,0,80,29.90 Steady ,48,7,ESE,6
Thu Feb  4 11:55:15 2010," US and USA, CA and California, San Diego, 92101",Mostly Cloudy,54,54,62,52,0,82,29.90 Rising ,48,7,ESE,3
Thu Feb  4 12:38:20 2010," US and USA, CA and California, San Diego, 92101",Cloudy,55,55,62,52,0,74,29.90 Steady ,47,6,ESE,7
Thu Feb  4 13:22:25 2010," US and USA, CA and California, San Diego, 92101",Mostly Cloudy,54,54,62,52,0,77,29.90 Steady ,47,6,ESE,8
Thu Feb  4 14:07:14 2010," US and USA, CA and California, San Diego, 92101",Partly Cloudy,54,54,62,52,0,77,29.92 Rising Rapidly ,46,6,ESE,8
Wed Feb  3 06:49:34 2010," US and USA, CA and California, San Diego, 92101",Cloudy,58,58,61,52,20,79,29.82 Steady ,51,10,N,5
Wed Feb  3 07:34:18 2010," US and USA, CA and California, San Francisco, 94101",Mostly Cloudy,52,52,56,50,50,91,29.85 Steady ,50,9,W,2
Wed Feb  3 09:03:56 2010," US and USA, CA and California, San Francisco, 94101",Cloudy,51,51,56,50,30,90,29.85 Steady ,49,10,SW,1
Wed Feb  3 09:47:46 2010," US and USA, CA and California, San Francisco, 94101",Partly Cloudy,52,52,56,49,30,88,29.85 Steady ,48,10,SW,1
Wed Feb  3 10:31:10 2010," US and USA, CA and California, San Francisco, 94101",Partly Cloudy,50,50,56,49,30,90,29.85 Steady ,47,9,WSW,2
Wed Feb  3 11:18:02 2010," US and USA, CA and California, San Francisco, 94101",Partly Cloudy,49,49,58,49,30,91,29.84 Falling ,46,9,SW,2
Wed Feb  3 12:02:46 2010," US and USA, CA and California, San Francisco, 94101",Partly Cloudy,49,49,58,49,30,92,29.84 Steady ,47,7,WSW,1
Wed Feb  3 12:45:58 2010," US and USA, CA and California, San Francisco, 94101",Partly Cloudy,49,49,58,49,30,92,29.84 Steady ,47,7,SW,1
Wed Feb  3 13:29:41 2010," US and USA, CA and California, San Francisco, 94101",Partly Cloudy,48,48,58,49,30,92,29.83 Falling ,46,9,SSW,2
Wed Feb  3 14:15:49 2010," US and USA, CA and California, San Francisco, 94101",Mostly Clear,49,49,57,49,30,91,29.84 Rising ,47,9,SSW,4
Wed Feb  3 15:01:49 2010," US and USA, CA and California, San Francisco, 94101",Partly Cloudy,49,49,57,49,30,91,29.84 Steady ,47,9,S,4
Wed Feb  3 15:46:37 2010," US and USA, CA and California, San Francisco, 94101",Partly Cloudy,48,48,58,49,30,91,29.86 Steady ,45,8,SSW,2
Wed Feb  3 16:32:30 2010," US and USA, CA and California, San Francisco, 94101",Mostly Cloudy,49,49,58,49,30,92,29.88 Rising ,47,8,CALM,0
Wed Feb  3 17:19:41 2010," US and USA, CA and California, San Francisco, 94101",Cloudy,51,51,58,49,30,91,29.89 Rising ,49,7,SSE,2
Wed Feb  3 18:07:58 2010," US and USA, CA and California, San Francisco, 94101",Mostly Cloudy,52,52,58,49,20,92,29.89 Steady ,49,6,SSE,1
Wed Feb  3 18:51:06 2010," US and USA, CA and California, San Francisco, 94101",Mostly Cloudy,53,53,58,49,20,88,29.89 Steady ,50,8,SE,4
Wed Feb  3 19:35:22 2010," US and USA, CA and California, San Francisco, 94101",Mostly Cloudy,53,53,59,50,10,86,29.90 Steady ,49,7,SSE,5
Wed Feb  3 20:19:26 2010," US and USA, CA and California, San Francisco, 94101",Mostly Cloudy,53,53,59,50,10,85,29.89 Falling ,49,7,SE,6
Wed Feb  3 21:03:45 2010," US and USA, CA and California, San Francisco, 94101",Mostly Cloudy,54,54,59,50,10,86,29.89 Steady ,50,7,SE,5
Wed Feb  3 21:51:50 2010," US and USA, CA and California, San Francisco, 94101",Mostly Cloudy,54,54,59,50,10,85,29.87 Steady ,50,8,NE,3
Wed Feb  3 22:37:22 2010," US and USA, CA and California, San Francisco, 94101",Partly Cloudy,55,55,59,50,10,85,29.84 Falling ,50,10,ENE,4
Wed Feb  3 23:28:18 2010," US and USA, CA and California, San Francisco, 94101",Partly Cloudy,55,55,59,50,10,79,29.82 Falling Rapidly ,49,10,CALM,0
Thu Feb  4 00:13:14 2010," US and USA, CA and California, San Francisco, 94101",Partly Cloudy,56,56,59,50,10,76,29.81 Steady ,49,10,NNW,3
Thu Feb  4 00:57:16 2010," US and USA, CA and California, San Francisco, 94101",Mostly Cloudy,56,56,59,50,10,77,29.82 Rising ,49,9,N,2
Thu Feb  4 01:40:34 2010," US and USA, CA and California, San Francisco, 94101",Cloudy,57,57,59,50,10,76,29.83 Steady ,49,10,NW,6
Thu Feb  4 02:28:18 2010," US and USA, CA and California, San Francisco, 94101",Cloudy,56,56,59,50,10,77,29.84 Rising ,49,10,WNW,7
Thu Feb  4 03:11:30 2010," US and USA, CA and California, San Francisco, 94101",Mostly Cloudy,56,56,59,50,10,79,29.84 Steady ,49,9,W,6
Thu Feb  4 03:55:57 2010," US and USA, CA and California, San Francisco, 94101",Mostly Cloudy,56,56,59,50,10,78,29.84 Steady ,49,10,SW,2
Thu Feb  4 04:39:13 2010," US and USA, CA and California, San Francisco, 94101",Mostly Cloudy,56,56,59,50,10,77,29.84 Steady ,49,10,WSW,2
Thu Feb  4 05:22:35 2010," US and USA, CA and California, San Francisco, 94101",Cloudy,56,56,59,50,10,82,29.84 Steady ,50,10,CALM,0
Thu Feb  4 15:00:11 2010," US and USA, CA and California, San Francisco, 94101",Cloudy,54,54,56,54,60,86,29.81 Steady ,50,9,ESE,7
Thu Jan 28 15:39:49 2010," US and USA, CA and California, San Francisco, 94101",Partly Cloudy,47,43,58,49,10,92,30.07 Steady ,44,6,ESE,7
Thu Jan 28 16:00:38 2010," US and USA, CA and California, San Francisco, 94101",Partly Cloudy,47,43,58,49,10,92,30.07 Steady ,44,6,ESE,7
Thu Jan 28 16:49:57 2010," US and USA, CA and California, San Francisco, 94101",Partly Cloudy,47,44,58,49,10,92,30.08 Steady ,45,6,SE,7
Thu Jan 28 17:14:11 2010," US and USA, CA and California, San Francisco, 94101",Partly Cloudy,48,44,58,49,10,91,30.09 Rising ,45,6,SE,8
Thu Jan 28 17:30:12 2010," US and USA, CA and California, San Francisco, 94101",Partly Cloudy,48,44,58,49,10,91,30.09 Rising ,45,6,SE,8
Fri Jan 29 08:42:24 2010," US and USA, CA and California, San Francisco, 94101",Partly Cloudy,51,51,56,49,10,84,30.04 Steady ,47,6,SE,4
Fri Jan 29 09:26:19 2010," US and USA, CA and California, San Francisco, 94101",Partly Cloudy,51,51,56,48,40,84,30.04 Steady ,46,7,SE,4
Fri Jan 29 11:58:22 2010," US and USA, CA and California, San Francisco, 94101",Partly Cloudy,50,48,55,50,40,87,30.04 Steady ,46,6,SE,5
Fri Jan 29 12:43:04 2010," US and USA, CA and California, San Francisco, 94101",Mostly Cloudy,51,51,55,50,40,84,30.04 Steady ,46,8,SE,1
Fri Jan 29 13:30:47 2010," US and USA, CA and California, San Francisco, 94101",Mostly Cloudy,51,51,55,50,40,85,30.03 Falling ,46,8,ESE,3
Fri Jan 29 14:18:37 2010," US and USA, CA and California, San Francisco, 94101",Mostly Cloudy,51,51,55,50,40,88,30.03 Steady ,48,7,SE,3
Fri Jan 29 15:03:25 2010," US and USA, CA and California, San Francisco, 94101",Cloudy,50,50,55,50,40,90,30.02 Falling ,47,6,SE,7
Fri Jan 29 15:48:57 2010," US and USA, CA and California, San Francisco, 94101",Mostly Cloudy,51,51,55,50,40,91,30.01 Steady ,48,5,ESE,4
Fri Jan 29 16:36:46 2010," US and USA, CA and California, San Francisco, 94101",Mostly Cloudy,51,51,55,50,40,88,30.01 Steady ,48,6,SE,8
Fri Jan 29 17:21:11 2010," US and USA, CA and California, San Francisco, 94101",Cloudy,51,51,55,50,40,89,30.02 Steady ,48,5,ESE,7
Fri Jan 29 18:09:39 2010," US and USA, CA and California, San Francisco, 94101",Mostly Cloudy,51,51,55,50,40,88,30.02 Steady ,48,5,ESE,5
Fri Jan 29 18:54:38 2010," US and USA, CA and California, San Francisco, 94101",Cloudy,53,53,55,50,40,90,30.02 Steady ,50,5,ENE,7
Fri Jan 29 19:46:37 2010," US and USA, CA and California, San Francisco, 94101",Mostly Cloudy,53,53,56,51,40,88,30.02 Steady ,50,6,ESE,8
Fri Jan 29 20:44:26 2010," US and USA, CA and California, San Francisco, 94101",Partly Cloudy,54,54,56,51,40,85,30.02 Steady ,49,6,SSE,10
Fri Jan 29 21:29:03 2010," US and USA, CA and California, San Francisco, 94101",Mostly Cloudy,52,52,57,51,40,89,30.00 Falling Rapidly ,49,6,SSW,10
Fri Jan 29 22:15:40 2010," US and USA, CA and California, San Francisco, 94101",Mostly Cloudy,55,55,55,51,40,79,29.97 Falling Rapidly ,48,8,SSW,10
Fri Jan 29 23:00:35 2010," US and USA, CA and California, San Francisco, 94101",Mostly Cloudy,55,55,55,51,40,76,29.97 Steady ,48,8,SW,7
Fri Jan 29 23:44:50 2010," US and USA, CA and California, San Francisco, 94101",Cloudy,55,55,55,51,40,75,29.97 Steady ,47,8,SW,10to21
Sat Jan 30 00:28:56 2010," US and USA, CA and California, San Francisco, 94101",Cloudy,55,55,55,51,40,77,29.96 Falling ,48,8,S,10
Sat Jan 30 01:13:05 2010," US and USA, CA and California, San Francisco, 94101",Showers,55,55,55,51,40,78,29.96 Rising ,48,5,SSE,9
Sat Jan 30 01:57:02 2010," US and USA, CA and California, San Francisco, 94101",Rain,54,54,55,51,40,85,29.96 Steady ,50,2,SW,10
Sat Jan 30 02:41:20 2010," US and USA, CA and California, San Francisco, 94101",Showers,52,52,55,51,40,95,29.95 Falling ,50,5,SSE,9
Sat Jan 30 03:24:51 2010," US and USA, CA and California, San Francisco, 94101",Cloudy,52,52,55,51,40,92,29.96 Rising ,50,9,SE,7
Sat Jan 30 04:08:47 2010," US and USA, CA and California, San Francisco, 94101",Cloudy,52,52,55,51,40,90,29.96 Steady ,49,7,SE,9
Sat Jan 30 04:52:32 2010," US and USA, CA and California, San Francisco, 94101",Cloudy,53,53,55,51,40,89,29.97 Rising ,50,8,SSE,10
Sat Jan 30 05:36:18 2010," US and USA, CA and California, San Francisco, 94101",Cloudy,53,53,55,51,40,90,29.97 Steady ,50,6,SW,10
Sat Jan 30 06:20:23 2010," US and USA, CA and California, San Francisco, 94101",Cloudy,53,53,55,51,40,90,29.97 Steady ,50,6,SW,10
Sat Jan 30 07:06:22 2010," US and USA, CA and California, San Francisco, 94101",Cloudy,53,53,55,51,40,90,29.98 Steady ,50,10,W,4
Sat Jan 30 07:49:02 2010," US and USA, CA and California, San Francisco, 94101",Cloudy,53,53,55,51,40,91,29.99 Steady ,50,8,SW,6
Sat Jan 30 08:32:17 2010," US and USA, CA and California, San Francisco, 94101",Cloudy,53,53,55,51,40,89,30.00 Rising ,49,8,WNW,3
Sat Jan 30 11:14:03 2010," US and USA, CA and California, San Francisco, 94101",Mostly Cloudy,51,51,54,46,30,92,30.00 Falling ,48,10,S,6
Sat Jan 30 12:01:53 2010," US and USA, CA and California, San Francisco, 94101",Mostly Cloudy,50,50,54,46,30,92,30.00 Steady ,48,10,S,6
Sat Jan 30 12:45:30 2010," US and USA, CA and California, San Francisco, 94101",Partly Cloudy,50,48,54,46,30,94,30.01 Steady ,48,9,S,5
Sat Jan 30 13:28:43 2010," US and USA, CA and California, San Francisco, 94101",Partly Cloudy,50,50,54,46,30,94,30.01 Steady ,48,9,SSE,1
Sat Jan 30 14:12:54 2010," US and USA, CA and California, San Francisco, 94101",Partly Cloudy,49,49,54,46,30,95,30.01 Steady ,48,8,S,3
Sat Jan 30 14:57:11 2010," US and USA, CA and California, San Francisco, 94101",Mostly Cloudy,49,49,54,46,30,94,30.02 Steady ,47,8,SSW,3
Sat Jan 30 15:42:49 2010," US and USA, CA and California, San Francisco, 94101",Mostly Cloudy,49,49,54,46,30,94,30.03 Rising ,47,8,SW,2
Sat Jan 30 16:27:47 2010," US and USA, CA and California, San Francisco, 94101",Mostly Cloudy,49,49,54,46,30,94,30.03 Steady ,47,7,SW,2
Sat Jan 30 17:12:14 2010," US and USA, CA and California, San Francisco, 94101",Mostly Cloudy,49,49,54,46,30,95,30.04 Steady ,47,8,SW,2
Sat Jan 30 17:55:24 2010," US and USA, CA and California, San Francisco, 94101",Mostly Cloudy,50,50,54,46,30,95,30.05 Steady ,48,9,S,4
Sat Jan 30 18:39:24 2010," US and USA, CA and California, San Francisco, 94101",Partly Cloudy,52,52,54,46,30,94,30.06 Steady ,50,10,S,7
Sat Jan 30 19:22:42 2010," US and USA, CA and California, San Francisco, 94101",Partly Cloudy,52,52,55,46,30,91,30.07 Rising ,50,10,SSE,6
Sat Jan 30 20:06:58 2010," US and USA, CA and California, San Francisco, 94101",Mostly Cloudy,53,53,55,46,30,88,30.07 Steady ,49,9,SSE,5
Sat Jan 30 20:50:03 2010," US and USA, CA and California, San Francisco, 94101",Partly Cloudy,52,52,55,46,30,93,30.07 Steady ,50,9,SSE,7
Sat Jan 30 21:33:49 2010," US and USA, CA and California, San Francisco, 94101",Mostly Cloudy,53,53,56,46,20,88,30.07 Steady ,50,9,W,7
Sat Jan 30 22:17:20 2010," US and USA, CA and California, San Francisco, 94101",Partly Cloudy,54,54,57,46,20,84,30.05 Falling Rapidly ,49,9,WNW,4
Sat Jan 30 23:02:46 2010," US and USA, CA and California, San Francisco, 94101",Partly Cloudy,53,53,57,46,20,84,30.05 Steady ,49,9,W,5
Sat Jan 30 23:47:40 2010," US and USA, CA and California, San Francisco, 94101",Partly Cloudy,53,53,57,46,20,83,30.02 Falling ,48,9,WNW,5
Sun Jan 31 00:31:39 2010," US and USA, CA and California, San Francisco, 94101",Partly Cloudy,54,54,57,46,20,83,30.02 Steady ,49,9,WNW,5
Sun Jan 31 01:22:06 2010," US and USA, CA and California, San Francisco, 94101",Partly Cloudy,56,56,57,46,20,77,30.02 Steady ,48,8,WNW,6
Sun Jan 31 02:06:06 2010," US and USA, CA and California, San Francisco, 94101",Partly Cloudy,55,55,57,46,20,81,30.02 Steady ,49,8,W,8
Sun Jan 31 02:49:30 2010," US and USA, CA and California, San Francisco, 94101",Partly Cloudy,55,55,57,46,20,79,30.02 Steady ,48,8,WNW,8
Sun Jan 31 03:33:25 2010," US and USA, CA and California, San Francisco, 94101",Partly Cloudy,53,53,57,46,20,88,30.02 Steady ,50,8,WNW,8
Sun Jan 31 04:17:13 2010," US and USA, CA and California, San Francisco, 94101",Partly Cloudy,52,52,57,46,20,90,30.03 Rising ,49,9,WNW,7
Sun Jan 31 05:01:29 2010," US and USA, CA and California, San Francisco, 94101",Partly Cloudy,52,52,57,46,20,89,30.03 Steady ,49,9,WNW,7
Sun Jan 31 05:47:52 2010," US and USA, CA and California, San Francisco, 94101",Partly Cloudy,53,53,57,46,20,84,30.03 Falling ,48,9,WNW,7
Sun Jan 31 06:32:43 2010," US and USA, CA and California, San Francisco, 94101",Partly Cloudy,53,53,57,46,20,85,30.04 Rising ,48,9,WNW,6
Sun Jan 31 07:15:36 2010," US and USA, CA and California, San Francisco, 94101",Partly Cloudy,52,52,57,46,20,87,30.04 Steady ,48,10,NW,4
Sun Jan 31 08:02:19 2010," US and USA, CA and California, San Francisco, 94101",Partly Cloudy,51,51,57,46,20,87,30.04 Steady ,47,9,NNW,4
Sun Jan 31 08:47:00 2010," US and USA, CA and California, San Francisco, 94101",Partly Cloudy,51,51,57,46,20,86,30.04 Steady ,47,10,NNW,1
Sun Jan 31 09:30:14 2010," US and USA, CA and California, San Francisco, 94101",Partly Cloudy,51,51,57,46,20,87,30.04 Steady ,47,9,SE,1
Sun Jan 31 10:13:25 2010," US and USA, CA and California, San Francisco, 94101",Partly Cloudy,49,49,57,46,20,86,30.03 Steady ,45,8,ESE,1
Sun Jan 31 10:57:13 2010," US and USA, CA and California, San Francisco, 94101",Partly Cloudy,49,49,57,46,20,86,30.03 Steady ,45,8,ESE,1
Sun Jan 31 11:40:44 2010," US and USA, CA and California, San Francisco, 94101",Partly Cloudy,48,48,56,47,20,89,30.02 Falling ,45,9,NE,2
Sun Jan 31 12:24:19 2010," US and USA, CA and California, San Francisco, 94101",Mostly Cloudy,47,47,56,47,20,92,30.02 Falling ,44,9,N,3
Sun Jan 31 13:07:42 2010," US and USA, CA and California, San Francisco, 94101",Mostly Cloudy,47,45,56,47,20,94,30.02 Steady ,45,7,NE,4
Sun Jan 31 13:51:19 2010," US and USA, CA and California, San Francisco, 94101",Cloudy,47,47,56,47,20,92,30.01 Steady ,45,7,ENE,3
Sun Jan 31 14:34:07 2010," US and USA, CA and California, San Francisco, 94101",Cloudy,47,45,56,47,20,93,30.02 Rising ,45,7,E,5
Sun Jan 31 15:18:13 2010," US and USA, CA and California, San Francisco, 94101",Cloudy,48,45,56,47,20,94,30.02 Steady ,46,7,ENE,5
Sun Jan 31 16:01:45 2010," US and USA, CA and California, San Francisco, 94101",Cloudy,48,46,55,47,20,94,30.03 Rising ,46,7,E,5
Sun Jan 31 16:51:33 2010," US and USA, CA and California, San Francisco, 94101",Cloudy,47,47,55,47,20,92,30.03 Steady ,45,8,E,3
Sun Jan 31 17:35:10 2010," US and USA, CA and California, San Francisco, 94101",Mostly Cloudy,47,47,56,47,20,92,30.04 Steady ,45,7,ENE,3
Sun Jan 31 18:20:10 2010," US and USA, CA and California, San Francisco, 94101",Mostly Cloudy,50,48,55,47,20,89,30.05 Rising ,46,8,E,5
Sun Jan 31 19:03:58 2010," US and USA, CA and California, San Francisco, 94101",Mostly Cloudy,51,51,55,47,20,90,30.05 Steady ,48,8,ESE,4
Sun Jan 31 19:49:27 2010," US and USA, CA and California, San Francisco, 94101",Mostly Cloudy,50,50,57,47,20,90,30.06 Steady ,47,7,E,2
Sun Jan 31 20:32:17 2010," US and USA, CA and California, San Francisco, 94101",Mostly Cloudy,50,50,57,47,20,88,30.06 Steady ,47,7,ENE,4
Sun Jan 31 21:16:55 2010," US and USA, CA and California, San Francisco, 94101",Mostly Cloudy,51,51,56,47,20,91,30.04 Falling ,48,8,NNW,4
Sun Jan 31 21:59:42 2010," US and USA, CA and California, San Francisco, 94101",Mostly Cloudy,50,50,56,47,20,91,30.03 Falling ,48,8,NNW,5
Sun Jan 31 22:44:32 2010," US and USA, CA and California, San Francisco, 94101",Mostly Cloudy,51,51,56,47,20,89,30.00 Falling ,48,8,NNE,5
Sun Jan 31 23:27:52 2010," US and USA, CA and California, San Francisco, 94101",Partly Cloudy,52,52,56,47,20,87,29.99 Falling ,48,9,N,6
Mon Feb  1 00:11:50 2010," US and USA, CA and California, San Francisco, 94101",Partly Cloudy,53,53,56,47,20,84,29.99 Steady ,48,10,N,6
Mon Feb  1 00:54:45 2010," US and USA, CA and California, San Francisco, 94101",Partly Cloudy,53,53,56,47,20,85,29.99 Steady ,49,9,NNW,7
Mon Feb  1 01:41:02 2010," US and USA, CA and California, San Francisco, 94101",Partly Cloudy,54,54,56,47,20,85,29.98 Steady ,49,9,N,7
Mon Feb  1 02:25:02 2010," US and USA, CA and California, San Francisco, 94101",Partly Cloudy,55,55,56,47,20,80,29.99 Rising ,49,9,NE,3
Mon Feb  1 03:08:42 2010," US and USA, CA and California, San Francisco, 94101",Partly Cloudy,53,53,56,47,20,84,29.99 Steady ,49,9,ENE,3
Mon Feb  1 03:53:23 2010," US and USA, CA and California, San Francisco, 94101",Partly Cloudy,53,53,56,47,20,87,29.98 Falling ,49,9,NNE,4
Mon Feb  1 04:38:11 2010," US and USA, CA and California, San Francisco, 94101",Cloudy,54,54,56,47,20,85,29.98 Steady ,49,9,S,3
Mon Feb  1 05:21:20 2010," US and USA, CA and California, San Francisco, 94101",Partly Cloudy,54,54,56,47,20,84,29.97 Falling ,50,10,SE,2
Mon Feb  1 06:06:14 2010," US and USA, CA and California, San Francisco, 94101",Partly Cloudy,54,54,56,47,20,84,29.97 Steady ,50,10,SE,3
Mon Feb  1 06:49:24 2010," US and USA, CA and California, San Francisco, 94101",Partly Cloudy,54,54,56,47,20,79,29.98 Steady ,48,10,S,5
Mon Feb  1 07:33:13 2010," US and USA, CA and California, San Francisco, 94101",Mostly Cloudy,53,53,56,47,20,81,29.98 Steady ,47,10,SE,4
Mon Feb  1 08:16:38 2010," US and USA, CA and California, San Francisco, 94101",Cloudy,53,53,56,47,20,81,29.98 Steady ,47,10,SE,4
Mon Feb  1 09:00:06 2010," US and USA, CA and California, San Francisco, 94101",Cloudy,51,51,56,47,30,86,29.98 Steady ,47,10,ESE,4
Mon Feb  1 09:43:03 2010," US and USA, CA and California, San Francisco, 94101",Cloudy,52,52,56,48,30,82,29.97 Steady ,47,10,SE,1
Mon Feb  1 10:26:36 2010," US and USA, CA and California, San Francisco, 94101",Mostly Cloudy,53,53,56,48,30,81,29.98 Rising ,47,10,SE,2
Mon Feb  1 11:09:33 2010," US and USA, CA and California, San Francisco, 94101",Cloudy,52,52,56,48,30,81,29.98 Steady ,47,10,S,3
Mon Feb  1 11:53:01 2010," US and USA, CA and California, San Francisco, 94101",Cloudy,53,53,55,49,30,86,29.98 Steady ,49,10,SSW,3
Mon Feb  1 12:36:23 2010," US and USA, CA and California, San Francisco, 94101",Cloudy,52,52,55,49,30,88,29.98 Steady ,49,9,WSW,4
Mon Feb  1 13:19:54 2010," US and USA, CA and California, San Francisco, 94101",Mostly Cloudy,52,52,55,49,30,88,29.96 Falling Rapidly ,48,9,ESE,3
Mon Feb  1 14:03:48 2010," US and USA, CA and California, San Francisco, 94101",Mostly Cloudy,51,51,55,49,30,87,29.96 Steady ,48,9,ESE,4
Mon Feb  1 14:48:51 2010," US and USA, CA and California, San Francisco, 94101",Cloudy,49,49,55,49,30,89,29.95 Steady ,45,9,SE,1
Mon Feb  1 15:32:36 2010," US and USA, CA and California, San Francisco, 94101",Partly Cloudy,48,48,55,49,30,91,29.95 Steady ,46,9,S,4
Mon Feb  1 16:17:19 2010," US and USA, CA and California, San Francisco, 94101",Partly Cloudy,48,48,55,49,30,91,29.95 Steady ,46,9,S,3
Mon Feb  1 17:02:06 2010," US and USA, CA and California, San Francisco, 94101",Mostly Cloudy,50,48,55,49,30,86,29.96 Steady ,46,9,SE,5
Mon Feb  1 17:45:54 2010," US and USA, CA and California, San Francisco, 94101",Partly Cloudy,52,52,55,49,30,82,29.97 Steady ,47,9,S,2
Mon Feb  1 18:29:24 2010," US and USA, CA and California, San Francisco, 94101",Cloudy,52,52,56,49,30,86,29.96 Steady ,48,8,ESE,8
Mon Feb  1 19:13:10 2010," US and USA, CA and California, San Francisco, 94101",Mostly Cloudy,53,53,56,49,30,85,29.96 Steady ,49,8,E,6
Mon Feb  1 19:58:00 2010," US and USA, CA and California, San Francisco, 94101",Partly Cloudy,53,53,56,49,30,80,29.96 Steady ,47,10,SSE,2
Mon Feb  1 20:44:25 2010," US and USA, CA and California, San Francisco, 94101",Mostly Cloudy,53,53,56,49,30,80,29.97 Steady ,48,10,CALM,0
Mon Feb  1 21:29:25 2010," US and USA, CA and California, San Francisco, 94101",Mostly Cloudy,53,53,56,49,30,82,29.95 Falling ,47,10,NNE,2
Mon Feb  1 22:12:46 2010," US and USA, CA and California, San Francisco, 94101",Partly Cloudy,53,53,56,49,30,81,29.94 Steady ,47,10,NE,3
Mon Feb  1 22:56:06 2010," US and USA, CA and California, San Francisco, 94101",Mostly Cloudy,54,54,57,49,30,79,29.92 Steady ,48,10,NNE,1
Mon Feb  1 23:42:12 2010," US and USA, CA and California, San Francisco, 94101",Mostly Cloudy,54,54,57,49,50,76,29.90 Falling ,46,10,NNW,4
Tue Feb  2 00:29:06 2010," US and USA, CA and California, San Francisco, 94101",Mostly Cloudy,54,54,57,49,50,79,29.90 Steady ,47,9,NNE,5
Tue Feb  2 01:14:43 2010," US and USA, CA and California, San Francisco, 94101",Cloudy,54,54,57,49,50,77,29.90 Steady ,47,9,N,5
Tue Feb  2 01:57:50 2010," US and USA, CA and California, San Francisco, 94101",Cloudy,55,55,57,49,50,78,29.90 Steady ,48,9,NNW,5
Tue Feb  2 02:41:53 2010," US and USA, CA and California, San Francisco, 94101",Cloudy,55,55,57,49,50,82,29.92 Steady ,50,9,NNW,5
Tue Feb  2 03:25:24 2010," US and USA, CA and California, San Francisco, 94101",Cloudy,54,54,57,49,50,82,29.92 Steady ,49,10,N,5
Tue Feb  2 04:09:11 2010," US and USA, CA and California, San Francisco, 94101",Mostly Cloudy,53,53,57,49,50,82,29.92 Steady ,48,9,NNW,4
Tue Feb  2 04:52:44 2010," US and USA, CA and California, San Francisco, 94101",Mostly Cloudy,52,52,57,49,50,87,29.92 Falling ,48,9,N,3
Tue Feb  2 05:36:07 2010," US and USA, CA and California, San Francisco, 94101",Mostly Cloudy,52,52,57,49,50,78,29.92 Steady ,46,9,E,3
Tue Feb  2 06:19:25 2010," US and USA, CA and California, San Francisco, 94101",Cloudy,52,52,57,49,50,78,29.92 Steady ,46,9,ESE,2
Tue Feb  2 07:06:33 2010," US and USA, CA and California, San Francisco, 94101",Cloudy,52,52,57,49,50,86,29.92 Steady ,48,10,E,3
Tue Feb  2 07:49:32 2010," US and USA, CA and California, San Francisco, 94101",Cloudy,52,52,57,49,50,81,29.92 Steady ,46,10,E,4
Tue Feb  2 08:32:44 2010," US and USA, CA and California, San Francisco, 94101",Mostly Cloudy,51,51,57,49,50,87,29.92 Steady ,47,9,ESE,8
Tue Feb  2 09:16:14 2010," US and USA, CA and California, San Francisco, 94101",Partly Cloudy,52,52,57,49,50,88,29.91 Falling ,48,10,E,8
Tue Feb  2 09:59:45 2010," US and USA, CA and California, San Francisco, 94101",Partly Cloudy,51,51,57,49,50,87,29.91 Steady ,48,10,E,9
Tue Feb  2 10:43:19 2010," US and USA, CA and California, San Francisco, 94101",Partly Cloudy,51,51,57,49,50,89,29.90 Steady ,48,9,ESE,8
Tue Feb  2 11:27:27 2010," US and USA, CA and California, San Francisco, 94101",Mostly Cloudy,51,51,56,50,50,88,29.90 Steady ,47,9,ESE,5
Tue Feb  2 12:11:28 2010," US and USA, CA and California, San Francisco, 94101",Mostly Cloudy,51,51,56,50,50,88,29.90 Steady ,48,10,ESE,4
Tue Feb  2 12:55:21 2010," US and USA, CA and California, San Francisco, 94101",Cloudy,52,52,57,50,50,86,29.89 Steady ,48,10,E,7
Tue Feb  2 13:38:42 2010," US and USA, CA and California, San Francisco, 94101",Mostly Cloudy,51,51,56,50,50,88,29.88 Steady ,47,9,E,9
Tue Feb  2 14:22:21 2010," US and USA, CA and California, San Francisco, 94101",Partly Cloudy,49,46,56,50,50,91,29.87 Falling ,47,9,E,9
Tue Feb  2 15:06:43 2010," US and USA, CA and California, San Francisco, 94101",Partly Cloudy,50,45,56,50,50,92,29.87 Steady ,47,9,ESE,11
Tue Feb  2 15:53:06 2010," US and USA, CA and California, San Francisco, 94101",Mostly Cloudy,49,47,56,50,50,88,29.87 Steady ,46,9,ESE,5
Tue Feb  2 16:45:36 2010," US and USA, CA and California, San Francisco, 94101",Mostly Cloudy,49,47,56,50,50,87,29.88 Steady ,46,10,E,6
Tue Feb  2 17:34:05 2010," US and USA, CA and California, San Francisco, 94101",Mostly Cloudy,50,50,56,50,50,89,29.88 Steady ,47,9,E,6
Tue Feb  2 18:18:40 2010," US and USA, CA and California, San Francisco, 94101",Cloudy,52,52,56,50,50,83,29.89 Steady ,46,10,E,7
Tue Feb  2 19:02:51 2010," US and USA, CA and California, San Francisco, 94101",Mostly Cloudy,52,52,56,50,50,78,29.89 Steady ,46,9,E,8
Tue Feb  2 19:52:15 2010," US and USA, CA and California, San Francisco, 94101",Mostly Cloudy,53,53,57,50,50,76,29.89 Steady ,46,10,ESE,9
Tue Feb  2 20:43:25 2010," US and USA, CA and California, San Francisco, 94101",Mostly Cloudy,54,54,57,50,50,72,29.88 Steady ,45,10,ESE,9
Tue Feb  2 21:30:16 2010," US and USA, CA and California, San Francisco, 94101",Mostly Cloudy,53,53,56,50,40,75,29.86 Falling Rapidly ,45,10,ESE,8
Tue Feb  2 22:18:39 2010," US and USA, CA and California, San Francisco, 94101",Cloudy,53,53,56,50,40,77,29.84 Falling ,46,10,SE,7
Tue Feb  2 23:02:56 2010," US and USA, CA and California, San Francisco, 94101",Cloudy,53,53,56,50,40,78,29.84 Steady ,47,10,SE,5
Tue Feb  2 23:48:15 2010," US and USA, CA and California, San Francisco, 94101",Cloudy,54,54,56,50,50,77,29.83 Steady ,47,10,S,4
Wed Feb  3 00:32:40 2010," US and USA, CA and California, San Francisco, 94101",Cloudy,55,55,56,50,50,78,29.83 Steady ,48,8,SW,5
Wed Feb  3 01:19:51 2010," US and USA, CA and California, San Francisco, 94101",Mostly Cloudy,55,55,56,50,50,79,29.83 Steady ,49,9,SE,2
Wed Feb  3 02:05:03 2010," US and USA, CA and California, San Francisco, 94101",Mostly Cloudy,55,55,56,50,50,81,29.84 Rising ,49,6,SSE,4
Wed Feb  3 02:53:20 2010," US and USA, CA and California, San Francisco, 94101",Cloudy,55,55,56,50,50,79,29.85 Steady ,49,10,SSW,1
Wed Feb  3 03:40:09 2010," US and USA, CA and California, San Francisco, 94101",Cloudy,56,56,56,50,50,80,29.85 Steady ,50,10,CALM,0
Wed Feb  3 04:28:18 2010," US and USA, CA and California, San Francisco, 94101",Cloudy,55,55,56,50,50,83,29.85 Steady ,50,10,NW,2
Wed Feb  3 05:15:09 2010," US and USA, CA and California, San Francisco, 94101",Mostly Cloudy,54,54,56,50,50,84,29.84 Falling ,49,9,WSW,2
Wed Feb  3 06:02:57 2010," US and USA, CA and California, San Francisco, 94101",Mostly Cloudy,54,54,56,50,50,84,29.84 Steady ,50,10,SW,2
Thu Feb  4 06:05:26 2010," US and USA, CA and California, San Francisco, 94101",Mostly Cloudy,54,54,59,50,10,84,29.84 Steady ,50,10,CALM,0
Thu Feb  4 06:48:30 2010," US and USA, CA and California, San Francisco, 94101",Partly Cloudy,53,53,59,50,10,87,29.84 Steady ,49,10,CALM,0
Thu Feb  4 07:32:08 2010," US and USA, CA and California, San Francisco, 94101",Partly Cloudy,53,53,59,50,10,87,29.84 Steady ,49,10,SSE,1
Thu Feb  4 08:14:40 2010," US and USA, CA and California, San Francisco, 94101",Partly Cloudy,53,53,59,50,10,86,29.84 Steady ,48,10,SE,1
Thu Feb  4 08:58:20 2010," US and USA, CA and California, San Francisco, 94101",Partly Cloudy,52,52,59,50,10,91,29.85 Steady ,50,10,SSW,2
Thu Feb  4 09:42:16 2010," US and USA, CA and California, San Francisco, 94101",Cloudy,51,51,59,51,60,88,29.85 Steady ,48,10,S,2
Thu Feb  4 10:25:55 2010," US and USA, CA and California, San Francisco, 94101",Mostly Cloudy,52,52,59,51,60,90,29.84 Steady ,50,10,CALM,0
Thu Feb  4 11:11:51 2010," US and USA, CA and California, San Francisco, 94101",Mostly Cloudy,53,53,59,51,60,90,29.83 Falling ,50,10,SE,4
Thu Feb  4 11:55:23 2010," US and USA, CA and California, San Francisco, 94101",Partly Cloudy,54,54,56,54,60,89,29.83 Steady ,51,10,SE,7
Thu Feb  4 12:38:28 2010," US and USA, CA and California, San Francisco, 94101",Mostly Cloudy,53,53,56,54,60,88,29.83 Steady ,50,10,SSE,4
Thu Feb  4 13:22:32 2010," US and USA, CA and California, San Francisco, 94101",Cloudy,54,54,56,54,60,86,29.83 Steady ,49,10,SE,5
Thu Feb  4 14:07:21 2010," US and USA, CA and California, San Francisco, 94101",Cloudy,54,54,56,54,60,86,29.83 Steady ,50,9,SE,5
Wed Feb  3 06:49:41 2010," US and USA, CA and California, San Francisco, 94101",Mostly Cloudy,53,53,56,50,50,88,29.84 Steady ,50,9,CALM,0
Wed Feb  3 07:34:09 2010," US and USA, CA and California, San Jose, 95101",Mostly Clear,49,49,58,45,50,94,29.85 Steady ,48,8,S,4
Wed Feb  3 09:03:47 2010," US and USA, CA and California, San Jose, 95101",Mostly Clear,49,49,58,45,20,95,29.84 Steady ,47,9,SE,4
Wed Feb  3 09:47:37 2010," US and USA, CA and California, San Jose, 95101",Partly Cloudy,48,48,58,45,20,93,29.85 Rising ,46,9,CALM,0
Wed Feb  3 10:31:02 2010," US and USA, CA and California, San Jose, 95101",Clear,47,47,58,45,20,93,29.85 Steady ,45,10,CALM,0
Wed Feb  3 11:17:53 2010," US and USA, CA and California, San Jose, 95101",Mostly Cloudy,44,41,60,46,20,100,29.84 Falling ,44,7,ESE,5
Wed Feb  3 12:02:37 2010," US and USA, CA and California, San Jose, 95101",Mostly Cloudy,44,40,60,46,20,100,29.84 Steady ,44,7,ESE,5
Wed Feb  3 12:45:49 2010," US and USA, CA and California, San Jose, 95101",Partly Cloudy,45,45,61,46,20,95,29.84 Steady ,44,10,S,4
Wed Feb  3 13:29:32 2010," US and USA, CA and California, San Jose, 95101",Partly Cloudy,46,46,61,46,20,93,29.83 Falling ,44,7,CALM,0
Wed Feb  3 14:15:40 2010," US and USA, CA and California, San Jose, 95101",Clear,45,45,60,46,20,97,29.83 Steady ,44,6,CALM,0
Wed Feb  3 15:01:40 2010," US and USA, CA and California, San Jose, 95101",Clear,44,44,60,46,20,97,29.83 Steady ,44,6,CALM,0
Wed Feb  3 15:46:28 2010," US and USA, CA and California, San Jose, 95101",Mostly Cloudy,44,44,61,46,20,97,29.87 Steady ,43,7,ESE,4
Wed Feb  3 16:32:21 2010," US and USA, CA and California, San Jose, 95101",Mostly Cloudy,45,45,61,46,20,93,29.88 Rising ,43,7,SE,3
Wed Feb  3 17:19:32 2010," US and USA, CA and California, San Jose, 95101",Partly Cloudy,46,44,60,46,20,89,29.89 Rising ,43,6,SE,5
Wed Feb  3 18:07:49 2010," US and USA, CA and California, San Jose, 95101",Partly Cloudy,50,50,60,46,20,82,29.89 Steady ,45,7,SE,4
Wed Feb  3 18:50:57 2010," US and USA, CA and California, San Jose, 95101",Partly Cloudy,51,51,60,46,10,86,29.90 Steady ,47,10,ESE,4
Wed Feb  3 19:35:13 2010," US and USA, CA and California, San Jose, 95101",Partly Cloudy,55,55,62,46,10,76,29.90 Steady ,48,10,CALM,0
Wed Feb  3 20:19:17 2010," US and USA, CA and California, San Jose, 95101",Partly Cloudy,58,58,62,46,10,67,29.88 Falling Rapidly ,47,10,CALM,0
Wed Feb  3 21:03:36 2010," US and USA, CA and California, San Jose, 95101",Partly Cloudy,59,59,62,46,10,60,29.88 Steady ,45,10,CALM,0
Wed Feb  3 21:51:41 2010," US and USA, CA and California, San Jose, 95101",Partly Cloudy,61,61,61,46,10,59,29.86 Steady ,46,10,CALM,0
Wed Feb  3 22:37:14 2010," US and USA, CA and California, San Jose, 95101",Mostly Sunny,62,62,62,46,10,57,29.83 Steady ,47,10,WNW,6
Wed Feb  3 23:28:08 2010," US and USA, CA and California, San Jose, 95101",Mostly Cloudy,62,62,62,46,10,52,29.80 Falling Rapidly ,44,10,NW,5
Thu Feb  4 00:13:05 2010," US and USA, CA and California, San Jose, 95101",Mostly Cloudy,63,63,62,46,10,52,29.78 Falling Rapidly ,45,10,NW,4
Thu Feb  4 00:57:08 2010," US and USA, CA and California, San Jose, 95101",Mostly Cloudy,62,62,62,46,10,55,29.78 Steady ,46,9,NW,5
Thu Feb  4 01:40:26 2010," US and USA, CA and California, San Jose, 95101",Mostly Cloudy,56,56,62,46,10,70,29.80 Steady ,46,9,WNW,11
Thu Feb  4 02:28:10 2010," US and USA, CA and California, San Jose, 95101",Mostly Cloudy,58,58,62,46,10,72,29.82 Rising Rapidly ,49,10,NW,13
Thu Feb  4 03:11:21 2010," US and USA, CA and California, San Jose, 95101",Mostly Cloudy,55,55,62,46,10,79,29.82 Steady ,49,9,NW,10
Thu Feb  4 03:55:48 2010," US and USA, CA and California, San Jose, 95101",Cloudy,55,55,62,46,10,83,29.84 Steady ,50,10,WNW,8
Thu Feb  4 04:39:04 2010," US and USA, CA and California, San Jose, 95101",Cloudy,55,55,62,46,10,80,29.84 Steady ,49,10,WNW,5
Thu Feb  4 05:22:27 2010," US and USA, CA and California, San Jose, 95101",Cloudy,55,55,62,46,10,80,29.84 Steady ,49,10,NW,6
Thu Feb  4 15:00:01 2010," US and USA, CA and California, San Jose, 95101",Cloudy,52,52,60,50,60,88,29.83 Steady ,48,10,ESE,8
Thu Jan 28 15:39:40 2010," US and USA, CA and California, San Jose, 95101",Cloudy,47,47,62,45,10,93,30.07 Steady ,45,5,CALM,0
Thu Jan 28 16:00:29 2010," US and USA, CA and California, San Jose, 95101",Cloudy,47,47,62,45,10,93,30.07 Steady ,45,5,CALM,0
Thu Jan 28 16:49:48 2010," US and USA, CA and California, San Jose, 95101",Partly Cloudy,44,44,62,45,10,99,30.08 Steady ,44,5,S,4
Thu Jan 28 17:14:01 2010," US and USA, CA and California, San Jose, 95101",Partly Cloudy,44,44,62,45,10,98,30.08 Steady ,44,5,S,4
Thu Jan 28 17:30:03 2010," US and USA, CA and California, San Jose, 95101",Partly Cloudy,45,43,62,45,10,93,30.09 Rising ,43,4,ESE,5
Fri Jan 29 08:42:15 2010," US and USA, CA and California, San Jose, 95101",Mostly Cloudy,48,48,59,45,10,89,30.06 Steady ,45,10,CALM,0
Fri Jan 29 09:26:10 2010," US and USA, CA and California, San Jose, 95101",Mostly Cloudy,47,45,59,44,40,90,30.03 Falling Rapidly ,44,10,S,5
Fri Jan 29 11:58:13 2010," US and USA, CA and California, San Jose, 95101",Clear,46,46,58,46,40,94,30.03 Steady ,44,7,CALM,0
Fri Jan 29 12:42:55 2010," US and USA, CA and California, San Jose, 95101",Mostly Cloudy,46,46,58,46,40,90,30.02 Steady ,43,8,CALM,0
Fri Jan 29 13:30:38 2010," US and USA, CA and California, San Jose, 95101",Partly Cloudy,46,46,58,46,40,89,30.02 Steady ,43,9,CALM,0
Fri Jan 29 14:18:28 2010," US and USA, CA and California, San Jose, 95101",Partly Cloudy,45,45,58,46,40,93,30.02 Steady ,43,9,CALM,0
Fri Jan 29 15:03:16 2010," US and USA, CA and California, San Jose, 95101",Partly Cloudy,44,44,58,46,40,95,30.02 Steady ,43,9,SSE,2
Fri Jan 29 15:48:48 2010," US and USA, CA and California, San Jose, 95101",Mostly Cloudy,44,44,58,46,40,92,30.02 Steady ,42,9,S,1
Fri Jan 29 16:36:37 2010," US and USA, CA and California, San Jose, 95101",Mostly Cloudy,45,45,58,46,40,93,30.02 Steady ,43,9,CALM,0
Fri Jan 29 17:21:02 2010," US and USA, CA and California, San Jose, 95101",Cloudy,47,47,58,46,40,86,30.02 Steady ,43,8,SE,3
Fri Jan 29 18:09:30 2010," US and USA, CA and California, San Jose, 95101",Cloudy,49,47,58,46,40,85,30.02 Steady ,44,7,SE,4
Fri Jan 29 18:54:29 2010," US and USA, CA and California, San Jose, 95101",Mostly Cloudy,51,51,58,46,40,81,30.03 Steady ,45,8,NE,5
Fri Jan 29 19:46:28 2010," US and USA, CA and California, San Jose, 95101",Mostly Cloudy,54,54,59,45,40,81,30.02 Steady ,48,8,ESE,7
Fri Jan 29 20:44:18 2010," US and USA, CA and California, San Jose, 95101",Cloudy,58,58,59,45,40,73,30.02 Steady ,49,10,SE,9
Fri Jan 29 21:28:54 2010," US and USA, CA and California, San Jose, 95101",Mostly Cloudy,60,60,61,45,40,67,29.96 Falling Rapidly ,49,10,ESE,12to22
Fri Jan 29 22:15:31 2010," US and USA, CA and California, San Jose, 95101",Mostly Cloudy,60,60,61,45,40,64,29.95 Falling ,48,10,ESE,8
Fri Jan 29 23:00:26 2010," US and USA, CA and California, San Jose, 95101",Mostly Cloudy,62,62,61,45,40,62,29.95 Steady ,48,10,ESE,8
Fri Jan 29 23:44:42 2010," US and USA, CA and California, San Jose, 95101",Partly Cloudy,61,61,61,45,40,53,29.95 Steady ,44,10,SSW,16
Sat Jan 30 00:28:47 2010," US and USA, CA and California, San Jose, 95101",Mostly Cloudy,61,61,61,45,40,56,29.96 Rising ,45,10,SSW,17to24
Sat Jan 30 01:12:56 2010," US and USA, CA and California, San Jose, 95101",Mostly Cloudy,58,58,61,45,40,63,29.96 Steady ,46,8,SSW,18to26
Sat Jan 30 01:56:53 2010," US and USA, CA and California, San Jose, 95101",Mostly Cloudy,56,56,61,45,40,63,29.95 Steady ,44,8,S,11
Sat Jan 30 02:41:11 2010," US and USA, CA and California, San Jose, 95101",Cloudy,56,56,61,45,40,60,29.95 Steady ,43,10,SSE,6
Sat Jan 30 03:24:42 2010," US and USA, CA and California, San Jose, 95101",Rain,53,53,61,45,40,83,29.98 Rising Rapidly ,48,4,SW,3
Sat Jan 30 04:08:38 2010," US and USA, CA and California, San Jose, 95101",Rain,51,51,61,45,40,93,29.99 Steady ,49,2,CALM,0
Sat Jan 30 04:52:23 2010," US and USA, CA and California, San Jose, 95101",Showers,52,52,61,45,40,95,29.95 Steady ,50,7,ENE,13
Sat Jan 30 05:36:05 2010," US and USA, CA and California, San Jose, 95101",Cloudy,52,52,61,45,40,96,29.96 Steady ,51,10,SE,9
Sat Jan 30 06:20:14 2010," US and USA, CA and California, San Jose, 95101",Cloudy,52,52,61,45,40,96,29.96 Steady ,51,10,SE,9
Sat Jan 30 07:06:13 2010," US and USA, CA and California, San Jose, 95101",Cloudy,52,52,61,45,40,97,29.98 Steady ,51,9,SSE,8
Sat Jan 30 07:48:53 2010," US and USA, CA and California, San Jose, 95101",Cloudy,51,51,61,45,40,99,30.00 Steady ,51,9,SE,7
Sat Jan 30 08:32:08 2010," US and USA, CA and California, San Jose, 95101",Mostly Cloudy,51,51,61,45,40,88,30.00 Steady ,48,9,CALM,0
Sat Jan 30 11:13:54 2010," US and USA, CA and California, San Jose, 95101",Clear,49,49,57,42,20,97,30.01 Falling ,48,9,CALM,0
Sat Jan 30 12:01:44 2010," US and USA, CA and California, San Jose, 95101",Clear,49,49,57,42,20,97,30.01 Steady ,48,8,CALM,0
Sat Jan 30 12:45:21 2010," US and USA, CA and California, San Jose, 95101",Clear,45,43,57,42,20,97,30.01 Steady ,44,9,SSE,5
Sat Jan 30 13:28:34 2010," US and USA, CA and California, San Jose, 95101",Clear,46,46,57,42,20,96,30.01 Steady ,45,10,ESE,3
Sat Jan 30 14:12:45 2010," US and USA, CA and California, San Jose, 95101",Clear,45,45,57,42,20,98,30.01 Steady ,44,8,ESE,4
Sat Jan 30 14:57:02 2010," US and USA, CA and California, San Jose, 95101",Partly Cloudy,41,41,57,42,20,100,30.03 Rising ,41,10,ESE,3
Sat Jan 30 15:42:40 2010," US and USA, CA and California, San Jose, 95101",Fog,45,42,57,42,20,100,30.04 Rising ,45,0.3,SE,5
Sat Jan 30 16:27:38 2010," US and USA, CA and California, San Jose, 95101",Fog,44,42,57,42,20,100,30.04 Steady ,44,0,SE,5
Sat Jan 30 17:12:05 2010," US and USA, CA and California, San Jose, 95101",Fog,45,45,57,42,20,99,30.04 Steady ,45,0,CALM,0
Sat Jan 30 17:55:16 2010," US and USA, CA and California, San Jose, 95101",Fog,48,46,57,42,20,97,30.05 Steady ,47,0,SSE,5
Sat Jan 30 18:39:15 2010," US and USA, CA and California, San Jose, 95101",Partly Cloudy,48,48,57,42,20,97,30.06 Steady ,47,7,CALM,0
Sat Jan 30 19:22:33 2010," US and USA, CA and California, San Jose, 95101",Partly Cloudy,49,49,56,42,20,97,30.07 Rising ,48,10,CALM,0
Sat Jan 30 20:06:49 2010," US and USA, CA and California, San Jose, 95101",Partly Cloudy,52,52,56,42,20,87,30.07 Steady ,48,10,WNW,1
Sat Jan 30 20:49:54 2010," US and USA, CA and California, San Jose, 95101",Mostly Sunny,55,55,56,42,20,73,30.07 Steady ,47,10,CALM,0
Sat Jan 30 21:33:40 2010," US and USA, CA and California, San Jose, 95101",Partly Cloudy,57,57,58,42,20,69,30.06 Steady ,47,10,N,1
Sat Jan 30 22:17:11 2010," US and USA, CA and California, San Jose, 95101",Partly Cloudy,57,57,58,42,20,67,30.04 Falling Rapidly ,46,10,WNW,7
Sat Jan 30 23:02:38 2010," US and USA, CA and California, San Jose, 95101",Partly Cloudy,57,57,58,42,20,64,30.04 Steady ,45,10,NW,8
Sat Jan 30 23:47:32 2010," US and USA, CA and California, San Jose, 95101",Partly Cloudy,60,60,58,42,20,58,30.02 Steady ,45,10,WNW,6
Sun Jan 31 00:31:31 2010," US and USA, CA and California, San Jose, 95101",Partly Cloudy,59,59,58,42,20,58,30.01 Falling ,44,10,WNW,8
Sun Jan 31 01:21:57 2010," US and USA, CA and California, San Jose, 95101",Partly Cloudy,58,58,58,42,20,60,30.01 Steady ,44,10,NW,9
Sun Jan 31 02:05:57 2010," US and USA, CA and California, San Jose, 95101",Mostly Sunny,55,55,58,42,20,68,30.01 Steady ,44,8,NW,9
Sun Jan 31 02:49:21 2010," US and USA, CA and California, San Jose, 95101",Mostly Sunny,55,55,58,42,20,70,30.01 Steady ,45,9,NW,10
Sun Jan 31 03:33:16 2010," US and USA, CA and California, San Jose, 95101",Partly Cloudy,51,51,58,42,20,84,30.01 Steady ,47,9,NW,5
Sun Jan 31 04:17:04 2010," US and USA, CA and California, San Jose, 95101",Partly Cloudy,50,50,58,42,20,89,30.02 Rising ,47,10,WNW,8
Sun Jan 31 05:01:20 2010," US and USA, CA and California, San Jose, 95101",Mostly Clear,48,45,58,42,20,93,30.02 Steady ,46,9,WNW,9
Sun Jan 31 05:47:44 2010," US and USA, CA and California, San Jose, 95101",Mostly Clear,49,47,58,42,20,91,30.03 Steady ,47,9,NW,6
Sun Jan 31 06:32:35 2010," US and USA, CA and California, San Jose, 95101",Mostly Clear,48,46,58,42,20,93,30.03 Steady ,46,8,WNW,5
Sun Jan 31 07:15:27 2010," US and USA, CA and California, San Jose, 95101",Partly Cloudy,49,49,58,42,20,93,30.05 Rising ,47,9,CALM,0
Sun Jan 31 08:02:10 2010," US and USA, CA and California, San Jose, 95101",Mostly Cloudy,48,48,58,42,20,95,30.04 Falling ,46,8,CALM,0
Sun Jan 31 08:46:51 2010," US and USA, CA and California, San Jose, 95101",Cloudy,49,49,58,42,20,90,30.05 Steady ,47,9,CALM,0
Sun Jan 31 09:30:06 2010," US and USA, CA and California, San Jose, 95101",Cloudy,50,50,58,42,20,89,30.04 Falling ,47,10,CALM,0
Sun Jan 31 10:13:17 2010," US and USA, CA and California, San Jose, 95101",Cloudy,50,50,58,42,20,86,30.03 Falling ,46,10,CALM,0
Sun Jan 31 10:57:04 2010," US and USA, CA and California, San Jose, 95101",Cloudy,49,49,58,42,20,88,30.03 Steady ,46,9,CALM,0
Sun Jan 31 11:40:36 2010," US and USA, CA and California, San Jose, 95101",Cloudy,49,49,59,44,20,87,30.03 Steady ,46,9,SSE,4
Sun Jan 31 12:24:10 2010," US and USA, CA and California, San Jose, 95101",Cloudy,50,50,59,44,20,86,30.02 Falling ,46,10,CALM,0
Sun Jan 31 13:07:33 2010," US and USA, CA and California, San Jose, 95101",Cloudy,49,49,59,44,20,87,30.02 Steady ,45,10,ESE,1
Sun Jan 31 13:51:10 2010," US and USA, CA and California, San Jose, 95101",Cloudy,49,48,59,44,20,83,30.02 Steady ,45,10,E,4
Sun Jan 31 14:33:58 2010," US and USA, CA and California, San Jose, 95101",Cloudy,49,49,59,44,20,84,30.01 Steady ,44,10,ESE,1
Sun Jan 31 15:18:04 2010," US and USA, CA and California, San Jose, 95101",Cloudy,49,49,59,44,20,83,30.01 Steady ,44,10,CALM,0
Sun Jan 31 16:01:36 2010," US and USA, CA and California, San Jose, 95101",Cloudy,48,48,58,44,20,84,30.01 Steady ,44,10,SE,1
Sun Jan 31 16:51:24 2010," US and USA, CA and California, San Jose, 95101",Cloudy,50,50,58,44,20,80,30.03 Rising Rapidly ,44,10,ENE,3
Sun Jan 31 17:35:01 2010," US and USA, CA and California, San Jose, 95101",Mostly Cloudy,50,50,58,44,20,76,30.03 Steady ,43,10,CALM,0
Sun Jan 31 18:20:01 2010," US and USA, CA and California, San Jose, 95101",Mostly Cloudy,49,49,58,44,20,83,30.03 Steady ,44,10,CALM,0
Sun Jan 31 19:03:49 2010," US and USA, CA and California, San Jose, 95101",Mostly Cloudy,51,51,58,44,20,78,30.03 Steady ,44,10,CALM,0
Sun Jan 31 19:49:18 2010," US and USA, CA and California, San Jose, 95101",Mostly Cloudy,54,54,58,43,20,73,30.05 Steady ,45,10,CALM,0
Sun Jan 31 20:32:08 2010," US and USA, CA and California, San Jose, 95101",Partly Cloudy,55,55,58,43,20,73,30.05 Steady ,46,10,CALM,0
Sun Jan 31 21:16:46 2010," US and USA, CA and California, San Jose, 95101",Partly Cloudy,57,57,59,43,20,64,30.02 Falling Rapidly ,45,10,CALM,0
Sun Jan 31 21:59:34 2010," US and USA, CA and California, San Jose, 95101",Partly Cloudy,59,59,59,43,20,60,30.02 Steady ,45,10,NNE,1
Sun Jan 31 22:44:23 2010," US and USA, CA and California, San Jose, 95101",Mostly Cloudy,58,58,59,43,20,65,29.99 Steady ,46,10,WNW,3
Sun Jan 31 23:27:43 2010," US and USA, CA and California, San Jose, 95101",Mostly Cloudy,60,60,59,43,20,60,29.97 Falling Rapidly ,46,10,NW,5
Mon Feb  1 00:11:41 2010," US and USA, CA and California, San Jose, 95101",Mostly Cloudy,61,61,59,43,20,59,29.97 Steady ,46,10,NW,4
Mon Feb  1 00:54:36 2010," US and USA, CA and California, San Jose, 95101",Mostly Cloudy,59,59,59,43,20,60,29.96 Steady ,45,10,W,5
Mon Feb  1 01:40:53 2010," US and USA, CA and California, San Jose, 95101",Mostly Cloudy,59,59,59,43,20,65,29.97 Steady ,47,9,NW,6
Mon Feb  1 02:24:54 2010," US and USA, CA and California, San Jose, 95101",Mostly Cloudy,56,56,59,43,20,72,29.97 Steady ,47,10,WNW,7
Mon Feb  1 03:08:34 2010," US and USA, CA and California, San Jose, 95101",Mostly Cloudy,53,53,59,43,20,78,29.97 Steady ,47,9,WNW,6
Mon Feb  1 03:53:14 2010," US and USA, CA and California, San Jose, 95101",Mostly Cloudy,51,51,59,43,20,83,29.98 Steady ,47,9,WNW,9
Mon Feb  1 04:38:03 2010," US and USA, CA and California, San Jose, 95101",Partly Cloudy,52,52,59,43,20,83,29.98 Steady ,46,9,WNW,5
Mon Feb  1 05:21:12 2010," US and USA, CA and California, San Jose, 95101",Partly Cloudy,53,53,59,43,20,80,29.97 Falling ,47,9,CALM,0
Mon Feb  1 06:06:05 2010," US and USA, CA and California, San Jose, 95101",Partly Cloudy,52,52,59,43,20,81,29.97 Steady ,47,9,CALM,0
Mon Feb  1 06:49:15 2010," US and USA, CA and California, San Jose, 95101",Cloudy,51,51,59,43,20,84,29.96 Steady ,47,9,SE,1
Mon Feb  1 07:33:04 2010," US and USA, CA and California, San Jose, 95101",Mostly Cloudy,51,51,59,43,20,77,29.98 Steady ,44,10,SE,1
Mon Feb  1 08:16:29 2010," US and USA, CA and California, San Jose, 95101",Mostly Cloudy,51,51,59,43,20,76,29.98 Steady ,44,10,SE,1
Mon Feb  1 08:59:57 2010," US and USA, CA and California, San Jose, 95101",Partly Cloudy,48,46,59,43,20,86,29.98 Steady ,44,9,E,5
Mon Feb  1 09:42:54 2010," US and USA, CA and California, San Jose, 95101",Mostly Cloudy,46,46,59,44,20,87,29.97 Steady ,42,10,CALM,0
Mon Feb  1 10:26:28 2010," US and USA, CA and California, San Jose, 95101",Partly Cloudy,49,49,59,44,20,83,29.98 Rising ,44,10,CALM,0
Mon Feb  1 11:09:24 2010," US and USA, CA and California, San Jose, 95101",Partly Cloudy,48,48,59,44,20,83,29.98 Steady ,43,10,SSE,1
Mon Feb  1 11:52:52 2010," US and USA, CA and California, San Jose, 95101",Mostly Cloudy,46,43,61,45,20,85,29.98 Steady ,42,10,ESE,6
Mon Feb  1 12:36:14 2010," US and USA, CA and California, San Jose, 95101",Mostly Cloudy,48,48,61,45,20,81,29.98 Steady ,42,10,SE,1
Mon Feb  1 13:19:45 2010," US and USA, CA and California, San Jose, 95101",Partly Cloudy,46,46,61,45,20,89,29.97 Falling ,43,10,CALM,0
Mon Feb  1 14:03:39 2010," US and USA, CA and California, San Jose, 95101",Partly Cloudy,47,47,61,45,20,86,29.97 Steady ,43,10,CALM,0
Mon Feb  1 14:48:43 2010," US and USA, CA and California, San Jose, 95101",Mostly Clear,46,46,61,45,20,85,29.96 Steady ,42,10,SSE,1
Mon Feb  1 15:32:27 2010," US and USA, CA and California, San Jose, 95101",Mostly Cloudy,43,40,61,45,20,94,29.95 Steady ,41,10,SE,5
Mon Feb  1 16:17:10 2010," US and USA, CA and California, San Jose, 95101",Mostly Cloudy,43,40,61,45,20,95,29.95 Steady ,41,10,SE,5
Mon Feb  1 17:01:57 2010," US and USA, CA and California, San Jose, 95101",Mostly Cloudy,45,42,61,45,20,90,29.95 Steady ,42,10,SE,6
Mon Feb  1 17:45:45 2010," US and USA, CA and California, San Jose, 95101",Mostly Cloudy,47,47,61,45,20,86,29.96 Steady ,43,10,SSE,1
Mon Feb  1 18:29:15 2010," US and USA, CA and California, San Jose, 95101",Mostly Cloudy,49,49,60,45,20,83,29.96 Steady ,44,10,CALM,0
Mon Feb  1 19:13:01 2010," US and USA, CA and California, San Jose, 95101",Mostly Cloudy,53,53,60,45,20,74,29.96 Steady ,45,10,CALM,0
Mon Feb  1 19:57:51 2010," US and USA, CA and California, San Jose, 95101",Mostly Cloudy,54,54,61,45,20,68,29.95 Steady ,44,10,SSE,4
Mon Feb  1 20:44:16 2010," US and USA, CA and California, San Jose, 95101",Mostly Cloudy,59,59,61,45,20,61,29.95 Steady ,45,10,CALM,0
Mon Feb  1 21:29:16 2010," US and USA, CA and California, San Jose, 95101",Mostly Cloudy,60,60,61,45,20,55,29.93 Falling Rapidly ,44,10,ENE,3
Mon Feb  1 22:12:37 2010," US and USA, CA and California, San Jose, 95101",Mostly Cloudy,62,62,61,45,20,51,29.93 Steady ,43,10,NE,3
Mon Feb  1 22:55:57 2010," US and USA, CA and California, San Jose, 95101",Mostly Cloudy,64,64,62,45,20,44,29.90 Steady ,41,10,ESE,5
Mon Feb  1 23:42:03 2010," US and USA, CA and California, San Jose, 95101",Mostly Cloudy,63,63,62,45,40,47,29.87 Steady ,43,10,S,6
Tue Feb  2 00:28:57 2010," US and USA, CA and California, San Jose, 95101",Cloudy,63,63,62,45,40,52,29.87 Steady ,45,10,S,6
Tue Feb  2 01:14:33 2010," US and USA, CA and California, San Jose, 95101",Cloudy,59,59,62,45,40,64,29.88 Rising ,47,10,NW,8
Tue Feb  2 01:57:41 2010," US and USA, CA and California, San Jose, 95101",Cloudy,57,57,62,45,40,73,29.88 Steady ,49,8,NW,8
Tue Feb  2 02:41:44 2010," US and USA, CA and California, San Jose, 95101",Cloudy,54,54,62,45,40,68,29.90 Steady ,44,9,NW,10
Tue Feb  2 03:25:15 2010," US and USA, CA and California, San Jose, 95101",Cloudy,54,54,62,45,40,72,29.90 Steady ,45,10,WNW,9
Tue Feb  2 04:09:02 2010," US and USA, CA and California, San Jose, 95101",Cloudy,51,51,62,45,40,83,29.90 Steady ,46,8,WNW,10
Tue Feb  2 04:52:35 2010," US and USA, CA and California, San Jose, 95101",Cloudy,52,52,62,45,40,81,29.91 Steady ,46,9,WNW,5
Tue Feb  2 05:35:57 2010," US and USA, CA and California, San Jose, 95101",Partly Cloudy,51,51,62,45,40,85,29.91 Steady ,47,10,W,5
Tue Feb  2 06:19:17 2010," US and USA, CA and California, San Jose, 95101",Partly Cloudy,51,51,62,45,40,87,29.91 Steady ,47,9,W,5
Tue Feb  2 07:06:24 2010," US and USA, CA and California, San Jose, 95101",Partly Cloudy,53,53,62,45,40,81,29.91 Steady ,47,10,WSW,3
Tue Feb  2 07:49:23 2010," US and USA, CA and California, San Jose, 95101",Partly Cloudy,52,52,62,45,40,77,29.91 Steady ,45,10,CALM,0
Tue Feb  2 08:32:35 2010," US and USA, CA and California, San Jose, 95101",Mostly Cloudy,51,51,62,45,40,77,29.91 Steady ,44,10,CALM,0
Tue Feb  2 09:16:05 2010," US and USA, CA and California, San Jose, 95101",Mostly Cloudy,50,50,62,45,50,80,29.91 Steady ,44,10,ESE,3
Tue Feb  2 09:59:36 2010," US and USA, CA and California, San Jose, 95101",Mostly Cloudy,49,49,62,45,50,82,29.91 Steady ,44,10,SE,4
Tue Feb  2 10:43:10 2010," US and USA, CA and California, San Jose, 95101",Mostly Cloudy,50,50,62,45,50,84,29.90 Steady ,45,10,CALM,0
Tue Feb  2 11:27:18 2010," US and USA, CA and California, San Jose, 95101",Mostly Cloudy,50,50,60,46,50,80,29.89 Falling ,44,10,CALM,0
Tue Feb  2 12:11:19 2010," US and USA, CA and California, San Jose, 95101",Mostly Cloudy,50,50,60,46,50,78,29.89 Steady ,44,10,S,1
Tue Feb  2 12:55:12 2010," US and USA, CA and California, San Jose, 95101",Partly Cloudy,48,48,60,46,50,83,29.88 Steady ,43,10,E,3
Tue Feb  2 13:38:33 2010," US and USA, CA and California, San Jose, 95101",Partly Cloudy,48,48,60,46,50,86,29.87 Steady ,44,10,CALM,0
Tue Feb  2 14:22:12 2010," US and USA, CA and California, San Jose, 95101",Mostly Cloudy,47,47,59,46,50,86,29.86 Falling ,43,10,CALM,0
Tue Feb  2 15:06:34 2010," US and USA, CA and California, San Jose, 95101",Mostly Cloudy,47,47,59,46,50,87,29.86 Steady ,43,10,CALM,0
Tue Feb  2 15:52:58 2010," US and USA, CA and California, San Jose, 95101",Mostly Cloudy,47,47,59,46,50,87,29.86 Steady ,43,10,CALM,0
Tue Feb  2 16:45:28 2010," US and USA, CA and California, San Jose, 95101",Mostly Cloudy,47,47,59,46,50,86,29.87 Steady ,43,10,CALM,0
Tue Feb  2 17:33:56 2010," US and USA, CA and California, San Jose, 95101",Cloudy,49,49,60,46,50,86,29.87 Steady ,45,10,CALM,0
Tue Feb  2 18:18:31 2010," US and USA, CA and California, San Jose, 95101",Mostly Cloudy,49,49,60,46,50,86,29.88 Rising ,45,9,CALM,0
Tue Feb  2 19:02:42 2010," US and USA, CA and California, San Jose, 95101",Cloudy,51,51,60,46,50,80,29.88 Steady ,45,10,CALM,0
Tue Feb  2 19:52:06 2010," US and USA, CA and California, San Jose, 95101",Cloudy,53,53,60,45,50,77,29.89 Steady ,46,9,CALM,0
Tue Feb  2 20:43:16 2010," US and USA, CA and California, San Jose, 95101",Mostly Cloudy,57,57,60,45,50,67,29.88 Steady ,46,9,CALM,0
Tue Feb  2 21:30:07 2010," US and USA, CA and California, San Jose, 95101",Mostly Cloudy,55,55,59,45,40,72,29.85 Falling Rapidly ,46,8,CALM,0
Tue Feb  2 22:18:29 2010," US and USA, CA and California, San Jose, 95101",Cloudy,57,57,58,45,40,69,29.83 Falling Rapidly ,47,8,CALM,0
Tue Feb  2 23:02:47 2010," US and USA, CA and California, San Jose, 95101",Cloudy,58,58,58,45,40,67,29.83 Steady ,47,9,CALM,0
Tue Feb  2 23:48:06 2010," US and USA, CA and California, San Jose, 95101",Cloudy,58,58,58,45,50,69,29.82 Steady ,48,8,SW,1
Wed Feb  3 00:32:31 2010," US and USA, CA and California, San Jose, 95101",Cloudy,58,58,58,45,50,68,29.82 Steady ,47,8,WNW,6
Wed Feb  3 01:19:42 2010," US and USA, CA and California, San Jose, 95101",Showers,57,57,58,45,50,77,29.83 Rising ,50,9,WNW,6
Wed Feb  3 02:04:54 2010," US and USA, CA and California, San Jose, 95101",Showers,55,55,58,45,50,86,29.83 Steady ,51,7,WNW,7
Wed Feb  3 02:53:12 2010," US and USA, CA and California, San Jose, 95101",Mostly Cloudy,54,54,58,45,50,85,29.84 Steady ,49,8,CALM,0
Wed Feb  3 03:40:01 2010," US and USA, CA and California, San Jose, 95101",Cloudy,54,54,58,45,50,83,29.83 Steady ,49,10,SE,1
Wed Feb  3 04:28:10 2010," US and USA, CA and California, San Jose, 95101",Cloudy,55,55,58,45,50,80,29.84 Rising ,49,10,CALM,0
Wed Feb  3 05:15:00 2010," US and USA, CA and California, San Jose, 95101",Mostly Cloudy,53,53,58,45,50,86,29.84 Steady ,49,10,W,6
Wed Feb  3 06:02:48 2010," US and USA, CA and California, San Jose, 95101",Mostly Cloudy,53,53,58,45,50,86,29.84 Steady ,49,10,W,6
Thu Feb  4 06:05:18 2010," US and USA, CA and California, San Jose, 95101",Cloudy,54,54,62,46,10,84,29.84 Steady ,49,9,WNW,6
Thu Feb  4 06:48:22 2010," US and USA, CA and California, San Jose, 95101",Cloudy,53,53,62,46,10,86,29.84 Steady ,49,10,NW,4
Thu Feb  4 07:32:00 2010," US and USA, CA and California, San Jose, 95101",Partly Cloudy,54,54,62,46,10,83,29.84 Steady ,49,10,CALM,0
Thu Feb  4 08:14:31 2010," US and USA, CA and California, San Jose, 95101",Partly Cloudy,52,52,62,46,10,89,29.84 Steady ,49,9,CALM,0
Thu Feb  4 08:58:11 2010," US and USA, CA and California, San Jose, 95101",Mostly Clear,50,50,62,46,10,92,29.84 Steady ,48,10,CALM,0
Thu Feb  4 09:42:08 2010," US and USA, CA and California, San Jose, 95101",Partly Cloudy,51,51,62,47,60,89,29.85 Rising ,48,10,S,5
Thu Feb  4 10:25:46 2010," US and USA, CA and California, San Jose, 95101",Partly Cloudy,51,51,62,47,60,89,29.84 Steady ,48,10,SSE,3
Thu Feb  4 11:11:42 2010," US and USA, CA and California, San Jose, 95101",Partly Cloudy,51,51,62,47,60,90,29.84 Steady ,48,10,SSE,4
Thu Feb  4 11:55:13 2010," US and USA, CA and California, San Jose, 95101",Mostly Cloudy,50,50,60,50,60,89,29.83 Steady ,47,10,SE,4
Thu Feb  4 12:38:19 2010," US and USA, CA and California, San Jose, 95101",Mostly Cloudy,52,52,60,50,60,84,29.82 Steady ,47,10,SE,7
Thu Feb  4 13:22:23 2010," US and USA, CA and California, San Jose, 95101",Mostly Cloudy,50,50,60,50,60,89,29.84 Rising Rapidly ,47,10,SE,3
Thu Feb  4 14:07:13 2010," US and USA, CA and California, San Jose, 95101",Mostly Cloudy,50,50,60,50,60,88,29.84 Steady ,47,10,SSE,4
Wed Feb  3 06:49:33 2010," US and USA, CA and California, San Jose, 95101",Mostly Clear,52,52,58,45,50,89,29.84 Steady ,49,8,CALM,0
Wed Feb  3 07:34:11 2010," US and USA, CO and Colorado, Denver, 80214",Partly Cloudy,30,22,45,27,0,34,29.91 Steady ,10,10,WSW,8
Wed Feb  3 09:03:49 2010," US and USA, CO and Colorado, Denver, 80214",Partly Cloudy,29,21,45,27,10,32,29.91 Steady ,7,10,W,9
Wed Feb  3 09:47:39 2010," US and USA, CO and Colorado, Denver, 80214",Partly Cloudy,29,21,45,26,10,30,29.90 Steady ,7,10,W,10
Wed Feb  3 10:31:04 2010," US and USA, CO and Colorado, Denver, 80214",Partly Cloudy,31,21,45,26,10,26,29.90 Steady ,5,10,W,12
Wed Feb  3 11:17:55 2010," US and USA, CO and Colorado, Denver, 80214",Partly Cloudy,33,23,45,26,10,31,29.89 Falling ,5,10,W,13
Wed Feb  3 12:02:39 2010," US and USA, CO and Colorado, Denver, 80214",Mostly Clear,33,25,48,25,10,31,29.89 Steady ,5,10,W,10
Wed Feb  3 12:45:51 2010," US and USA, CO and Colorado, Denver, 80214",Mostly Clear,33,25,48,25,10,33,29.89 Steady ,6,10,W,10
Wed Feb  3 13:29:34 2010," US and USA, CO and Colorado, Denver, 80214",Mostly Clear,31,23,48,25,10,27,29.91 Rising ,6,10,W,10
Wed Feb  3 14:15:42 2010," US and USA, CO and Colorado, Denver, 80214",Partly Cloudy,33,30,48,25,10,34,29.92 Rising ,8,10,WNW,4
Wed Feb  3 15:01:42 2010," US and USA, CO and Colorado, Denver, 80214",Partly Cloudy,33,33,48,25,10,36,29.92 Steady ,8,10,WNW,4
Wed Feb  3 15:46:30 2010," US and USA, CO and Colorado, Denver, 80214",Partly Cloudy,37,31,48,25,10,27,29.92 Steady ,5,10,W,7
Wed Feb  3 16:32:23 2010," US and USA, CO and Colorado, Denver, 80214",Partly Cloudy,36,30,48,25,10,32,29.92 Steady ,8,10,NW,7
Wed Feb  3 17:19:34 2010," US and USA, CO and Colorado, Denver, 80214",Mostly Cloudy,41,37,48,25,10,26,29.93 Rising ,8,10,NW,5
Wed Feb  3 18:07:51 2010," US and USA, CO and Colorado, Denver, 80214",Mostly Cloudy,46,46,47,25,10,22,29.92 Steady ,9,10,NE,1
Wed Feb  3 18:50:59 2010," US and USA, CO and Colorado, Denver, 80214",Mostly Cloudy,45,45,49,25,10,21,29.93 Steady ,7,10,ENE,3
Wed Feb  3 19:35:15 2010," US and USA, CO and Colorado, Denver, 80214",Partly Cloudy,45,43,49,25,10,22,29.93 Steady ,8,10,NE,5
Wed Feb  3 20:19:20 2010," US and USA, CO and Colorado, Denver, 80214",Mostly Cloudy,47,47,49,25,10,21,29.92 Falling ,9,10,E,2
Wed Feb  3 21:03:38 2010," US and USA, CO and Colorado, Denver, 80214",Mostly Cloudy,47,47,49,25,10,22,29.92 Steady ,10,10,E,3
Wed Feb  3 21:51:43 2010," US and USA, CO and Colorado, Denver, 80214",Cloudy,47,44,47,31,10,23,29.89 Steady ,11,10,E,7
Wed Feb  3 22:37:16 2010," US and USA, CO and Colorado, Denver, 80214",Cloudy,47,43,47,31,10,22,29.87 Steady ,9,9,E,7
Wed Feb  3 23:28:11 2010," US and USA, CO and Colorado, Denver, 80214",Cloudy,47,43,47,30,30,22,29.85 Falling ,10,9,E,9
Thu Feb  4 00:13:07 2010," US and USA, CO and Colorado, Denver, 80214",Cloudy,45,42,47,30,30,24,29.85 Steady ,10,10,E,6
Thu Feb  4 00:57:10 2010," US and USA, CO and Colorado, Denver, 80214",Cloudy,43,39,47,30,30,33,29.85 Steady ,15,9,NNE,6
Thu Feb  4 01:40:28 2010," US and USA, CO and Colorado, Denver, 80214",Cloudy,40,35,47,27,30,36,29.85 Steady ,15,10,N,7
Thu Feb  4 02:28:12 2010," US and USA, CO and Colorado, Denver, 80214",Cloudy,38,34,47,27,30,35,29.87 Rising Rapidly ,13,10,N,6
Thu Feb  4 03:11:23 2010," US and USA, CO and Colorado, Denver, 80214",Cloudy,38,33,47,27,30,38,29.87 Steady ,14,9,N,6
Thu Feb  4 03:55:50 2010," US and USA, CO and Colorado, Denver, 80214",Cloudy,37,34,47,27,30,43,29.87 Steady ,17,8,WNW,5
Thu Feb  4 04:39:06 2010," US and USA, CO and Colorado, Denver, 80214",Cloudy,37,34,47,27,30,45,29.85 Steady ,18,7,NW,5
Thu Feb  4 05:22:29 2010," US and USA, CO and Colorado, Denver, 80214",Cloudy,36,36,47,27,30,50,29.83 Falling Rapidly ,19,8,WSW,1
Thu Feb  4 15:00:04 2010," US and USA, CO and Colorado, Denver, 80214",Cloudy,33,26,40,26,40,85,29.69 Steady ,29,7,N,8
Thu Jan 28 15:39:43 2010," US and USA, CO and Colorado, Denver, 80214",Fog,28,23,36,19,50,89,30.18 Steady ,26,1.5,N,5
Thu Jan 28 16:00:31 2010," US and USA, CO and Colorado, Denver, 80214",Fog,28,23,36,19,50,89,30.18 Steady ,26,1.5,N,5
Thu Jan 28 16:49:50 2010," US and USA, CO and Colorado, Denver, 80214",Fog,28,20,36,19,50,93,30.18 Steady ,26,0.8,N,8
Thu Jan 28 17:14:04 2010," US and USA, CO and Colorado, Denver, 80214",Fog,28,19,36,19,50,99,30.18 Steady ,28,0,N,9
Thu Jan 28 17:30:05 2010," US and USA, CO and Colorado, Denver, 80214",Fog,28,19,36,19,50,99,30.18 Steady ,28,0,N,9
Fri Jan 29 08:42:17 2010," US and USA, CO and Colorado, Denver, 80214",Cloudy,26,26,32,20,10,93,30.09 Steady ,24,6,ESE,2
Fri Jan 29 09:26:12 2010," US and USA, CO and Colorado, Denver, 80214",Cloudy,25,25,32,20,20,89,30.09 Steady ,23,6,NE,1
Fri Jan 29 11:58:15 2010," US and USA, CO and Colorado, Denver, 80214",Cloudy,25,25,43,27,20,88,30.06 Steady ,22,6,NE,2
Fri Jan 29 12:42:57 2010," US and USA, CO and Colorado, Denver, 80214",Cloudy,26,26,43,27,20,81,30.05 Steady ,22,6,NNW,1
Fri Jan 29 13:30:40 2010," US and USA, CO and Colorado, Denver, 80214",Mostly Cloudy,25,25,43,27,20,81,30.05 Steady ,21,5,ESE,3
Fri Jan 29 14:18:30 2010," US and USA, CO and Colorado, Denver, 80214",Partly Cloudy,23,23,43,27,20,77,30.04 Falling ,18,6,SSE,4
Fri Jan 29 15:03:18 2010," US and USA, CO and Colorado, Denver, 80214",Partly Cloudy,22,22,43,27,20,92,30.04 Falling ,20,5,SSW,2
Fri Jan 29 15:48:50 2010," US and USA, CO and Colorado, Denver, 80214",Mostly Sunny,24,24,43,27,20,90,30.04 Steady ,22,6,CALM,0
Fri Jan 29 16:36:39 2010," US and USA, CO and Colorado, Denver, 80214",Mostly Sunny,23,23,43,27,20,92,30.04 Steady ,21,5,CALM,0
Fri Jan 29 17:21:04 2010," US and USA, CO and Colorado, Denver, 80214",Partly Cloudy,29,29,43,27,10,67,30.06 Rising Rapidly ,21,10,S,2
Fri Jan 29 18:09:32 2010," US and USA, CO and Colorado, Denver, 80214",Partly Cloudy,33,33,43,27,10,64,30.06 Steady ,22,10,ENE,4
Fri Jan 29 18:54:31 2010," US and USA, CO and Colorado, Denver, 80214",Mostly Sunny,37,34,43,27,10,67,30.07 Steady ,27,10,ESE,5
Fri Jan 29 19:46:30 2010," US and USA, CO and Colorado, Denver, 80214",Sunny,41,38,43,27,10,41,30.07 Steady ,19,10,WSW,5
Fri Jan 29 20:44:20 2010," US and USA, CO and Colorado, Denver, 80214",Mostly Sunny,43,40,43,27,10,30,30.05 Steady ,13,9,E,5
Fri Jan 29 21:28:56 2010," US and USA, CO and Colorado, Denver, 80214",Partly Cloudy,44,44,43,27,10,26,30.01 Falling Rapidly ,10,10,N,3
Fri Jan 29 22:15:33 2010," US and USA, CO and Colorado, Denver, 80214",Partly Cloudy,45,45,42,24,10,21,29.99 Falling Rapidly ,7,10,CALM,0
Fri Jan 29 23:00:28 2010," US and USA, CO and Colorado, Denver, 80214",Partly Cloudy,45,45,42,24,10,20,29.99 Steady ,5,10,CALM,0
Fri Jan 29 23:44:44 2010," US and USA, CO and Colorado, Denver, 80214",Mostly Sunny,45,45,42,24,10,21,29.99 Steady ,7,10,NNW,1
Sat Jan 30 00:28:49 2010," US and USA, CO and Colorado, Denver, 80214",Mostly Sunny,45,45,42,24,10,22,29.99 Steady ,8,9,N,1
Sat Jan 30 01:12:58 2010," US and USA, CO and Colorado, Denver, 80214",Mostly Sunny,42,42,42,22,10,26,29.99 Steady ,8,7,CALM,0
Sat Jan 30 01:56:55 2010," US and USA, CO and Colorado, Denver, 80214",Clear,39,39,42,22,10,30,30.00 Steady ,10,9,WSW,2
Sat Jan 30 02:41:13 2010," US and USA, CO and Colorado, Denver, 80214",Mostly Clear,35,35,42,22,10,32,29.99 Steady ,8,9,W,3
Sat Jan 30 03:24:44 2010," US and USA, CO and Colorado, Denver, 80214",Mostly Clear,31,24,42,22,10,32,30.00 Rising ,9,9,W,6
Sat Jan 30 04:08:40 2010," US and USA, CO and Colorado, Denver, 80214",Mostly Clear,29,22,42,22,10,39,30.00 Steady ,11,6,W,6
Sat Jan 30 04:52:26 2010," US and USA, CO and Colorado, Denver, 80214",Mostly Clear,33,33,42,22,10,39,30.00 Steady ,11,8,NNW,1
Sat Jan 30 05:36:10 2010," US and USA, CO and Colorado, Denver, 80214",Clear,30,25,42,22,10,42,30.02 Rising ,14,8,NW,6
Sat Jan 30 06:20:16 2010," US and USA, CO and Colorado, Denver, 80214",Clear,30,25,42,22,10,42,30.02 Rising ,14,8,NW,6
Sat Jan 30 07:06:15 2010," US and USA, CO and Colorado, Denver, 80214",Clear,30,23,42,22,10,42,30.02 Steady ,13,9,NW,9
Sat Jan 30 07:48:56 2010," US and USA, CO and Colorado, Denver, 80214",Clear,27,19,42,22,10,61,30.04 Steady ,18,8,W,8
Sat Jan 30 08:32:10 2010," US and USA, CO and Colorado, Denver, 80214",Clear,27,19,42,22,10,54,30.04 Steady ,16,9,W,8
Sat Jan 30 11:13:57 2010," US and USA, CO and Colorado, Denver, 80214",Partly Cloudy,26,19,42,25,10,46,30.03 Falling ,11,10,WNW,6
Sat Jan 30 12:01:46 2010," US and USA, CO and Colorado, Denver, 80214",Partly Cloudy,26,19,45,28,10,47,30.03 Steady ,11,9,W,6
Sat Jan 30 12:45:23 2010," US and USA, CO and Colorado, Denver, 80214",Partly Cloudy,23,17,45,28,10,55,30.03 Steady ,12,9,W,5
Sat Jan 30 13:28:36 2010," US and USA, CO and Colorado, Denver, 80214",Mostly Clear,24,18,45,28,10,55,30.03 Steady ,13,8,WSW,5
Sat Jan 30 14:12:48 2010," US and USA, CO and Colorado, Denver, 80214",Mostly Clear,24,17,45,28,10,59,30.03 Steady ,14,8,W,6
Sat Jan 30 14:57:04 2010," US and USA, CO and Colorado, Denver, 80214",Mostly Sunny,27,27,45,28,10,49,30.03 Steady ,13,9,WNW,4
Sat Jan 30 15:42:42 2010," US and USA, CO and Colorado, Denver, 80214",Partly Cloudy,22,14,45,28,10,70,30.04 Steady ,16,8,W,6
Sat Jan 30 16:27:40 2010," US and USA, CO and Colorado, Denver, 80214",Partly Cloudy,23,15,45,28,10,70,30.04 Steady ,16,8,W,6
Sat Jan 30 17:12:07 2010," US and USA, CO and Colorado, Denver, 80214",Mostly Sunny,33,33,45,28,10,46,30.04 Steady ,15,10,WNW,2
Sat Jan 30 17:55:18 2010," US and USA, CO and Colorado, Denver, 80214",Mostly Sunny,39,39,45,28,10,39,30.04 Rising ,16,10,SE,1
Sat Jan 30 18:39:17 2010," US and USA, CO and Colorado, Denver, 80214",Mostly Sunny,44,44,45,28,10,28,30.22 Steady ,13,10,E,2
Sat Jan 30 19:22:35 2010," US and USA, CO and Colorado, Denver, 80214",Partly Cloudy,46,46,45,28,10,30,30.03 Falling Rapidly ,16,10,SSE,1
Sat Jan 30 20:06:51 2010," US and USA, CO and Colorado, Denver, 80214",Partly Cloudy,48,48,45,28,10,28,30.03 Steady ,15,10,ESE,3
Sat Jan 30 20:49:56 2010," US and USA, CO and Colorado, Denver, 80214",Partly Cloudy,43,43,45,28,10,27,29.99 Steady ,11,10,ESE,4
Sat Jan 30 21:33:42 2010," US and USA, CO and Colorado, Denver, 80214",Partly Cloudy,50,48,50,27,10,22,29.97 Steady ,12,10,E,5
Sat Jan 30 22:17:13 2010," US and USA, CO and Colorado, Denver, 80214",Partly Cloudy,51,51,50,27,10,21,29.95 Falling Rapidly ,12,10,E,7
Sat Jan 30 23:02:40 2010," US and USA, CO and Colorado, Denver, 80214",Partly Cloudy,50,50,50,27,10,21,29.95 Steady ,12,10,E,7
Sat Jan 30 23:47:34 2010," US and USA, CO and Colorado, Denver, 80214",Mostly Cloudy,51,51,50,27,0,21,29.93 Falling ,11,9,NE,6
Sun Jan 31 00:31:33 2010," US and USA, CO and Colorado, Denver, 80214",Partly Cloudy,49,47,50,27,0,23,29.93 Steady ,13,9,NE,5
Sun Jan 31 01:21:59 2010," US and USA, CO and Colorado, Denver, 80214",Partly Cloudy,44,37,50,27,0,64,29.92 Falling ,32,9,NNW,12
Sun Jan 31 02:05:59 2010," US and USA, CO and Colorado, Denver, 80214",Partly Cloudy,41,34,50,27,0,74,29.92 Steady ,33,6,NW,12
Sun Jan 31 02:49:24 2010," US and USA, CO and Colorado, Denver, 80214",Partly Cloudy,37,29,50,27,0,49,29.92 Steady ,19,9,NNW,13
Sun Jan 31 03:33:19 2010," US and USA, CO and Colorado, Denver, 80214",Partly Cloudy,37,29,50,27,0,51,29.92 Steady ,21,9,NW,13
Sun Jan 31 04:17:06 2010," US and USA, CO and Colorado, Denver, 80214",Partly Cloudy,37,29,50,27,0,51,29.92 Steady ,20,9,NNW,12
Sun Jan 31 05:01:22 2010," US and USA, CO and Colorado, Denver, 80214",Partly Cloudy,35,27,50,27,0,57,29.92 Steady ,22,8,NNW,12
Sun Jan 31 05:47:46 2010," US and USA, CO and Colorado, Denver, 80214",Partly Cloudy,35,28,50,27,0,59,29.93 Steady ,22,9,NW,9
Sun Jan 31 06:32:37 2010," US and USA, CO and Colorado, Denver, 80214",Partly Cloudy,34,27,50,27,0,62,29.93 Steady ,22,9,NW,8
Sun Jan 31 07:15:29 2010," US and USA, CO and Colorado, Denver, 80214",Mostly Cloudy,36,29,50,27,0,50,29.94 Rising ,19,10,NW,9
Sun Jan 31 08:02:13 2010," US and USA, CO and Colorado, Denver, 80214",Mostly Cloudy,36,30,50,27,10,50,29.94 Steady ,18,10,NNW,7
Sun Jan 31 08:46:53 2010," US and USA, CO and Colorado, Denver, 80214",Mostly Cloudy,35,31,50,27,10,44,29.93 Steady ,15,10,NNW,5
Sun Jan 31 09:30:08 2010," US and USA, CO and Colorado, Denver, 80214",Mostly Cloudy,34,34,50,27,10,45,29.93 Steady ,15,10,NNW,3
Sun Jan 31 10:13:19 2010," US and USA, CO and Colorado, Denver, 80214",Mostly Cloudy,32,32,50,28,10,48,29.91 Falling Rapidly ,15,10,NW,3
Sun Jan 31 10:57:06 2010," US and USA, CO and Colorado, Denver, 80214",Mostly Cloudy,32,32,50,28,10,43,29.91 Rising ,16,10,NW,3
Sun Jan 31 11:40:38 2010," US and USA, CO and Colorado, Denver, 80214",Mostly Cloudy,30,30,43,24,10,48,29.90 Steady ,16,10,W,3
Sun Jan 31 12:24:13 2010," US and USA, CO and Colorado, Denver, 80214",Mostly Cloudy,30,30,43,24,10,51,29.89 Falling ,16,10,W,4
Sun Jan 31 13:07:35 2010," US and USA, CO and Colorado, Denver, 80214",Mostly Cloudy,29,29,43,24,10,54,29.89 Steady ,17,10,W,3
Sun Jan 31 13:51:12 2010," US and USA, CO and Colorado, Denver, 80214",Mostly Cloudy,29,29,43,24,10,55,29.88 Steady ,17,10,WSW,3
Sun Jan 31 14:34:00 2010," US and USA, CO and Colorado, Denver, 80214",Mostly Cloudy,28,23,43,24,10,61,29.86 Steady ,19,10,W,4
Sun Jan 31 15:18:06 2010," US and USA, CO and Colorado, Denver, 80214",Mostly Cloudy,27,21,43,24,10,61,29.86 Steady ,18,10,WNW,6
Sun Jan 31 16:01:38 2010," US and USA, CO and Colorado, Denver, 80214",Mostly Cloudy,27,21,43,24,10,60,29.86 Steady ,18,10,WNW,5
Sun Jan 31 16:51:26 2010," US and USA, CO and Colorado, Denver, 80214",Mostly Cloudy,28,28,43,24,10,58,29.85 Falling ,17,10,WNW,1
Sun Jan 31 17:35:03 2010," US and USA, CO and Colorado, Denver, 80214",Mostly Cloudy,33,26,42,24,10,55,29.84 Steady ,18,10,N,7
Sun Jan 31 18:20:03 2010," US and USA, CO and Colorado, Denver, 80214",Mostly Cloudy,35,28,42,24,10,57,29.85 Rising ,21,10,N,9
Sun Jan 31 19:03:51 2010," US and USA, CO and Colorado, Denver, 80214",Mostly Cloudy,36,29,41,24,10,54,29.85 Steady ,20,10,N,10
Sun Jan 31 19:49:21 2010," US and USA, CO and Colorado, Denver, 80214",Mostly Cloudy,38,33,41,24,10,48,29.85 Steady ,20,10,N,8
Sun Jan 31 20:32:10 2010," US and USA, CO and Colorado, Denver, 80214",Mostly Cloudy,41,41,39,25,10,43,29.82 Falling ,19,10,N,4
Sun Jan 31 21:16:48 2010," US and USA, CO and Colorado, Denver, 80214",Mostly Cloudy,42,37,39,25,10,43,29.80 Falling Rapidly ,20,10,NNE,7
Sun Jan 31 21:59:36 2010," US and USA, CO and Colorado, Denver, 80214",Mostly Cloudy,43,39,41,25,10,39,29.80 Steady ,19,10,N,6
Sun Jan 31 22:44:25 2010," US and USA, CO and Colorado, Denver, 80214",Partly Cloudy,43,37,41,25,20,41,29.80 Steady ,20,10,N,9
Sun Jan 31 23:27:45 2010," US and USA, CO and Colorado, Denver, 80214",Partly Cloudy,42,36,41,25,20,46,29.80 Steady ,22,10,NNE,10
Mon Feb  1 00:11:43 2010," US and USA, CO and Colorado, Denver, 80214",Mostly Cloudy,39,35,41,25,20,32,29.80 Steady ,11,9,N,6
Mon Feb  1 00:54:38 2010," US and USA, CO and Colorado, Denver, 80214",Mostly Cloudy,36,32,41,25,20,54,29.82 Steady ,21,8,N,5
Mon Feb  1 01:40:55 2010," US and USA, CO and Colorado, Denver, 80214",Mostly Cloudy,35,35,41,25,20,57,29.83 Steady ,21,8,N,1
Mon Feb  1 02:24:56 2010," US and USA, CO and Colorado, Denver, 80214",Partly Cloudy,32,32,41,25,20,60,29.84 Rising ,20,10,NNW,3
Mon Feb  1 03:08:36 2010," US and USA, CO and Colorado, Denver, 80214",Partly Cloudy,30,30,41,25,20,58,29.84 Steady ,20,8,WNW,3
Mon Feb  1 03:53:16 2010," US and USA, CO and Colorado, Denver, 80214",Mostly Cloudy,31,31,41,25,20,57,29.85 Steady ,20,9,CALM,0
Mon Feb  1 04:38:05 2010," US and USA, CO and Colorado, Denver, 80214",Partly Cloudy,27,27,41,25,20,68,29.85 Steady ,19,10,NW,1
Mon Feb  1 05:21:14 2010," US and USA, CO and Colorado, Denver, 80214",Partly Cloudy,26,19,41,25,20,72,29.84 Falling ,20,10,SSW,6
Mon Feb  1 06:06:07 2010," US and USA, CO and Colorado, Denver, 80214",Partly Cloudy,26,19,41,24,20,73,29.84 Steady ,20,9,SSW,6
Mon Feb  1 06:49:17 2010," US and USA, CO and Colorado, Denver, 80214",Partly Cloudy,26,20,41,24,20,70,29.83 Steady ,19,9,SSW,6
Mon Feb  1 07:33:07 2010," US and USA, CO and Colorado, Denver, 80214",Mostly Clear,24,16,41,24,20,85,29.84 Steady ,21,7,S,6
Mon Feb  1 08:16:31 2010," US and USA, CO and Colorado, Denver, 80214",Mostly Clear,23,16,41,23,10,88,29.83 Falling ,21,7,S,7
Mon Feb  1 08:59:59 2010," US and USA, CO and Colorado, Denver, 80214",Clear,23,15,41,23,10,85,29.83 Steady ,20,7,WSW,6
Mon Feb  1 09:42:56 2010," US and USA, CO and Colorado, Denver, 80214",Mostly Clear,22,22,41,23,10,84,29.82 Steady ,19,8,WNW,3
Mon Feb  1 10:26:30 2010," US and USA, CO and Colorado, Denver, 80214",Partly Cloudy,23,23,43,21,10,73,29.83 Rising ,17,7,WSW,2
Mon Feb  1 11:09:27 2010," US and USA, CO and Colorado, Denver, 80214",Partly Cloudy,23,17,43,21,10,70,29.83 Steady ,16,8,WNW,4
Mon Feb  1 11:52:54 2010," US and USA, CO and Colorado, Denver, 80214",Partly Cloudy,25,18,43,21,10,59,29.82 Steady ,15,9,W,7
Mon Feb  1 12:36:16 2010," US and USA, CO and Colorado, Denver, 80214",Partly Cloudy,28,21,43,21,10,51,29.83 Steady ,15,10,W,6
Mon Feb  1 13:19:47 2010," US and USA, CO and Colorado, Denver, 80214",Partly Cloudy,25,17,43,21,10,55,29.83 Steady ,14,8,WSW,8
Mon Feb  1 14:03:42 2010," US and USA, CO and Colorado, Denver, 80214",Partly Cloudy,25,16,43,21,10,54,29.83 Steady ,13,8,WSW,8
Mon Feb  1 14:48:45 2010," US and USA, CO and Colorado, Denver, 80214",Mostly Clear,30,24,43,21,10,35,29.81 Steady ,10,6,WSW,6
Mon Feb  1 15:32:30 2010," US and USA, CO and Colorado, Denver, 80214",Mostly Sunny,31,31,43,21,10,35,29.82 Steady ,11,9,W,3
Mon Feb  1 16:17:12 2010," US and USA, CO and Colorado, Denver, 80214",Mostly Sunny,31,31,43,21,10,35,29.82 Steady ,11,9,W,3
Mon Feb  1 17:02:00 2010," US and USA, CO and Colorado, Denver, 80214",Mostly Sunny,38,31,43,21,10,31,29.84 Steady ,10,10,WNW,12to23
Mon Feb  1 17:45:48 2010," US and USA, CO and Colorado, Denver, 80214",Mostly Sunny,44,38,42,21,10,22,29.84 Steady ,7,10,W,12to23
Mon Feb  1 18:29:17 2010," US and USA, CO and Colorado, Denver, 80214",Mostly Sunny,45,43,42,21,10,17,29.84 Steady ,3,10,SW,4
Mon Feb  1 19:13:04 2010," US and USA, CO and Colorado, Denver, 80214",Partly Cloudy,46,43,42,21,10,18,29.85 Rising ,4,10,NW,5
Mon Feb  1 19:57:53 2010," US and USA, CO and Colorado, Denver, 80214",Partly Cloudy,46,41,42,21,10,23,29.85 Steady ,9,8,NW,9
Mon Feb  1 20:44:19 2010," US and USA, CO and Colorado, Denver, 80214",Sunny,45,40,42,21,10,27,29.84 Falling ,13,7,NNW,11
Mon Feb  1 21:29:18 2010," US and USA, CO and Colorado, Denver, 80214",Sunny,46,41,42,21,10,24,29.83 Falling ,10,8,NNW,8
Mon Feb  1 22:12:39 2010," US and USA, CO and Colorado, Denver, 80214",Sunny,45,41,44,23,10,24,29.83 Steady ,10,8,WNW,8
Mon Feb  1 22:55:59 2010," US and USA, CO and Colorado, Denver, 80214",Mostly Sunny,46,40,44,23,10,21,29.84 Steady ,8,8,NW,12
Mon Feb  1 23:42:05 2010," US and USA, CO and Colorado, Denver, 80214",Sunny,45,38,44,23,10,21,29.85 Steady ,7,8,NW,20to38
Tue Feb  2 00:29:00 2010," US and USA, CO and Colorado, Denver, 80214",Mostly Sunny,44,36,44,23,10,24,29.87 Rising Rapidly ,8,9,NW,18to33
Tue Feb  2 01:14:36 2010," US and USA, CO and Colorado, Denver, 80214",Sunny,38,31,44,19,10,28,29.90 Rising Rapidly ,7,9,WNW,11to18
Tue Feb  2 01:57:43 2010," US and USA, CO and Colorado, Denver, 80214",Partly Cloudy,36,27,44,19,10,31,29.91 Steady ,8,8,WNW,15
Tue Feb  2 02:41:46 2010," US and USA, CO and Colorado, Denver, 80214",Mostly Clear,34,25,44,19,10,36,29.93 Steady ,9,8,WNW,11
Tue Feb  2 03:25:17 2010," US and USA, CO and Colorado, Denver, 80214",Clear,35,26,44,19,10,34,29.94 Rising ,9,10,WNW,13to22
Tue Feb  2 04:09:05 2010," US and USA, CO and Colorado, Denver, 80214",Clear,35,26,44,19,10,36,29.95 Steady ,10,8,W,13to16
Tue Feb  2 04:52:38 2010," US and USA, CO and Colorado, Denver, 80214",Clear,33,24,44,19,10,42,29.96 Rising ,12,8,W,13to18
Tue Feb  2 05:35:59 2010," US and USA, CO and Colorado, Denver, 80214",Clear,32,25,44,19,10,44,29.97 Steady ,12,9,WNW,8
Tue Feb  2 06:19:19 2010," US and USA, CO and Colorado, Denver, 80214",Clear,30,22,44,19,0,40,29.96 Falling ,13,8,WNW,9
Tue Feb  2 07:06:26 2010," US and USA, CO and Colorado, Denver, 80214",Clear,31,25,44,19,0,35,29.98 Steady ,11,9,W,6
Tue Feb  2 07:49:25 2010," US and USA, CO and Colorado, Denver, 80214",Clear,29,22,44,19,0,38,29.98 Steady ,11,9,W,7
Tue Feb  2 08:32:37 2010," US and USA, CO and Colorado, Denver, 80214",Clear,29,22,44,19,0,39,29.99 Steady ,11,9,W,7
Tue Feb  2 09:16:07 2010," US and USA, CO and Colorado, Denver, 80214",Clear,28,22,44,19,0,39,29.99 Steady ,10,10,W,5
Tue Feb  2 09:59:39 2010," US and USA, CO and Colorado, Denver, 80214",Clear,28,28,44,23,0,39,29.99 Steady ,10,10,NNW,3
Tue Feb  2 10:43:13 2010," US and USA, CO and Colorado, Denver, 80214",Clear,27,27,48,28,0,41,29.99 Steady ,10,10,WNW,3
Tue Feb  2 11:27:20 2010," US and USA, CO and Colorado, Denver, 80214",Clear,25,19,48,28,0,43,29.99 Steady ,9,10,W,5
Tue Feb  2 12:11:21 2010," US and USA, CO and Colorado, Denver, 80214",Clear,26,20,48,28,0,39,29.99 Steady ,8,10,W,5
Tue Feb  2 12:55:14 2010," US and USA, CO and Colorado, Denver, 80214",Mostly Clear,26,26,48,28,0,37,29.98 Steady ,7,9,NW,2
Tue Feb  2 13:38:35 2010," US and USA, CO and Colorado, Denver, 80214",Clear,27,21,48,28,0,35,29.98 Steady ,7,10,SW,6
Tue Feb  2 14:22:14 2010," US and USA, CO and Colorado, Denver, 80214",Clear,29,24,48,28,0,30,29.98 Steady ,6,10,W,4
Tue Feb  2 15:06:36 2010," US and USA, CO and Colorado, Denver, 80214",Mostly Sunny,28,23,48,28,0,36,29.98 Steady ,9,10,W,4
Tue Feb  2 15:53:00 2010," US and USA, CO and Colorado, Denver, 80214",Sunny,27,22,48,28,0,38,29.97 Steady ,9,10,NW,5
Tue Feb  2 16:45:30 2010," US and USA, CO and Colorado, Denver, 80214",Sunny,30,30,48,28,0,36,29.98 Steady ,10,10,W,3
Tue Feb  2 17:33:58 2010," US and USA, CO and Colorado, Denver, 80214",Sunny,36,36,47,28,0,33,29.98 Steady ,10,10,SE,4
Tue Feb  2 18:18:34 2010," US and USA, CO and Colorado, Denver, 80214",Sunny,39,35,47,28,0,27,29.97 Falling ,8,10,ESE,6
Tue Feb  2 19:02:44 2010," US and USA, CO and Colorado, Denver, 80214",Mostly Sunny,41,37,47,28,0,24,29.97 Steady ,7,10,SE,6
Tue Feb  2 19:52:09 2010," US and USA, CO and Colorado, Denver, 80214",Mostly Sunny,43,43,47,28,0,23,29.95 Falling ,6,10,SSE,4
Tue Feb  2 20:43:18 2010," US and USA, CO and Colorado, Denver, 80214",Mostly Sunny,44,44,47,28,0,22,29.92 Falling ,7,10,ENE,3
Tue Feb  2 21:30:09 2010," US and USA, CO and Colorado, Denver, 80214",Sunny,45,42,45,27,0,22,29.90 Falling Rapidly ,8,10,N,5
Tue Feb  2 22:18:32 2010," US and USA, CO and Colorado, Denver, 80214",Sunny,44,41,45,27,0,25,29.89 Steady ,11,10,NNE,6
Tue Feb  2 23:02:50 2010," US and USA, CO and Colorado, Denver, 80214",Mostly Sunny,45,45,45,27,0,24,29.89 Steady ,9,10,N,4
Tue Feb  2 23:48:08 2010," US and USA, CO and Colorado, Denver, 80214",Mostly Sunny,44,41,45,27,0,27,29.89 Steady ,12,9,N,6
Wed Feb  3 00:32:33 2010," US and USA, CO and Colorado, Denver, 80214",Partly Cloudy,43,43,45,27,0,30,29.89 Steady ,13,8,NNW,3
Wed Feb  3 01:19:44 2010," US and USA, CO and Colorado, Denver, 80214",Mostly Cloudy,38,38,45,27,0,35,29.89 Steady ,13,8,NW,2
Wed Feb  3 02:04:56 2010," US and USA, CO and Colorado, Denver, 80214",Mostly Cloudy,38,38,45,27,0,37,29.89 Steady ,13,7,WNW,1
Wed Feb  3 02:53:14 2010," US and USA, CO and Colorado, Denver, 80214",Mostly Cloudy,35,35,45,27,0,40,29.89 Steady ,13,8,NW,3
Wed Feb  3 03:40:03 2010," US and USA, CO and Colorado, Denver, 80214",Mostly Cloudy,35,35,45,27,0,41,29.89 Steady ,14,9,W,1
Wed Feb  3 04:28:12 2010," US and USA, CO and Colorado, Denver, 80214",Cloudy,35,35,45,27,0,40,29.90 Rising ,13,10,WNW,2
Wed Feb  3 05:15:03 2010," US and USA, CO and Colorado, Denver, 80214",Mostly Cloudy,34,34,45,27,0,42,29.90 Steady ,13,10,WNW,3
Wed Feb  3 06:02:50 2010," US and USA, CO and Colorado, Denver, 80214",Mostly Cloudy,34,34,45,27,0,41,29.90 Steady ,13,10,WNW,3
Thu Feb  4 06:05:20 2010," US and USA, CO and Colorado, Denver, 80214",Cloudy,36,36,47,27,30,51,29.83 Steady ,20,8,WSW,1
Thu Feb  4 06:48:24 2010," US and USA, CO and Colorado, Denver, 80214",Cloudy,38,32,47,27,30,51,29.80 Falling Rapidly ,21,8,WSW,8
Thu Feb  4 07:32:02 2010," US and USA, CO and Colorado, Denver, 80214",Cloudy,37,37,47,27,30,67,29.79 Steady ,27,9,NNW,4
Thu Feb  4 08:14:33 2010," US and USA, CO and Colorado, Denver, 80214",Cloudy,37,37,47,27,30,68,29.78 Falling ,27,8,ESE,4
Thu Feb  4 08:58:13 2010," US and USA, CO and Colorado, Denver, 80214",Cloudy,37,37,47,27,30,62,29.76 Steady ,25,8,SSE,1
Thu Feb  4 09:42:10 2010," US and USA, CO and Colorado, Denver, 80214",Cloudy,36,36,47,31,40,62,29.74 Steady ,24,7,CALM,0
Thu Feb  4 10:25:48 2010," US and USA, CO and Colorado, Denver, 80214",Cloudy,36,36,40,26,40,64,29.73 Falling ,25,8,NNW,2
Thu Feb  4 11:11:45 2010," US and USA, CO and Colorado, Denver, 80214",Cloudy,35,35,40,26,40,70,29.73 Steady ,26,8,N,2
Thu Feb  4 11:55:16 2010," US and USA, CO and Colorado, Denver, 80214",Cloudy,34,34,40,26,40,77,29.71 Falling ,28,9,CALM,0
Thu Feb  4 12:38:21 2010," US and USA, CO and Colorado, Denver, 80214",Cloudy,33,33,40,26,40,84,29.69 Falling ,29,8,NNW,1
Thu Feb  4 13:22:25 2010," US and USA, CO and Colorado, Denver, 80214",Cloudy,33,28,40,26,40,79,29.69 Falling ,27,10,NNE,6
Thu Feb  4 14:07:15 2010," US and USA, CO and Colorado, Denver, 80214",Cloudy,33,25,40,26,40,84,29.69 Steady ,28,7,NNE,8
Wed Feb  3 06:49:35 2010," US and USA, CO and Colorado, Denver, 80214",Partly Cloudy,31,31,45,27,0,37,29.89 Steady ,12,10,WNW,4
Wed Feb  3 07:34:16 2010," US and USA, DC and District Of Columbia, Washington, 20001",Snow,32,27,38,32,30,90,30.05 Steady ,30,0.3,NNE,6
Wed Feb  3 08:17:25 2010," US and USA, DC and District Of Columbia, Washington, 20001",Snow Showers,32,26,38,32,30,87,30.05 Steady ,28,1.5,NNE,7
Wed Feb  3 09:03:55 2010," US and USA, DC and District Of Columbia, Washington, 20001",Snow Showers,32,27,38,32,30,87,30.06 Steady ,28,2.5,NNE,5
Wed Feb  3 09:47:44 2010," US and USA, DC and District Of Columbia, Washington, 20001",Cloudy,34,30,42,30,40,86,30.05 Steady ,30,5,NNE,4
Wed Feb  3 10:31:09 2010," US and USA, DC and District Of Columbia, Washington, 20001",Snow Showers,34,28,42,30,40,81,30.06 Rising ,28,4,NNW,7
Wed Feb  3 11:18:00 2010," US and USA, DC and District Of Columbia, Washington, 20001",Snow Showers,32,25,42,30,20,88,30.06 Steady ,29,4,NNW,8
Wed Feb  3 12:02:44 2010," US and USA, DC and District Of Columbia, Washington, 20001",Cloudy,32,26,42,30,20,84,30.07 Steady ,28,5,NNW,6
Wed Feb  3 12:45:56 2010," US and USA, DC and District Of Columbia, Washington, 20001",Cloudy,32,32,42,30,20,87,30.07 Falling ,28,4,CALM,0
Wed Feb  3 13:29:39 2010," US and USA, DC and District Of Columbia, Washington, 20001",Cloudy,33,33,42,30,20,85,30.10 Rising Rapidly ,29,4,CALM,0
Wed Feb  3 14:15:47 2010," US and USA, DC and District Of Columbia, Washington, 20001",Fog,34,34,42,30,20,87,30.12 Rising Rapidly ,30,2.5,CALM,0
Wed Feb  3 15:01:48 2010," US and USA, DC and District Of Columbia, Washington, 20001",Fog,34,34,42,30,20,87,30.12 Steady ,30,1.5,CALM,0
Wed Feb  3 15:46:36 2010," US and USA, DC and District Of Columbia, Washington, 20001",Fog,34,34,42,30,20,83,30.13 Steady ,29,1.5,W,4
Wed Feb  3 16:32:28 2010," US and USA, DC and District Of Columbia, Washington, 20001",Cloudy,34,29,42,30,30,85,30.13 Steady ,30,3,N,6
Wed Feb  3 17:19:39 2010," US and USA, DC and District Of Columbia, Washington, 20001",Mostly Cloudy,35,31,41,30,20,78,30.13 Steady ,29,4,NNW,5
Wed Feb  3 18:07:57 2010," US and USA, DC and District Of Columbia, Washington, 20001",Mostly Cloudy,35,30,41,30,20,79,30.13 Steady ,29,5,NNW,5
Wed Feb  3 18:51:04 2010," US and USA, DC and District Of Columbia, Washington, 20001",Partly Cloudy,37,34,43,30,20,75,30.13 Steady ,30,5,WNW,4
Wed Feb  3 19:35:20 2010," US and USA, DC and District Of Columbia, Washington, 20001",Mostly Cloudy,41,35,44,29,10,65,30.11 Falling ,30,10,NW,10
Wed Feb  3 20:19:25 2010," US and USA, DC and District Of Columbia, Washington, 20001",Partly Cloudy,42,36,44,29,10,62,30.10 Falling ,30,10,NW,10
Wed Feb  3 21:03:44 2010," US and USA, DC and District Of Columbia, Washington, 20001",Mostly Cloudy,41,36,44,29,10,61,30.11 Rising ,28,10,NW,7
Wed Feb  3 21:51:48 2010," US and USA, DC and District Of Columbia, Washington, 20001",Cloudy,38,31,44,29,10,68,30.12 Steady ,29,9,WNW,11
Wed Feb  3 22:37:21 2010," US and USA, DC and District Of Columbia, Washington, 20001",Cloudy,39,33,44,29,10,66,30.14 Steady ,29,9,W,9
Wed Feb  3 23:28:16 2010," US and USA, DC and District Of Columbia, Washington, 20001",Cloudy,41,36,44,29,10,62,30.16 Rising Rapidly ,29,10,NW,8
Thu Feb  4 00:13:12 2010," US and USA, DC and District Of Columbia, Washington, 20001",Mostly Cloudy,40,34,44,29,10,63,30.17 Rising ,28,10,WNW,8
Thu Feb  4 00:57:15 2010," US and USA, DC and District Of Columbia, Washington, 20001",Mostly Cloudy,38,32,44,29,10,66,30.17 Steady ,28,10,WNW,8
Thu Feb  4 01:40:33 2010," US and USA, DC and District Of Columbia, Washington, 20001",Mostly Cloudy,38,33,44,29,10,63,30.20 Steady ,27,10,WNW,7
Thu Feb  4 02:28:17 2010," US and USA, DC and District Of Columbia, Washington, 20001",Cloudy,40,36,44,29,10,60,30.23 Rising Rapidly ,27,10,WSW,6
Thu Feb  4 03:11:28 2010," US and USA, DC and District Of Columbia, Washington, 20001",Partly Cloudy,38,33,44,29,10,65,30.24 Rising ,27,10,NNW,6
Thu Feb  4 03:55:56 2010," US and USA, DC and District Of Columbia, Washington, 20001",Partly Cloudy,36,30,44,29,10,69,30.24 Steady ,26,9,NNW,7
Thu Feb  4 04:39:12 2010," US and USA, DC and District Of Columbia, Washington, 20001",Mostly Cloudy,35,29,44,29,10,67,30.27 Steady ,26,10,NW,7
Thu Feb  4 05:22:34 2010," US and USA, DC and District Of Columbia, Washington, 20001",Cloudy,38,33,44,29,10,62,30.28 Rising ,26,10,W,6
Thu Feb  4 15:00:10 2010," US and USA, DC and District Of Columbia, Washington, 20001",Partly Cloudy,29,21,41,29,0,57,30.41 Steady ,18,10,NNW,8
Thu Jan 28 15:39:48 2010," US and USA, DC and District Of Columbia, Washington, 20001",Cloudy,41,34,50,24,20,54,30.08 Steady ,25,10,SSW,13
Thu Jan 28 16:00:37 2010," US and USA, DC and District Of Columbia, Washington, 20001",Cloudy,41,34,50,24,20,54,30.08 Steady ,25,10,SSW,13
Thu Jan 28 16:49:55 2010," US and USA, DC and District Of Columbia, Washington, 20001",Cloudy,40,33,50,24,20,55,30.06 Steady ,25,9,SSW,13to17
Thu Jan 28 17:14:09 2010," US and USA, DC and District Of Columbia, Washington, 20001",Cloudy,44,37,52,24,20,45,30.04 Falling Rapidly ,24,10,SSW,14
Thu Jan 28 17:30:10 2010," US and USA, DC and District Of Columbia, Washington, 20001",Cloudy,44,37,52,24,20,45,30.04 Falling Rapidly ,24,10,SSW,14
Fri Jan 29 08:42:22 2010," US and USA, DC and District Of Columbia, Washington, 20001",Partly Cloudy,23,11,52,23,10,35,30.34 Steady ,4,10,NNW,13
Fri Jan 29 09:26:18 2010," US and USA, DC and District Of Columbia, Washington, 20001",Partly Cloudy,22,8,34,25,10,38,30.36 Rising Rapidly ,4,10,NNW,17to25
Fri Jan 29 11:58:20 2010," US and USA, DC and District Of Columbia, Washington, 20001",Cloudy,21,8,34,25,10,35,30.39 Steady ,2,10,NNW,14
Fri Jan 29 12:43:02 2010," US and USA, DC and District Of Columbia, Washington, 20001",Mostly Cloudy,20,7,34,25,10,35,30.40 Steady ,1,10,NNW,15
Fri Jan 29 13:30:46 2010," US and USA, DC and District Of Columbia, Washington, 20001",Mostly Cloudy,20,5,35,25,10,36,30.43 Steady ,1,9,NNW,17
Fri Jan 29 14:18:35 2010," US and USA, DC and District Of Columbia, Washington, 20001",Mostly Cloudy,20,5,35,25,10,34,30.44 Rising ,0,10,NNW,17to23
Fri Jan 29 15:03:23 2010," US and USA, DC and District Of Columbia, Washington, 20001",Mostly Cloudy,20,5,35,25,10,36,30.44 Steady ,1,9,NNW,18to23
Fri Jan 29 15:48:55 2010," US and USA, DC and District Of Columbia, Washington, 20001",Cloudy,22,8,35,25,10,34,30.45 Steady ,2,10,NNW,17
Fri Jan 29 16:36:45 2010," US and USA, DC and District Of Columbia, Washington, 20001",Cloudy,22,9,35,25,10,34,30.46 Rising ,2,10,NNW,15
Fri Jan 29 17:21:09 2010," US and USA, DC and District Of Columbia, Washington, 20001",Cloudy,21,8,31,18,10,36,30.45 Falling ,2,10,NNW,14
Fri Jan 29 18:09:38 2010," US and USA, DC and District Of Columbia, Washington, 20001",Cloudy,22,9,31,18,10,35,30.45 Steady ,2,10,NNW,16
Fri Jan 29 18:54:36 2010," US and USA, DC and District Of Columbia, Washington, 20001",Cloudy,23,13,28,18,10,32,30.42 Steady ,2,9,NW,10
Fri Jan 29 19:46:35 2010," US and USA, DC and District Of Columbia, Washington, 20001",Cloudy,25,14,27,21,10,32,30.40 Steady ,3,10,NW,11
Fri Jan 29 20:44:25 2010," US and USA, DC and District Of Columbia, Washington, 20001",Cloudy,25,16,27,21,10,31,30.38 Steady ,3,10,NNW,9
Fri Jan 29 21:29:02 2010," US and USA, DC and District Of Columbia, Washington, 20001",Cloudy,26,17,27,19,20,28,30.38 Steady ,2,10,NW,9to17
Fri Jan 29 22:15:39 2010," US and USA, DC and District Of Columbia, Washington, 20001",Cloudy,26,15,27,19,20,28,30.37 Falling ,2,10,NNW,13to20
Fri Jan 29 23:00:33 2010," US and USA, DC and District Of Columbia, Washington, 20001",Cloudy,25,13,27,19,20,32,30.37 Steady ,3,8,NNW,13to22
Fri Jan 29 23:44:49 2010," US and USA, DC and District Of Columbia, Washington, 20001",Cloudy,25,16,27,19,20,29,30.36 Steady ,2,9,NW,8
Sat Jan 30 00:28:54 2010," US and USA, DC and District Of Columbia, Washington, 20001",Cloudy,26,16,27,19,20,26,30.37 Rising ,1,10,NNW,10
Sat Jan 30 01:13:03 2010," US and USA, DC and District Of Columbia, Washington, 20001",Cloudy,26,15,27,19,20,26,30.38 Rising ,1,10,WNW,12
Sat Jan 30 01:57:01 2010," US and USA, DC and District Of Columbia, Washington, 20001",Cloudy,26,15,27,19,20,29,30.38 Steady ,2,9,WNW,12
Sat Jan 30 02:41:19 2010," US and USA, DC and District Of Columbia, Washington, 20001",Mostly Cloudy,25,13,27,19,20,29,30.38 Steady ,1,10,NNW,14
Sat Jan 30 03:24:49 2010," US and USA, DC and District Of Columbia, Washington, 20001",Cloudy,25,13,27,19,20,28,30.38 Steady ,1,10,N,15
Sat Jan 30 04:08:45 2010," US and USA, DC and District Of Columbia, Washington, 20001",Cloudy,24,11,27,19,20,29,30.38 Steady ,1,10,N,17to22
Sat Jan 30 04:52:31 2010," US and USA, DC and District Of Columbia, Washington, 20001",Cloudy,24,10,27,19,20,29,30.38 Steady ,0,9,NNW,18to22
Sat Jan 30 05:36:17 2010," US and USA, DC and District Of Columbia, Washington, 20001",Cloudy,23,11,27,19,20,29,30.39 Steady ,1,10,NNW,13to19
Sat Jan 30 06:20:21 2010," US and USA, DC and District Of Columbia, Washington, 20001",Cloudy,23,11,27,19,60,28,30.39 Steady ,0,10,NNW,14to23
Sat Jan 30 07:06:20 2010," US and USA, DC and District Of Columbia, Washington, 20001",Cloudy,23,11,27,19,60,30,30.38 Steady ,1,10,NNW,13to19
Sat Jan 30 07:49:01 2010," US and USA, DC and District Of Columbia, Washington, 20001",Cloudy,22,9,27,19,60,33,30.37 Steady ,2,10,NW,14to18
Sat Jan 30 08:32:15 2010," US and USA, DC and District Of Columbia, Washington, 20001",Cloudy,22,11,27,19,60,34,30.36 Steady ,2,10,NNW,10
Sat Jan 30 11:14:02 2010," US and USA, DC and District Of Columbia, Washington, 20001",Cloudy,22,12,23,19,100,34,30.30 Falling Rapidly ,2,10,N,8
Sat Jan 30 12:01:51 2010," US and USA, DC and District Of Columbia, Washington, 20001",Cloudy,22,12,23,19,100,36,30.30 Steady ,3,9,NNE,9
Sat Jan 30 12:45:28 2010," US and USA, DC and District Of Columbia, Washington, 20001",Cloudy,22,10,23,19,100,35,30.29 Steady ,3,7,NNE,12
Sat Jan 30 13:28:41 2010," US and USA, DC and District Of Columbia, Washington, 20001",Cloudy,22,11,22,19,100,34,30.28 Falling ,2,10,NNE,10
Sat Jan 30 14:12:53 2010," US and USA, DC and District Of Columbia, Washington, 20001",Cloudy,22,10,22,19,100,36,30.25 Falling Rapidly ,3,10,NNE,12
Sat Jan 30 14:57:09 2010," US and USA, DC and District Of Columbia, Washington, 20001",Cloudy,22,9,22,19,100,39,30.25 Steady ,4,5,NNE,14
Sat Jan 30 15:42:47 2010," US and USA, DC and District Of Columbia, Washington, 20001",Snow Showers,21,9,21,19,100,46,30.26 Steady ,7,2.5,E,12to18
Sat Jan 30 16:27:45 2010," US and USA, DC and District Of Columbia, Washington, 20001",Snow Showers,19,8,21,19,100,56,30.25 Falling ,9,1.5,ENE,10to16
Sat Jan 30 17:12:12 2010," US and USA, DC and District Of Columbia, Washington, 20001",Snow,18,8,20,19,100,77,30.27 Rising Rapidly ,13,0.5,NNE,8
Sat Jan 30 17:55:23 2010," US and USA, DC and District Of Columbia, Washington, 20001",Snow,18,8,20,19,100,75,30.25 Falling Rapidly ,12,0.5,NE,7
Sat Jan 30 18:39:23 2010," US and USA, DC and District Of Columbia, Washington, 20001",Heavy Snow,18,4,20,19,100,75,30.23 Falling ,12,0.3,N,13
Sat Jan 30 19:22:40 2010," US and USA, DC and District Of Columbia, Washington, 20001",Snow,19,7,20,18,100,72,30.20 Falling ,13,0.5,NNE,12
Sat Jan 30 20:06:56 2010," US and USA, DC and District Of Columbia, Washington, 20001",Snow Showers,19,7,20,18,100,68,30.15 Falling Rapidly ,12,0.8,NNE,13
Sat Jan 30 20:50:01 2010," US and USA, DC and District Of Columbia, Washington, 20001",Snow Showers,19,5,20,18,100,68,30.14 Falling ,12,0.8,N,15
Sat Jan 30 21:33:48 2010," US and USA, DC and District Of Columbia, Washington, 20001",Snow,18,1,20,18,100,74,30.12 Steady ,12,0.4,NNE,20
Sat Jan 30 22:17:19 2010," US and USA, DC and District Of Columbia, Washington, 20001",Snow Showers,18,2,20,18,100,73,30.09 Falling ,12,0.8,NNE,20
Sat Jan 30 23:02:45 2010," US and USA, DC and District Of Columbia, Washington, 20001",Snow Showers,18,3,20,18,100,75,30.09 Steady ,12,0.8,NNE,16
Sat Jan 30 23:47:39 2010," US and USA, DC and District Of Columbia, Washington, 20001",Snow Showers,18,4,20,17,100,75,30.08 Steady ,12,1.3,NNE,14
Sun Jan 31 00:31:38 2010," US and USA, DC and District Of Columbia, Washington, 20001",Snow Showers,18,3,20,17,100,68,30.07 Steady ,10,5,NNE,15
Sun Jan 31 01:22:04 2010," US and USA, DC and District Of Columbia, Washington, 20001",Snow Showers,18,2,20,17,100,68,30.06 Falling ,10,4,N,19
Sun Jan 31 02:06:05 2010," US and USA, DC and District Of Columbia, Washington, 20001",Snow Showers,18,4,20,17,100,68,30.07 Rising ,10,3,N,13to22
Sun Jan 31 02:49:29 2010," US and USA, DC and District Of Columbia, Washington, 20001",Snow Showers,19,7,20,17,100,68,30.06 Steady ,12,0.8,N,12
Sun Jan 31 03:33:24 2010," US and USA, DC and District Of Columbia, Washington, 20001",Flurries,19,3,20,17,100,65,30.06 Steady ,11,3,N,20
Sun Jan 31 04:17:11 2010," US and USA, DC and District Of Columbia, Washington, 20001",Snow Showers,19,4,20,17,90,62,30.05 Steady ,10,5,N,17
Sun Jan 31 05:01:27 2010," US and USA, DC and District Of Columbia, Washington, 20001",Snow Showers,19,7,20,17,90,62,30.05 Steady ,10,4,NNW,12to22
Sun Jan 31 05:47:51 2010," US and USA, DC and District Of Columbia, Washington, 20001",Snow Showers,18,3,20,17,70,68,30.06 Rising ,10,2.5,NNW,16
Sun Jan 31 06:32:42 2010," US and USA, DC and District Of Columbia, Washington, 20001",Snow Showers,18,5,20,17,10,68,30.06 Steady ,10,4,NNW,12
Sun Jan 31 07:15:34 2010," US and USA, DC and District Of Columbia, Washington, 20001",Cloudy,19,8,20,17,10,52,30.06 Steady ,7,8,NW,9
Sun Jan 31 08:02:18 2010," US and USA, DC and District Of Columbia, Washington, 20001",Cloudy,20,9,20,17,10,51,30.06 Steady ,7,10,NNW,9
Sun Jan 31 08:46:58 2010," US and USA, DC and District Of Columbia, Washington, 20001",Cloudy,20,6,20,17,10,43,30.06 Steady ,5,10,NNW,16
Sun Jan 31 09:30:13 2010," US and USA, DC and District Of Columbia, Washington, 20001",Cloudy,20,7,33,19,10,42,30.07 Rising ,4,10,NNW,14
Sun Jan 31 10:13:24 2010," US and USA, DC and District Of Columbia, Washington, 20001",Partly Cloudy,19,6,33,19,10,44,30.09 Rising Rapidly ,4,10,NNW,13
Sun Jan 31 10:57:11 2010," US and USA, DC and District Of Columbia, Washington, 20001",Partly Cloudy,19,6,33,19,10,42,30.09 Steady ,3,10,NNW,14
Sun Jan 31 11:40:43 2010," US and USA, DC and District Of Columbia, Washington, 20001",Partly Cloudy,16,3,33,19,10,48,30.12 Steady ,3,10,NNW,11
Sun Jan 31 12:24:18 2010," US and USA, DC and District Of Columbia, Washington, 20001",Mostly Cloudy,17,5,33,19,10,44,30.15 Rising Rapidly ,2,10,NNW,10
Sun Jan 31 13:07:41 2010," US and USA, DC and District Of Columbia, Washington, 20001",Mostly Cloudy,17,4,33,19,10,45,30.15 Steady ,2,10,NNW,11
Sun Jan 31 13:51:18 2010," US and USA, DC and District Of Columbia, Washington, 20001",Mostly Cloudy,17,3,33,19,10,48,30.17 Steady ,4,10,NNW,14
Sun Jan 31 14:34:05 2010," US and USA, DC and District Of Columbia, Washington, 20001",Mostly Cloudy,19,7,33,19,10,40,30.20 Steady ,2,10,NW,12
Sun Jan 31 15:18:11 2010," US and USA, DC and District Of Columbia, Washington, 20001",Partly Cloudy,19,5,33,19,10,40,30.21 Rising ,2,10,NNW,14
Sun Jan 31 16:01:43 2010," US and USA, DC and District Of Columbia, Washington, 20001",Mostly Sunny,22,8,33,19,10,38,30.21 Steady ,4,10,NNW,15to22
Sun Jan 31 16:51:31 2010," US and USA, DC and District Of Columbia, Washington, 20001",Sunny,24,14,32,19,10,31,30.23 Steady ,2,10,NW,9
Sun Jan 31 17:35:08 2010," US and USA, DC and District Of Columbia, Washington, 20001",Sunny,25,13,32,19,0,26,30.25 Steady ,0,10,NW,13
Sun Jan 31 18:20:08 2010," US and USA, DC and District Of Columbia, Washington, 20001",Sunny,25,14,32,19,0,28,30.24 Falling ,1,10,NNW,13
Sun Jan 31 19:03:56 2010," US and USA, DC and District Of Columbia, Washington, 20001",Sunny,26,14,31,19,0,27,30.24 Steady ,1,10,NNW,13
Sun Jan 31 19:49:26 2010," US and USA, DC and District Of Columbia, Washington, 20001",Sunny,28,20,31,21,0,27,30.22 Steady ,3,10,WNW,8
Sun Jan 31 20:32:15 2010," US and USA, DC and District Of Columbia, Washington, 20001",Sunny,30,25,31,21,0,25,30.19 Steady ,4,9,WNW,5
Sun Jan 31 21:16:53 2010," US and USA, DC and District Of Columbia, Washington, 20001",Mostly Sunny,31,31,31,21,0,23,30.19 Steady ,3,10,CALM,0
Sun Jan 31 21:59:41 2010," US and USA, DC and District Of Columbia, Washington, 20001",Sunny,30,30,31,21,0,29,30.19 Steady ,7,6,CALM,0
Sun Jan 31 22:44:30 2010," US and USA, DC and District Of Columbia, Washington, 20001",Sunny,32,24,31,21,0,26,30.18 Steady ,6,8,WNW,8
Sun Jan 31 23:27:50 2010," US and USA, DC and District Of Columbia, Washington, 20001",Sunny,33,29,31,14,0,28,30.17 Falling ,3,10,W,5
Mon Feb  1 00:11:48 2010," US and USA, DC and District Of Columbia, Washington, 20001",Clear,32,26,31,14,0,32,30.19 Rising Rapidly ,5,10,SSW,6
Mon Feb  1 00:54:43 2010," US and USA, DC and District Of Columbia, Washington, 20001",Clear,28,20,31,14,0,29,30.19 Steady ,4,7,SW,7
Mon Feb  1 01:41:00 2010," US and USA, DC and District Of Columbia, Washington, 20001",Clear,24,15,31,14,0,40,30.20 Steady ,7,8,SW,9
Mon Feb  1 02:25:01 2010," US and USA, DC and District Of Columbia, Washington, 20001",Clear,21,14,31,14,0,49,30.20 Steady ,8,9,SSW,5
Mon Feb  1 03:08:41 2010," US and USA, DC and District Of Columbia, Washington, 20001",Clear,23,16,31,14,0,43,30.20 Steady ,7,7,WSW,5
Mon Feb  1 03:53:21 2010," US and USA, DC and District Of Columbia, Washington, 20001",Partly Cloudy,25,18,31,14,0,42,30.21 Steady ,8,8,SW,5
Mon Feb  1 04:38:10 2010," US and USA, DC and District Of Columbia, Washington, 20001",Mostly Clear,24,15,31,14,0,52,30.22 Steady ,12,8,SW,8
Mon Feb  1 05:21:19 2010," US and USA, DC and District Of Columbia, Washington, 20001",Partly Cloudy,24,24,31,14,0,48,30.24 Rising Rapidly ,10,10,CALM,0
Mon Feb  1 06:06:13 2010," US and USA, DC and District Of Columbia, Washington, 20001",Mostly Clear,21,21,31,14,10,55,30.24 Steady ,10,8,NW,1
Mon Feb  1 06:49:22 2010," US and USA, DC and District Of Columbia, Washington, 20001",Mostly Clear,22,22,31,14,10,55,30.24 Steady ,11,8,CALM,0
Mon Feb  1 07:33:12 2010," US and USA, DC and District Of Columbia, Washington, 20001",Mostly Clear,15,15,31,14,10,86,30.24 Steady ,12,9,CALM,0
Mon Feb  1 08:16:37 2010," US and USA, DC and District Of Columbia, Washington, 20001",Mostly Clear,14,14,31,14,10,88,30.24 Steady ,12,8,CALM,0
Mon Feb  1 09:00:04 2010," US and USA, DC and District Of Columbia, Washington, 20001",Mostly Clear,17,5,31,14,10,80,30.26 Steady ,13,7,SW,10
Mon Feb  1 09:43:01 2010," US and USA, DC and District Of Columbia, Washington, 20001",Clear,20,20,40,29,20,67,30.28 Steady ,13,8,W,1
Mon Feb  1 10:26:35 2010," US and USA, DC and District Of Columbia, Washington, 20001",Partly Cloudy,21,21,40,29,20,62,30.29 Rising ,12,10,CALM,0
Mon Feb  1 11:09:32 2010," US and USA, DC and District Of Columbia, Washington, 20001",Mostly Clear,19,19,40,29,20,72,30.29 Steady ,13,8,WNW,2
Mon Feb  1 11:52:59 2010," US and USA, DC and District Of Columbia, Washington, 20001",Clear,21,21,40,26,20,71,30.32 Steady ,14,9,NW,1
Mon Feb  1 12:36:22 2010," US and USA, DC and District Of Columbia, Washington, 20001",Mostly Clear,24,15,40,26,20,53,30.33 Steady ,12,9,NNW,9
Mon Feb  1 13:19:53 2010," US and USA, DC and District Of Columbia, Washington, 20001",Partly Cloudy,15,1,40,26,20,76,30.35 Rising Rapidly ,10,10,NW,13
Mon Feb  1 14:03:47 2010," US and USA, DC and District Of Columbia, Washington, 20001",Partly Cloudy,14,-1,40,26,20,79,30.35 Steady ,10,8,NW,13
Mon Feb  1 14:48:50 2010," US and USA, DC and District Of Columbia, Washington, 20001",Mostly Cloudy,19,10,40,26,20,70,30.38 Steady ,12,10,NNW,7
Mon Feb  1 15:32:35 2010," US and USA, DC and District Of Columbia, Washington, 20001",Mostly Cloudy,34,25,40,26,20,48,30.38 Steady ,16,10,NNW,12to18
Mon Feb  1 16:17:17 2010," US and USA, DC and District Of Columbia, Washington, 20001",Mostly Cloudy,38,30,40,26,20,46,30.38 Steady ,18,10,NNW,12to23
Mon Feb  1 17:02:05 2010," US and USA, DC and District Of Columbia, Washington, 20001",Mostly Cloudy,34,27,39,26,20,42,30.39 Steady ,13,10,NW,8
Mon Feb  1 17:45:53 2010," US and USA, DC and District Of Columbia, Washington, 20001",Mostly Cloudy,33,24,38,26,20,43,30.38 Steady ,12,10,NNW,11
Mon Feb  1 18:29:22 2010," US and USA, DC and District Of Columbia, Washington, 20001",Cloudy,34,30,38,26,20,40,30.38 Steady ,12,10,WNW,5
Mon Feb  1 19:13:09 2010," US and USA, DC and District Of Columbia, Washington, 20001",Cloudy,35,26,38,25,20,39,30.36 Falling Rapidly ,12,10,WNW,14
Mon Feb  1 19:57:58 2010," US and USA, DC and District Of Columbia, Washington, 20001",Cloudy,35,26,38,25,20,40,30.36 Steady ,13,9,WNW,13
Mon Feb  1 20:44:24 2010," US and USA, DC and District Of Columbia, Washington, 20001",Cloudy,37,31,38,25,20,41,30.32 Steady ,15,8,WNW,8
Mon Feb  1 21:29:24 2010," US and USA, DC and District Of Columbia, Washington, 20001",Cloudy,38,32,38,25,10,35,30.31 Falling ,12,10,W,8
Mon Feb  1 22:12:44 2010," US and USA, DC and District Of Columbia, Washington, 20001",Mostly Cloudy,39,34,38,25,10,33,30.31 Steady ,12,10,WNW,7
Mon Feb  1 22:56:04 2010," US and USA, DC and District Of Columbia, Washington, 20001",Mostly Cloudy,38,33,38,25,10,35,30.31 Steady ,12,10,WNW,6
Mon Feb  1 23:42:10 2010," US and USA, DC and District Of Columbia, Washington, 20001",Mostly Cloudy,37,31,38,25,10,35,30.31 Steady ,11,9,W,6
Tue Feb  2 00:29:05 2010," US and USA, DC and District Of Columbia, Washington, 20001",Mostly Cloudy,38,34,38,25,10,35,30.30 Falling ,12,10,WNW,5
Tue Feb  2 01:14:41 2010," US and USA, DC and District Of Columbia, Washington, 20001",Partly Cloudy,35,31,38,25,10,48,30.30 Steady ,17,10,NNE,5
Tue Feb  2 01:57:48 2010," US and USA, DC and District Of Columbia, Washington, 20001",Partly Cloudy,31,31,38,25,10,46,30.30 Steady ,16,8,N,4
Tue Feb  2 02:41:51 2010," US and USA, DC and District Of Columbia, Washington, 20001",Mostly Cloudy,32,32,38,25,10,51,30.30 Steady ,19,9,S,2
Tue Feb  2 03:25:23 2010," US and USA, DC and District Of Columbia, Washington, 20001",Mostly Cloudy,34,34,38,25,10,54,30.31 Rising ,19,10,CALM,0
Tue Feb  2 04:09:10 2010," US and USA, DC and District Of Columbia, Washington, 20001",Mostly Cloudy,31,31,38,25,10,51,30.31 Steady ,18,9,CALM,0
Tue Feb  2 04:52:43 2010," US and USA, DC and District Of Columbia, Washington, 20001",Mostly Cloudy,30,30,38,25,10,57,30.31 Steady ,19,9,S,4
Tue Feb  2 05:36:06 2010," US and USA, DC and District Of Columbia, Washington, 20001",Mostly Cloudy,29,29,38,25,10,65,30.30 Steady ,20,9,CALM,0
Tue Feb  2 06:19:24 2010," US and USA, DC and District Of Columbia, Washington, 20001",Mostly Cloudy,27,27,38,25,40,67,30.30 Steady ,20,8,CALM,0
Tue Feb  2 07:06:31 2010," US and USA, DC and District Of Columbia, Washington, 20001",Mostly Cloudy,27,27,38,25,40,70,30.29 Steady ,20,8,NE,1
Tue Feb  2 07:49:30 2010," US and USA, DC and District Of Columbia, Washington, 20001",Mostly Cloudy,27,22,38,24,40,65,30.27 Steady ,19,9,ENE,5
Tue Feb  2 08:32:42 2010," US and USA, DC and District Of Columbia, Washington, 20001",Mostly Cloudy,27,21,38,24,40,67,30.26 Steady ,19,9,ENE,5
Tue Feb  2 09:16:12 2010," US and USA, DC and District Of Columbia, Washington, 20001",Mostly Cloudy,28,23,38,24,60,59,30.26 Steady ,18,10,ENE,5
Tue Feb  2 09:59:44 2010," US and USA, DC and District Of Columbia, Washington, 20001",Mostly Cloudy,27,21,40,31,60,64,30.26 Steady ,18,9,ENE,5
Tue Feb  2 10:43:18 2010," US and USA, DC and District Of Columbia, Washington, 20001",Mostly Cloudy,25,20,40,31,60,73,30.27 Steady ,19,9,ENE,4
Tue Feb  2 11:27:26 2010," US and USA, DC and District Of Columbia, Washington, 20001",Mostly Cloudy,27,19,39,31,60,66,30.26 Falling ,19,10,NE,7
Tue Feb  2 12:11:26 2010," US and USA, DC and District Of Columbia, Washington, 20001",Cloudy,28,22,39,31,60,66,30.24 Falling Rapidly ,20,10,NE,6
Tue Feb  2 12:55:19 2010," US and USA, DC and District Of Columbia, Washington, 20001",Cloudy,28,21,39,31,60,74,30.24 Steady ,22,8,ENE,6
Tue Feb  2 13:38:40 2010," US and USA, DC and District Of Columbia, Washington, 20001",Cloudy,29,29,39,31,60,76,30.24 Steady ,24,8,CALM,0
Tue Feb  2 14:22:19 2010," US and USA, DC and District Of Columbia, Washington, 20001",Cloudy,30,30,39,31,60,63,30.25 Rising ,21,10,CALM,0
Tue Feb  2 15:06:41 2010," US and USA, DC and District Of Columbia, Washington, 20001",Cloudy,33,33,39,31,60,68,30.25 Steady ,23,10,CALM,0
Tue Feb  2 15:53:05 2010," US and USA, DC and District Of Columbia, Washington, 20001",Cloudy,31,26,39,31,60,70,30.25 Steady ,24,10,ENE,5
Tue Feb  2 16:45:35 2010," US and USA, DC and District Of Columbia, Washington, 20001",Cloudy,34,29,38,31,60,68,30.22 Steady ,24,9,NE,5
Tue Feb  2 17:34:03 2010," US and USA, DC and District Of Columbia, Washington, 20001",Cloudy,36,36,38,31,60,61,30.22 Steady ,23,10,CALM,0
Tue Feb  2 18:18:39 2010," US and USA, DC and District Of Columbia, Washington, 20001",Cloudy,36,36,38,31,60,55,30.20 Falling Rapidly ,21,10,CALM,0
Tue Feb  2 19:02:49 2010," US and USA, DC and District Of Columbia, Washington, 20001",Cloudy,36,36,38,31,60,55,30.20 Steady ,22,10,CALM,0
Tue Feb  2 19:52:14 2010," US and USA, DC and District Of Columbia, Washington, 20001",Cloudy,37,37,38,32,60,57,30.17 Steady ,23,10,CALM,0
Tue Feb  2 20:43:24 2010," US and USA, DC and District Of Columbia, Washington, 20001",Cloudy,40,40,38,32,60,50,30.15 Steady ,22,9,CALM,0
Tue Feb  2 21:30:14 2010," US and USA, DC and District Of Columbia, Washington, 20001",Cloudy,41,41,38,32,100,45,30.12 Falling Rapidly ,21,10,CALM,0
Tue Feb  2 22:18:37 2010," US and USA, DC and District Of Columbia, Washington, 20001",Cloudy,40,34,38,32,100,49,30.12 Steady ,22,10,ESE,8
Tue Feb  2 23:02:55 2010," US and USA, DC and District Of Columbia, Washington, 20001",Cloudy,38,31,38,32,100,59,30.12 Steady ,25,10,E,10
Tue Feb  2 23:48:13 2010," US and USA, DC and District Of Columbia, Washington, 20001",Cloudy,37,32,38,32,100,69,30.12 Steady ,28,9,E,7
Wed Feb  3 00:32:39 2010," US and USA, DC and District Of Columbia, Washington, 20001",Snow Showers,36,29,38,32,100,70,30.12 Steady ,27,5,ENE,8
Wed Feb  3 01:19:49 2010," US and USA, DC and District Of Columbia, Washington, 20001",Snow Showers,34,27,38,32,100,79,30.12 Steady ,28,2.5,NE,8
Wed Feb  3 02:05:02 2010," US and USA, DC and District Of Columbia, Washington, 20001",Snow Showers,34,28,38,32,100,81,30.11 Falling ,28,1.5,NNE,7
Wed Feb  3 02:53:19 2010," US and USA, DC and District Of Columbia, Washington, 20001",Snow,34,29,38,32,100,81,30.11 Steady ,29,0.3,NE,6
Wed Feb  3 03:40:08 2010," US and USA, DC and District Of Columbia, Washington, 20001",Snow,33,26,38,32,100,88,30.10 Steady ,30,0.3,NNE,8
Wed Feb  3 04:28:17 2010," US and USA, DC and District Of Columbia, Washington, 20001",Snow Showers,32,26,38,32,100,92,30.10 Steady ,30,1,N,6
Wed Feb  3 05:15:07 2010," US and USA, DC and District Of Columbia, Washington, 20001",Snow Showers,33,29,38,32,100,89,30.08 Falling Rapidly ,30,1,NNE,5
Wed Feb  3 06:02:55 2010," US and USA, DC and District Of Columbia, Washington, 20001",Snow,33,29,38,31,30,88,30.08 Steady ,30,0.3,NNE,4
Thu Feb  4 06:05:25 2010," US and USA, DC and District Of Columbia, Washington, 20001",Cloudy,36,31,44,29,0,65,30.28 Steady ,26,10,WNW,6
Thu Feb  4 06:48:29 2010," US and USA, DC and District Of Columbia, Washington, 20001",Partly Cloudy,37,31,44,29,0,61,30.28 Steady ,25,10,NW,8
Thu Feb  4 07:32:07 2010," US and USA, DC and District Of Columbia, Washington, 20001",Mostly Clear,35,28,44,29,0,56,30.29 Steady ,21,10,NW,10
Thu Feb  4 08:14:38 2010," US and USA, DC and District Of Columbia, Washington, 20001",Mostly Clear,35,28,44,29,0,57,30.29 Steady ,22,9,NNW,10
Thu Feb  4 08:58:19 2010," US and USA, DC and District Of Columbia, Washington, 20001",Partly Cloudy,34,27,44,29,0,57,30.31 Steady ,20,9,NNW,9
Thu Feb  4 09:42:15 2010," US and USA, DC and District Of Columbia, Washington, 20001",Partly Cloudy,32,25,41,29,0,55,30.33 Steady ,20,9,NNW,8
Thu Feb  4 10:25:54 2010," US and USA, DC and District Of Columbia, Washington, 20001",Partly Cloudy,33,25,41,29,0,56,30.33 Steady ,19,10,NNW,10
Thu Feb  4 11:11:50 2010," US and USA, DC and District Of Columbia, Washington, 20001",Clear,32,23,41,29,0,56,30.37 Rising Rapidly ,18,10,NNW,10
Thu Feb  4 11:55:21 2010," US and USA, DC and District Of Columbia, Washington, 20001",Clear,29,20,41,29,0,54,30.37 Steady ,17,9,NNW,11
Thu Feb  4 12:38:26 2010," US and USA, DC and District Of Columbia, Washington, 20001",Clear,29,20,41,29,0,51,30.39 Steady ,16,9,N,10
Thu Feb  4 13:22:30 2010," US and USA, DC and District Of Columbia, Washington, 20001",Partly Cloudy,32,23,41,29,0,54,30.40 Rising ,17,10,NNW,12
Thu Feb  4 14:07:20 2010," US and USA, DC and District Of Columbia, Washington, 20001",Mostly Sunny,26,16,41,29,0,55,30.40 Steady ,15,8,NNW,12
Wed Feb  3 06:49:40 2010," US and USA, DC and District Of Columbia, Washington, 20001",Snow,32,26,38,31,30,91,30.06 Steady ,30,0.3,NNE,6
Wed Feb  3 07:34:25 2010," US and USA, FL and Florida, Jacksonville, 32099",Cloudy,51,51,62,46,0,78,30.08 Steady ,44,10,NNW,17
Wed Feb  3 08:17:32 2010," US and USA, FL and Florida, Jacksonville, 32099",Cloudy,50,50,62,46,0,78,30.08 Steady ,44,10,NNW,18
Wed Feb  3 09:04:03 2010," US and USA, FL and Florida, Jacksonville, 32099",Cloudy,51,51,62,46,0,74,30.09 Steady ,43,10,NNW,17to21
Wed Feb  3 09:47:53 2010," US and USA, FL and Florida, Jacksonville, 32099",Cloudy,51,51,60,48,0,74,30.08 Steady ,43,10,NNW,13
Wed Feb  3 10:31:18 2010," US and USA, FL and Florida, Jacksonville, 32099",Cloudy,49,43,60,48,0,78,30.09 Steady ,43,10,NNW,18
Wed Feb  3 11:18:09 2010," US and USA, FL and Florida, Jacksonville, 32099",Mostly Cloudy,49,46,61,48,0,77,30.09 Falling ,42,10,NW,6
Wed Feb  3 12:02:53 2010," US and USA, FL and Florida, Jacksonville, 32099",Mostly Cloudy,47,44,61,48,0,79,30.09 Steady ,41,10,NNW,6
Wed Feb  3 12:46:05 2010," US and USA, FL and Florida, Jacksonville, 32099",Mostly Cloudy,46,46,61,48,0,84,30.11 Steady ,42,10,WSW,3
Wed Feb  3 13:29:48 2010," US and USA, FL and Florida, Jacksonville, 32099",Mostly Cloudy,48,44,61,48,0,77,30.13 Rising Rapidly ,41,10,NNW,9
Wed Feb  3 14:15:56 2010," US and USA, FL and Florida, Jacksonville, 32099",Mostly Cloudy,47,43,61,48,0,80,30.14 Rising ,41,10,NNW,9
Wed Feb  3 15:01:56 2010," US and USA, FL and Florida, Jacksonville, 32099",Mostly Cloudy,49,44,61,48,0,75,30.14 Steady ,41,10,NNW,12to17
Wed Feb  3 15:46:44 2010," US and USA, FL and Florida, Jacksonville, 32099",Mostly Sunny,50,44,60,48,0,72,30.15 Steady ,41,10,NNE,16
Wed Feb  3 16:32:37 2010," US and USA, FL and Florida, Jacksonville, 32099",Partly Cloudy,50,50,60,48,0,71,30.18 Rising Rapidly ,41,10,NNE,9
Wed Feb  3 17:19:48 2010," US and USA, FL and Florida, Jacksonville, 32099",Partly Cloudy,52,52,60,48,0,66,30.19 Rising ,41,10,NNE,10
Wed Feb  3 18:08:06 2010," US and USA, FL and Florida, Jacksonville, 32099",Mostly Sunny,52,52,60,48,0,69,30.19 Steady ,42,10,NNE,9
Wed Feb  3 18:51:13 2010," US and USA, FL and Florida, Jacksonville, 32099",Mostly Sunny,54,54,61,48,0,65,30.16 Steady ,43,10,NNE,7
Wed Feb  3 19:35:29 2010," US and USA, FL and Florida, Jacksonville, 32099",Mostly Sunny,53,53,60,48,0,70,30.16 Steady ,43,10,ENE,12
Wed Feb  3 20:19:34 2010," US and USA, FL and Florida, Jacksonville, 32099",Mostly Cloudy,53,53,60,48,0,69,30.15 Falling ,43,10,NNE,10
Wed Feb  3 21:03:52 2010," US and USA, FL and Florida, Jacksonville, 32099",Mostly Cloudy,53,53,60,48,0,68,30.15 Steady ,43,10,NE,10
Wed Feb  3 21:51:57 2010," US and USA, FL and Florida, Jacksonville, 32099",Cloudy,52,52,60,48,10,73,30.14 Steady ,44,10,NE,14
Wed Feb  3 22:37:30 2010," US and USA, FL and Florida, Jacksonville, 32099",Cloudy,51,51,60,48,10,74,30.15 Steady ,43,10,NE,9
Wed Feb  3 23:28:26 2010," US and USA, FL and Florida, Jacksonville, 32099",Mostly Cloudy,54,54,60,48,10,66,30.15 Steady ,43,10,ENE,6
Thu Feb  4 00:13:21 2010," US and USA, FL and Florida, Jacksonville, 32099",Mostly Cloudy,53,53,60,48,10,69,30.17 Rising Rapidly ,43,10,ENE,10
Thu Feb  4 00:57:24 2010," US and USA, FL and Florida, Jacksonville, 32099",Mostly Cloudy,54,54,60,48,10,72,30.17 Steady ,45,10,NE,7
Thu Feb  4 01:40:42 2010," US and USA, FL and Florida, Jacksonville, 32099",Mostly Cloudy,51,51,60,48,10,80,30.17 Steady ,45,9,NE,6
Thu Feb  4 02:28:26 2010," US and USA, FL and Florida, Jacksonville, 32099",Partly Cloudy,51,51,60,48,10,80,30.18 Rising ,45,10,NNE,7
Thu Feb  4 03:11:37 2010," US and USA, FL and Florida, Jacksonville, 32099",Partly Cloudy,51,51,60,48,10,80,30.21 Rising Rapidly ,45,10,N,8
Thu Feb  4 03:56:04 2010," US and USA, FL and Florida, Jacksonville, 32099",Partly Cloudy,50,50,60,48,10,83,30.21 Steady ,45,10,NNW,9
Thu Feb  4 04:39:20 2010," US and USA, FL and Florida, Jacksonville, 32099",Mostly Cloudy,50,45,60,48,10,81,30.20 Steady ,44,10,NNE,13
Thu Feb  4 05:22:43 2010," US and USA, FL and Florida, Jacksonville, 32099",Mostly Cloudy,50,50,60,48,10,80,30.22 Rising Rapidly ,44,10,N,12
Thu Feb  4 15:00:19 2010," US and USA, FL and Florida, Jacksonville, 32099",Mostly Cloudy,57,57,61,57,20,80,30.22 Steady ,51,10,NNE,11
Thu Jan 28 15:39:57 2010," US and USA, FL and Florida, Jacksonville, 32099",Mostly Sunny,50,50,66,48,0,77,30.35 Steady ,43,9,N,3
Thu Jan 28 16:00:46 2010," US and USA, FL and Florida, Jacksonville, 32099",Mostly Sunny,50,50,66,48,0,77,30.35 Steady ,43,9,N,3
Thu Jan 28 16:50:04 2010," US and USA, FL and Florida, Jacksonville, 32099",Partly Cloudy,54,54,65,48,0,67,30.36 Steady ,43,10,NNE,5
Thu Jan 28 17:14:19 2010," US and USA, FL and Florida, Jacksonville, 32099",Partly Cloudy,55,55,65,48,0,53,30.35 Falling ,38,10,CALM,0
Thu Jan 28 17:30:19 2010," US and USA, FL and Florida, Jacksonville, 32099",Partly Cloudy,55,55,65,48,0,53,30.35 Falling ,38,10,CALM,0
Fri Jan 29 08:42:31 2010," US and USA, FL and Florida, Jacksonville, 32099",Partly Cloudy,49,49,64,44,10,74,30.18 Steady ,41,10,CALM,0
Fri Jan 29 09:26:27 2010," US and USA, FL and Florida, Jacksonville, 32099",Partly Cloudy,49,47,67,57,10,77,30.18 Steady ,42,10,NNW,5
Fri Jan 29 11:58:29 2010," US and USA, FL and Florida, Jacksonville, 32099",Mostly Cloudy,50,50,67,57,10,77,30.19 Steady ,43,10,NNW,3
Fri Jan 29 12:43:12 2010," US and USA, FL and Florida, Jacksonville, 32099",Cloudy,49,49,67,57,10,76,30.18 Steady ,42,10,CALM,0
Fri Jan 29 13:30:55 2010," US and USA, FL and Florida, Jacksonville, 32099",Showers,51,51,67,57,20,83,30.18 Steady ,46,7,NNE,1
Fri Jan 29 14:18:44 2010," US and USA, FL and Florida, Jacksonville, 32099",Cloudy,52,52,67,57,20,80,30.18 Steady ,46,9,NNE,3
Fri Jan 29 15:03:32 2010," US and USA, FL and Florida, Jacksonville, 32099",Cloudy,54,54,67,57,20,76,30.18 Steady ,47,10,ENE,4
Fri Jan 29 15:49:04 2010," US and USA, FL and Florida, Jacksonville, 32099",Cloudy,57,57,67,57,30,70,30.20 Steady ,48,10,N,4
Fri Jan 29 16:36:54 2010," US and USA, FL and Florida, Jacksonville, 32099",Cloudy,55,55,66,57,30,67,30.20 Steady ,44,9,ESE,5
Fri Jan 29 17:21:18 2010," US and USA, FL and Florida, Jacksonville, 32099",Cloudy,59,59,65,57,30,49,30.19 Falling ,40,10,ESE,6
Fri Jan 29 18:09:47 2010," US and USA, FL and Florida, Jacksonville, 32099",Cloudy,63,63,65,57,30,44,30.19 Steady ,41,10,ESE,7
Fri Jan 29 18:54:45 2010," US and USA, FL and Florida, Jacksonville, 32099",Cloudy,65,65,66,57,30,39,30.15 Steady ,39,10,ESE,9
Fri Jan 29 19:46:44 2010," US and USA, FL and Florida, Jacksonville, 32099",Mostly Cloudy,65,65,66,57,30,40,30.12 Steady ,41,10,E,6
Fri Jan 29 20:44:34 2010," US and USA, FL and Florida, Jacksonville, 32099",Cloudy,67,67,66,57,30,42,30.09 Steady ,43,9,E,8
Fri Jan 29 21:29:11 2010," US and USA, FL and Florida, Jacksonville, 32099",Cloudy,68,68,66,57,40,43,30.08 Falling ,45,10,NE,6
Fri Jan 29 22:15:47 2010," US and USA, FL and Florida, Jacksonville, 32099",Cloudy,66,66,66,57,40,48,30.06 Falling Rapidly ,46,10,ENE,12
Fri Jan 29 23:00:42 2010," US and USA, FL and Florida, Jacksonville, 32099",Cloudy,63,63,66,57,40,55,30.06 Steady ,47,8,E,13
Fri Jan 29 23:44:58 2010," US and USA, FL and Florida, Jacksonville, 32099",Cloudy,61,61,66,57,40,58,30.06 Steady ,46,9,E,11
Sat Jan 30 00:29:03 2010," US and USA, FL and Florida, Jacksonville, 32099",Cloudy,60,60,66,56,40,57,30.05 Falling ,45,10,E,9
Sat Jan 30 01:13:13 2010," US and USA, FL and Florida, Jacksonville, 32099",Cloudy,59,59,66,57,40,69,30.05 Steady ,49,10,ENE,5
Sat Jan 30 01:57:10 2010," US and USA, FL and Florida, Jacksonville, 32099",Cloudy,58,58,66,57,40,74,30.05 Steady ,50,9,ENE,4
Sat Jan 30 02:41:27 2010," US and USA, FL and Florida, Jacksonville, 32099",Cloudy,56,56,66,56,40,83,30.05 Steady ,51,10,NNE,7
Sat Jan 30 03:24:58 2010," US and USA, FL and Florida, Jacksonville, 32099",Cloudy,56,56,66,55,40,84,30.04 Falling ,51,10,NE,7
Sat Jan 30 04:08:54 2010," US and USA, FL and Florida, Jacksonville, 32099",Cloudy,55,55,66,55,40,90,30.04 Steady ,53,9,NE,7
Sat Jan 30 04:52:40 2010," US and USA, FL and Florida, Jacksonville, 32099",Mostly Cloudy,56,56,66,55,40,86,30.03 Steady ,52,10,NNE,6
Sat Jan 30 05:36:26 2010," US and USA, FL and Florida, Jacksonville, 32099",Cloudy,58,58,66,55,40,85,30.03 Steady ,53,9,NNE,5
Sat Jan 30 06:20:30 2010," US and USA, FL and Florida, Jacksonville, 32099",Cloudy,58,58,66,55,80,85,30.03 Steady ,54,8,NE,5
Sat Jan 30 07:06:29 2010," US and USA, FL and Florida, Jacksonville, 32099",Cloudy,59,59,66,55,80,86,30.01 Steady ,55,6,NE,6
Sat Jan 30 07:49:10 2010," US and USA, FL and Florida, Jacksonville, 32099",Cloudy,58,58,66,55,80,85,30.00 Steady ,54,8,N,9
Sat Jan 30 08:32:24 2010," US and USA, FL and Florida, Jacksonville, 32099",Cloudy,58,58,66,55,80,86,29.98 Steady ,53,10,E,4
Sat Jan 30 11:14:10 2010," US and USA, FL and Florida, Jacksonville, 32099",Cloudy,58,58,69,42,70,90,29.89 Falling Rapidly ,55,8,CALM,0
Sat Jan 30 12:02:00 2010," US and USA, FL and Florida, Jacksonville, 32099",Cloudy,59,59,69,42,70,93,29.89 Steady ,57,8,S,2
Sat Jan 30 12:45:37 2010," US and USA, FL and Florida, Jacksonville, 32099",Cloudy,61,61,69,42,70,87,29.84 Steady ,57,10,SSW,11
Sat Jan 30 13:28:50 2010," US and USA, FL and Florida, Jacksonville, 32099",Cloudy,61,61,69,42,70,90,29.83 Falling ,58,10,S,10
Sat Jan 30 14:13:02 2010," US and USA, FL and Florida, Jacksonville, 32099",Cloudy,62,62,68,42,70,86,29.82 Falling ,58,10,S,9
Sat Jan 30 14:57:18 2010," US and USA, FL and Florida, Jacksonville, 32099",Cloudy,63,63,68,42,70,82,29.82 Steady ,57,10,SSW,10
Sat Jan 30 15:42:56 2010," US and USA, FL and Florida, Jacksonville, 32099",Rain,64,64,68,42,70,83,29.88 Rising Rapidly ,59,4,SW,9
Sat Jan 30 16:27:54 2010," US and USA, FL and Florida, Jacksonville, 32099",Rain,63,63,68,42,70,94,29.87 Falling ,61,3,S,12
Sat Jan 30 17:12:22 2010," US and USA, FL and Florida, Jacksonville, 32099",Showers,63,63,68,42,70,93,29.84 Falling ,61,8,S,12
Sat Jan 30 17:55:32 2010," US and USA, FL and Florida, Jacksonville, 32099",Showers,63,63,68,42,60,93,29.84 Steady ,61,7,SSW,14
Sat Jan 30 18:39:32 2010," US and USA, FL and Florida, Jacksonville, 32099",Cloudy,63,63,67,42,60,97,29.82 Steady ,62,8,S,13
Sat Jan 30 19:22:49 2010," US and USA, FL and Florida, Jacksonville, 32099",Showers,66,66,67,41,60,90,29.77 Falling Rapidly ,63,9,S,13
Sat Jan 30 20:07:05 2010," US and USA, FL and Florida, Jacksonville, 32099",Cloudy,67,67,67,41,60,94,29.77 Steady ,65,10,SSW,19to24
Sat Jan 30 20:50:10 2010," US and USA, FL and Florida, Jacksonville, 32099",Cloudy,68,68,67,41,60,87,29.75 Steady ,64,10,SSW,18
Sat Jan 30 21:33:56 2010," US and USA, FL and Florida, Jacksonville, 32099",Cloudy,69,69,67,41,20,87,29.73 Steady ,65,10,SSW,19
Sat Jan 30 22:17:27 2010," US and USA, FL and Florida, Jacksonville, 32099",Cloudy,70,70,67,41,20,84,29.74 Rising ,65,10,SW,17to29
Sat Jan 30 23:02:53 2010," US and USA, FL and Florida, Jacksonville, 32099",Showers,70,70,67,41,20,83,29.75 Rising ,64,8,SW,15
Sat Jan 30 23:47:48 2010," US and USA, FL and Florida, Jacksonville, 32099",Cloudy,70,70,67,41,30,88,29.75 Steady ,66,10,SW,12
Sun Jan 31 00:31:47 2010," US and USA, FL and Florida, Jacksonville, 32099",Mostly Cloudy,69,69,67,41,30,88,29.76 Steady ,65,9,SW,14to23
Sun Jan 31 01:22:13 2010," US and USA, FL and Florida, Jacksonville, 32099",Mostly Cloudy,68,68,67,41,30,78,29.78 Rising Rapidly ,61,10,WSW,13
Sun Jan 31 02:06:13 2010," US and USA, FL and Florida, Jacksonville, 32099",Mostly Cloudy,68,68,67,41,30,78,29.78 Steady ,61,10,WSW,15
Sun Jan 31 02:49:37 2010," US and USA, FL and Florida, Jacksonville, 32099",Mostly Cloudy,66,66,67,41,20,76,29.80 Steady ,58,10,WSW,12
Sun Jan 31 03:33:32 2010," US and USA, FL and Florida, Jacksonville, 32099",Cloudy,63,63,67,41,20,77,29.84 Rising ,55,10,W,12
Sun Jan 31 04:17:20 2010," US and USA, FL and Florida, Jacksonville, 32099",Cloudy,55,55,67,41,20,89,29.88 Rising Rapidly ,52,10,N,22to29
Sun Jan 31 05:01:36 2010," US and USA, FL and Florida, Jacksonville, 32099",Cloudy,54,54,67,41,20,82,29.90 Rising Rapidly ,48,10,NNW,22
Sun Jan 31 05:48:00 2010," US and USA, FL and Florida, Jacksonville, 32099",Cloudy,52,52,67,41,20,76,29.95 Rising Rapidly ,45,10,NNW,17
Sun Jan 31 06:32:50 2010," US and USA, FL and Florida, Jacksonville, 32099",Cloudy,51,51,67,41,0,77,29.96 Rising ,44,10,NNW,15to21
Sun Jan 31 07:15:43 2010," US and USA, FL and Florida, Jacksonville, 32099",Cloudy,49,42,67,41,0,74,29.97 Rising ,41,10,NNW,19
Sun Jan 31 08:02:26 2010," US and USA, FL and Florida, Jacksonville, 32099",Cloudy,48,42,67,41,0,71,29.98 Rising ,39,10,NNW,16
Sun Jan 31 08:47:07 2010," US and USA, FL and Florida, Jacksonville, 32099",Mostly Cloudy,47,42,67,41,0,74,29.99 Steady ,39,10,NW,12
Sun Jan 31 09:30:22 2010," US and USA, FL and Florida, Jacksonville, 32099",Cloudy,47,42,53,45,0,74,30.00 Rising ,39,10,NNW,12to21
Sun Jan 31 10:13:33 2010," US and USA, FL and Florida, Jacksonville, 32099",Cloudy,46,40,53,45,0,73,30.02 Rising Rapidly ,38,10,N,14
Sun Jan 31 10:57:20 2010," US and USA, FL and Florida, Jacksonville, 32099",Cloudy,45,39,53,45,0,74,30.02 Steady ,37,10,N,13
Sun Jan 31 11:40:52 2010," US and USA, FL and Florida, Jacksonville, 32099",Cloudy,44,36,53,45,0,74,30.05 Steady ,36,10,N,17
Sun Jan 31 12:24:26 2010," US and USA, FL and Florida, Jacksonville, 32099",Cloudy,44,37,53,45,0,73,30.08 Rising Rapidly ,36,10,N,16
Sun Jan 31 13:07:49 2010," US and USA, FL and Florida, Jacksonville, 32099",Cloudy,43,35,53,45,0,74,30.08 Steady ,35,10,N,18
Sun Jan 31 13:51:26 2010," US and USA, FL and Florida, Jacksonville, 32099",Cloudy,42,33,53,45,0,74,30.12 Steady ,34,10,N,18
Sun Jan 31 14:34:14 2010," US and USA, FL and Florida, Jacksonville, 32099",Mostly Cloudy,41,32,53,45,0,73,30.16 Steady ,33,10,N,18
Sun Jan 31 15:18:20 2010," US and USA, FL and Florida, Jacksonville, 32099",Mostly Cloudy,42,34,53,45,0,70,30.18 Rising Rapidly ,33,10,N,16
Sun Jan 31 16:01:53 2010," US and USA, FL and Florida, Jacksonville, 32099",Mostly Cloudy,42,35,53,45,0,69,30.18 Steady ,33,10,N,16
Sun Jan 31 16:51:40 2010," US and USA, FL and Florida, Jacksonville, 32099",Mostly Cloudy,43,36,53,45,0,66,30.20 Steady ,33,10,NNE,15
Sun Jan 31 17:35:17 2010," US and USA, FL and Florida, Jacksonville, 32099",Mostly Cloudy,44,38,53,45,0,67,30.23 Steady ,34,10,NNE,12to22
Sun Jan 31 18:20:17 2010," US and USA, FL and Florida, Jacksonville, 32099",Mostly Cloudy,45,39,53,45,0,63,30.24 Rising ,33,10,NE,13
Sun Jan 31 19:04:05 2010," US and USA, FL and Florida, Jacksonville, 32099",Mostly Cloudy,46,40,52,45,0,64,30.24 Steady ,34,10,NE,12
Sun Jan 31 19:49:34 2010," US and USA, FL and Florida, Jacksonville, 32099",Mostly Cloudy,45,37,49,46,0,68,30.22 Steady ,35,10,NNE,19
Sun Jan 31 20:32:24 2010," US and USA, FL and Florida, Jacksonville, 32099",Mostly Cloudy,44,37,49,46,0,69,30.22 Steady ,35,10,NNE,17
Sun Jan 31 21:17:02 2010," US and USA, FL and Florida, Jacksonville, 32099",Mostly Cloudy,45,38,49,46,10,63,30.21 Falling ,33,10,NE,16
Sun Jan 31 21:59:50 2010," US and USA, FL and Florida, Jacksonville, 32099",Mostly Cloudy,46,39,49,45,10,64,30.21 Steady ,34,10,NE,17
Sun Jan 31 22:44:39 2010," US and USA, FL and Florida, Jacksonville, 32099",Mostly Cloudy,45,39,49,43,10,67,30.22 Steady ,35,10,NE,11
Sun Jan 31 23:27:59 2010," US and USA, FL and Florida, Jacksonville, 32099",Mostly Cloudy,44,37,49,46,10,71,30.23 Rising ,35,10,NE,15
Mon Feb  1 00:11:57 2010," US and USA, FL and Florida, Jacksonville, 32099",Mostly Cloudy,44,37,49,46,10,71,30.25 Rising Rapidly ,35,10,NE,14to20
Mon Feb  1 00:54:52 2010," US and USA, FL and Florida, Jacksonville, 32099",Mostly Cloudy,44,37,49,42,10,74,30.25 Steady ,36,10,NNE,14
Mon Feb  1 01:41:09 2010," US and USA, FL and Florida, Jacksonville, 32099",Cloudy,45,39,49,44,10,72,30.24 Steady ,37,10,NE,14
Mon Feb  1 02:25:10 2010," US and USA, FL and Florida, Jacksonville, 32099",Cloudy,45,39,49,45,10,74,30.24 Steady ,37,10,NNE,13
Mon Feb  1 03:08:49 2010," US and USA, FL and Florida, Jacksonville, 32099",Mostly Cloudy,44,39,49,45,10,79,30.24 Steady ,38,9,NNE,11
Mon Feb  1 03:53:30 2010," US and USA, FL and Florida, Jacksonville, 32099",Mostly Cloudy,45,40,49,46,10,76,30.24 Steady ,38,10,NNE,13
Mon Feb  1 04:38:19 2010," US and USA, FL and Florida, Jacksonville, 32099",Mostly Cloudy,46,40,49,45,10,76,30.23 Steady ,39,10,NNE,14
Mon Feb  1 05:21:27 2010," US and USA, FL and Florida, Jacksonville, 32099",Mostly Cloudy,47,42,49,46,10,77,30.24 Rising ,40,10,N,10
Mon Feb  1 06:06:21 2010," US and USA, FL and Florida, Jacksonville, 32099",Mostly Cloudy,46,41,49,46,40,79,30.24 Steady ,40,10,NNE,11
Mon Feb  1 06:49:31 2010," US and USA, FL and Florida, Jacksonville, 32099",Mostly Cloudy,47,41,49,46,40,79,30.23 Steady ,40,10,NNE,12
Mon Feb  1 07:33:21 2010," US and USA, FL and Florida, Jacksonville, 32099",Mostly Cloudy,48,43,49,46,40,78,30.23 Steady ,42,10,NNE,12
Mon Feb  1 08:16:45 2010," US and USA, FL and Florida, Jacksonville, 32099",Mostly Cloudy,48,43,49,46,40,80,30.23 Steady ,42,10,NNE,12
Mon Feb  1 09:00:13 2010," US and USA, FL and Florida, Jacksonville, 32099",Mostly Cloudy,47,43,49,46,40,84,30.24 Steady ,43,10,N,10
Mon Feb  1 09:43:10 2010," US and USA, FL and Florida, Jacksonville, 32099",Mostly Cloudy,49,43,63,56,40,78,30.23 Steady ,42,10,NNE,16
Mon Feb  1 10:26:44 2010," US and USA, FL and Florida, Jacksonville, 32099",Mostly Cloudy,49,45,63,56,40,77,30.21 Falling Rapidly ,42,10,NE,10
Mon Feb  1 11:09:40 2010," US and USA, FL and Florida, Jacksonville, 32099",Cloudy,49,45,63,56,40,79,30.21 Steady ,43,10,NE,11
Mon Feb  1 11:53:08 2010," US and USA, FL and Florida, Jacksonville, 32099",Mostly Cloudy,49,44,63,56,40,82,30.21 Steady ,44,10,NE,15
Mon Feb  1 12:36:30 2010," US and USA, FL and Florida, Jacksonville, 32099",Mostly Cloudy,50,50,62,56,40,82,30.22 Steady ,45,10,NNE,13
Mon Feb  1 13:20:01 2010," US and USA, FL and Florida, Jacksonville, 32099",Mostly Cloudy,51,51,62,56,40,83,30.22 Steady ,46,10,NE,12
Mon Feb  1 14:03:55 2010," US and USA, FL and Florida, Jacksonville, 32099",Mostly Cloudy,52,52,62,56,40,84,30.22 Steady ,48,10,NE,13
Mon Feb  1 14:48:59 2010," US and USA, FL and Florida, Jacksonville, 32099",Cloudy,53,53,62,56,40,82,30.23 Steady ,48,10,NE,14
Mon Feb  1 15:32:43 2010," US and USA, FL and Florida, Jacksonville, 32099",Cloudy,55,55,62,56,40,77,30.24 Steady ,48,10,NE,14to17
Mon Feb  1 16:17:27 2010," US and USA, FL and Florida, Jacksonville, 32099",Cloudy,57,57,62,56,40,75,30.24 Steady ,49,10,NE,15to20
Mon Feb  1 17:02:14 2010," US and USA, FL and Florida, Jacksonville, 32099",Cloudy,57,57,63,56,40,73,30.25 Steady ,49,10,NE,15
Mon Feb  1 17:46:01 2010," US and USA, FL and Florida, Jacksonville, 32099",Cloudy,58,58,61,56,40,72,30.24 Steady ,49,10,NE,13
Mon Feb  1 18:29:31 2010," US and USA, FL and Florida, Jacksonville, 32099",Cloudy,58,58,60,56,40,72,30.22 Falling Rapidly ,49,10,NE,12
Mon Feb  1 19:13:17 2010," US and USA, FL and Florida, Jacksonville, 32099",Cloudy,59,59,60,57,40,72,30.20 Falling Rapidly ,50,10,NE,14
Mon Feb  1 19:58:07 2010," US and USA, FL and Florida, Jacksonville, 32099",Cloudy,59,59,60,57,40,75,30.20 Steady ,51,9,NE,15
Mon Feb  1 20:44:32 2010," US and USA, FL and Florida, Jacksonville, 32099",Cloudy,59,59,60,57,40,74,30.17 Steady ,50,10,NE,17to25
Mon Feb  1 21:29:32 2010," US and USA, FL and Florida, Jacksonville, 32099",Cloudy,59,59,60,57,80,75,30.14 Falling Rapidly ,51,10,NE,15
Mon Feb  1 22:12:53 2010," US and USA, FL and Florida, Jacksonville, 32099",Cloudy,58,58,60,56,80,78,30.14 Steady ,51,10,NE,10
Mon Feb  1 22:56:13 2010," US and USA, FL and Florida, Jacksonville, 32099",Cloudy,57,57,60,56,80,82,30.14 Steady ,51,10,NE,11
Mon Feb  1 23:42:20 2010," US and USA, FL and Florida, Jacksonville, 32099",Cloudy,57,57,60,57,90,85,30.14 Steady ,52,10,NNE,10
Tue Feb  2 00:29:14 2010," US and USA, FL and Florida, Jacksonville, 32099",Cloudy,57,57,60,57,90,83,30.14 Steady ,52,10,NNE,10
Tue Feb  2 01:14:50 2010," US and USA, FL and Florida, Jacksonville, 32099",Cloudy,57,57,60,55,90,83,30.13 Falling ,52,10,NNE,10
Tue Feb  2 01:57:57 2010," US and USA, FL and Florida, Jacksonville, 32099",Cloudy,57,57,60,55,90,86,30.13 Steady ,53,10,NNE,11
Tue Feb  2 02:42:00 2010," US and USA, FL and Florida, Jacksonville, 32099",Cloudy,57,57,60,56,90,87,30.14 Steady ,53,10,NE,4
Tue Feb  2 03:25:31 2010," US and USA, FL and Florida, Jacksonville, 32099",Cloudy,57,57,60,56,90,87,30.12 Falling Rapidly ,53,10,NNE,7
Tue Feb  2 04:09:18 2010," US and USA, FL and Florida, Jacksonville, 32099",Cloudy,57,57,60,56,90,90,30.12 Steady ,54,9,NE,7
Tue Feb  2 04:52:52 2010," US and USA, FL and Florida, Jacksonville, 32099",Showers,55,55,60,56,90,94,30.09 Falling Rapidly ,54,7,NE,7
Tue Feb  2 05:36:15 2010," US and USA, FL and Florida, Jacksonville, 32099",Rain,55,55,60,55,90,100,30.07 Falling ,55,2.5,NE,6
Tue Feb  2 06:19:32 2010," US and USA, FL and Florida, Jacksonville, 32099",Rain,55,55,60,55,70,100,30.07 Steady ,55,2.5,NE,5
Tue Feb  2 07:06:40 2010," US and USA, FL and Florida, Jacksonville, 32099",Showers,57,57,60,55,70,94,30.03 Falling Rapidly ,55,4,ENE,9
Tue Feb  2 07:49:39 2010," US and USA, FL and Florida, Jacksonville, 32099",Cloudy,58,58,60,56,70,100,30.01 Steady ,58,5,NE,8
Tue Feb  2 08:32:51 2010," US and USA, FL and Florida, Jacksonville, 32099",Showers,58,58,60,56,70,100,30.01 Steady ,58,7,N,6
Tue Feb  2 09:16:21 2010," US and USA, FL and Florida, Jacksonville, 32099",Showers,61,61,60,56,70,97,29.98 Falling Rapidly ,60,6,ENE,5
Tue Feb  2 09:59:53 2010," US and USA, FL and Florida, Jacksonville, 32099",Showers,61,61,63,46,70,97,29.98 Steady ,60,6,E,5
Tue Feb  2 10:43:27 2010," US and USA, FL and Florida, Jacksonville, 32099",Showers,61,61,63,46,70,100,29.95 Steady ,61,4,CALM,0
Tue Feb  2 11:27:34 2010," US and USA, FL and Florida, Jacksonville, 32099",Showers,61,61,63,46,70,97,29.94 Falling ,60,3,CALM,0
Tue Feb  2 12:11:35 2010," US and USA, FL and Florida, Jacksonville, 32099",Showers,61,61,63,46,70,100,29.95 Rising ,61,2,W,10
Tue Feb  2 12:55:28 2010," US and USA, FL and Florida, Jacksonville, 32099",Mostly Cloudy,61,61,63,46,70,94,29.95 Steady ,59,3,WNW,4
Tue Feb  2 13:38:49 2010," US and USA, FL and Florida, Jacksonville, 32099",Cloudy,59,59,63,46,70,94,29.96 Steady ,57,10,WNW,3
Tue Feb  2 14:22:28 2010," US and USA, FL and Florida, Jacksonville, 32099",Cloudy,58,58,63,46,70,97,29.96 Steady ,57,7,WNW,7
Tue Feb  2 15:06:50 2010," US and USA, FL and Florida, Jacksonville, 32099",Cloudy,57,57,63,46,70,100,29.97 Rising ,57,7,CALM,0
Tue Feb  2 15:53:14 2010," US and USA, FL and Florida, Jacksonville, 32099",Showers,57,57,63,46,70,100,29.97 Rising ,57,8,WSW,4
Tue Feb  2 16:45:44 2010," US and USA, FL and Florida, Jacksonville, 32099",Showers,59,59,63,46,70,95,29.98 Steady ,58,8,WNW,5
Tue Feb  2 17:34:12 2010," US and USA, FL and Florida, Jacksonville, 32099",Cloudy,61,61,63,46,50,94,29.97 Steady ,59,7,W,8
Tue Feb  2 18:18:47 2010," US and USA, FL and Florida, Jacksonville, 32099",Cloudy,60,60,63,46,30,93,29.96 Falling Rapidly ,58,7,W,10
Tue Feb  2 19:02:58 2010," US and USA, FL and Florida, Jacksonville, 32099",Cloudy,61,61,63,46,30,92,29.96 Steady ,58,7,W,11to17
Tue Feb  2 19:52:23 2010," US and USA, FL and Florida, Jacksonville, 32099",Cloudy,60,60,62,46,30,88,29.94 Steady ,57,10,WNW,11
Tue Feb  2 20:43:32 2010," US and USA, FL and Florida, Jacksonville, 32099",Cloudy,60,60,62,46,30,84,29.93 Steady ,55,10,WNW,11
Tue Feb  2 21:30:23 2010," US and USA, FL and Florida, Jacksonville, 32099",Cloudy,61,61,62,46,10,81,29.92 Falling ,55,10,NW,13
Tue Feb  2 22:18:46 2010," US and USA, FL and Florida, Jacksonville, 32099",Cloudy,60,60,62,46,10,80,29.93 Rising ,54,10,NW,12
Tue Feb  2 23:03:04 2010," US and USA, FL and Florida, Jacksonville, 32099",Cloudy,59,59,62,46,10,82,29.93 Steady ,53,10,NW,12
Tue Feb  2 23:48:23 2010," US and USA, FL and Florida, Jacksonville, 32099",Cloudy,59,59,62,46,10,81,29.95 Steady ,53,10,NW,8
Wed Feb  3 00:32:47 2010," US and USA, FL and Florida, Jacksonville, 32099",Cloudy,57,57,62,46,10,81,29.98 Steady ,51,10,NW,15
Wed Feb  3 01:19:58 2010," US and USA, FL and Florida, Jacksonville, 32099",Cloudy,57,57,62,46,10,81,30.00 Rising Rapidly ,51,10,NW,9
Wed Feb  3 02:05:10 2010," US and USA, FL and Florida, Jacksonville, 32099",Cloudy,56,56,62,46,10,81,30.00 Steady ,51,10,NW,10
Wed Feb  3 02:53:28 2010," US and USA, FL and Florida, Jacksonville, 32099",Cloudy,56,56,62,46,10,80,30.01 Steady ,50,10,NNW,13
Wed Feb  3 03:40:17 2010," US and USA, FL and Florida, Jacksonville, 32099",Cloudy,55,55,62,46,0,79,30.03 Steady ,49,10,NNW,15
Wed Feb  3 04:28:25 2010," US and USA, FL and Florida, Jacksonville, 32099",Cloudy,55,55,62,46,0,77,30.04 Rising ,48,10,NW,10
Wed Feb  3 05:15:16 2010," US and USA, FL and Florida, Jacksonville, 32099",Cloudy,54,54,62,46,0,80,30.07 Rising Rapidly ,48,10,NNW,10
Wed Feb  3 06:03:04 2010," US and USA, FL and Florida, Jacksonville, 32099",Cloudy,53,53,62,46,0,80,30.07 Steady ,47,10,NNW,10
Thu Feb  4 06:05:34 2010," US and USA, FL and Florida, Jacksonville, 32099",Mostly Cloudy,50,50,60,48,30,81,30.22 Steady ,44,10,NNE,13
Thu Feb  4 06:48:38 2010," US and USA, FL and Florida, Jacksonville, 32099",Partly Cloudy,48,44,60,48,30,88,30.20 Steady ,45,10,NE,8
Thu Feb  4 07:32:15 2010," US and USA, FL and Florida, Jacksonville, 32099",Partly Cloudy,48,44,60,46,30,91,30.18 Steady ,46,10,NNE,9
Thu Feb  4 08:14:47 2010," US and USA, FL and Florida, Jacksonville, 32099",Partly Cloudy,49,45,60,46,30,91,30.18 Steady ,46,9,NNE,9
Thu Feb  4 08:58:28 2010," US and USA, FL and Florida, Jacksonville, 32099",Mostly Cloudy,49,45,60,46,30,92,30.17 Steady ,46,8,NNE,8
Thu Feb  4 09:42:24 2010," US and USA, FL and Florida, Jacksonville, 32099",Cloudy,50,47,61,57,20,90,30.16 Steady ,47,10,NNE,7
Thu Feb  4 10:26:03 2010," US and USA, FL and Florida, Jacksonville, 32099",Cloudy,52,52,61,57,20,86,30.17 Rising ,48,10,NNE,8
Thu Feb  4 11:11:59 2010," US and USA, FL and Florida, Jacksonville, 32099",Cloudy,54,54,61,57,20,83,30.16 Falling ,49,10,NE,16
Thu Feb  4 11:55:30 2010," US and USA, FL and Florida, Jacksonville, 32099",Cloudy,54,54,61,57,20,84,30.16 Steady ,49,10,NE,17
Thu Feb  4 12:38:35 2010," US and USA, FL and Florida, Jacksonville, 32099",Cloudy,55,55,60,57,20,80,30.18 Steady ,49,10,NE,13to17
Thu Feb  4 13:22:39 2010," US and USA, FL and Florida, Jacksonville, 32099",Mostly Cloudy,56,56,60,57,20,77,30.19 Rising ,49,10,NE,10
Thu Feb  4 14:07:29 2010," US and USA, FL and Florida, Jacksonville, 32099",Mostly Cloudy,56,56,60,57,20,79,30.19 Steady ,50,10,NE,11
Wed Feb  3 06:49:48 2010," US and USA, FL and Florida, Jacksonville, 32099",Cloudy,51,51,62,46,0,79,30.07 Steady ,45,10,W,8
Wed Feb  3 07:34:22 2010," US and USA, IL and Illinois, Chicago, 60601",Cloudy,25,14,34,26,20,79,30.10 Steady ,20,5,W,11
Wed Feb  3 08:17:30 2010," US and USA, IL and Illinois, Chicago, 60601",Cloudy,24,14,34,26,20,81,30.10 Steady ,20,5,W,10
Wed Feb  3 09:04:00 2010," US and USA, IL and Illinois, Chicago, 60601",Cloudy,25,14,34,26,20,79,30.11 Steady ,20,5,W,10
Wed Feb  3 09:47:50 2010," US and USA, IL and Illinois, Chicago, 60601",Cloudy,25,15,30,23,20,77,30.13 Rising Rapidly ,20,5,W,10
Wed Feb  3 10:31:15 2010," US and USA, IL and Illinois, Chicago, 60601",Cloudy,25,15,30,23,20,81,30.15 Steady ,21,5,W,10
Wed Feb  3 11:18:06 2010," US and USA, IL and Illinois, Chicago, 60601",Cloudy,26,16,30,23,20,78,30.16 Rising Rapidly ,21,5,W,10
Wed Feb  3 12:02:50 2010," US and USA, IL and Illinois, Chicago, 60601",Cloudy,25,17,30,23,20,80,30.16 Steady ,21,5,W,8
Wed Feb  3 12:46:02 2010," US and USA, IL and Illinois, Chicago, 60601",Cloudy,25,17,30,23,20,82,30.18 Steady ,21,5,WSW,7
Wed Feb  3 13:29:45 2010," US and USA, IL and Illinois, Chicago, 60601",Cloudy,25,17,30,23,20,78,30.18 Steady ,21,5,W,8
Wed Feb  3 14:15:53 2010," US and USA, IL and Illinois, Chicago, 60601",Cloudy,25,17,30,23,20,78,30.19 Rising ,20,5,WNW,7
Wed Feb  3 15:01:54 2010," US and USA, IL and Illinois, Chicago, 60601",Cloudy,25,17,30,23,20,77,30.19 Steady ,20,5,WNW,7
Wed Feb  3 15:46:42 2010," US and USA, IL and Illinois, Chicago, 60601",Cloudy,26,18,30,23,20,76,30.23 Steady ,21,5,WNW,8
Wed Feb  3 16:32:34 2010," US and USA, IL and Illinois, Chicago, 60601",Cloudy,26,19,30,23,20,74,30.26 Rising Rapidly ,21,5,W,7
Wed Feb  3 17:19:45 2010," US and USA, IL and Illinois, Chicago, 60601",Cloudy,27,19,30,23,20,73,30.28 Rising ,21,5,WNW,8
Wed Feb  3 18:08:03 2010," US and USA, IL and Illinois, Chicago, 60601",Cloudy,28,20,30,23,20,72,30.29 Rising ,21,5,WNW,7
Wed Feb  3 18:51:10 2010," US and USA, IL and Illinois, Chicago, 60601",Cloudy,30,22,30,23,20,66,30.31 Steady ,22,5,WNW,8
Wed Feb  3 19:35:26 2010," US and USA, IL and Illinois, Chicago, 60601",Cloudy,32,25,30,23,20,63,30.30 Steady ,22,5,NW,7
Wed Feb  3 20:19:31 2010," US and USA, IL and Illinois, Chicago, 60601",Cloudy,32,26,30,23,20,59,30.29 Falling ,21,6,NW,6
Wed Feb  3 21:03:49 2010," US and USA, IL and Illinois, Chicago, 60601",Cloudy,31,26,30,23,20,61,30.28 Falling ,22,7,NNW,6
Wed Feb  3 21:51:54 2010," US and USA, IL and Illinois, Chicago, 60601",Cloudy,31,27,30,23,20,57,30.27 Steady ,20,8,NNE,5
Wed Feb  3 22:37:27 2010," US and USA, IL and Illinois, Chicago, 60601",Cloudy,31,25,30,23,20,67,30.29 Steady ,23,8,ENE,5
Wed Feb  3 23:28:23 2010," US and USA, IL and Illinois, Chicago, 60601",Mostly Cloudy,30,30,30,23,20,66,30.30 Rising ,22,10,ENE,4
Thu Feb  4 00:13:18 2010," US and USA, IL and Illinois, Chicago, 60601",Cloudy,29,24,30,23,20,71,30.33 Rising Rapidly ,23,10,ENE,5
Thu Feb  4 00:57:21 2010," US and USA, IL and Illinois, Chicago, 60601",Cloudy,29,22,30,23,20,72,30.33 Steady ,22,10,ENE,6
Thu Feb  4 01:40:39 2010," US and USA, IL and Illinois, Chicago, 60601",Cloudy,28,28,30,23,20,71,30.35 Steady ,22,10,ENE,4
Thu Feb  4 02:28:23 2010," US and USA, IL and Illinois, Chicago, 60601",Cloudy,30,30,30,23,20,66,30.37 Rising Rapidly ,22,10,E,3
Thu Feb  4 03:11:34 2010," US and USA, IL and Illinois, Chicago, 60601",Cloudy,29,29,30,23,20,70,30.36 Steady ,22,10,E,4
Thu Feb  4 03:56:01 2010," US and USA, IL and Illinois, Chicago, 60601",Cloudy,29,29,30,23,20,70,30.38 Steady ,21,10,SSE,3
Thu Feb  4 04:39:18 2010," US and USA, IL and Illinois, Chicago, 60601",Cloudy,30,30,30,23,20,65,30.40 Steady ,22,9,S,4
Thu Feb  4 05:22:40 2010," US and USA, IL and Illinois, Chicago, 60601",Cloudy,30,30,30,23,20,65,30.39 Falling ,21,8,ESE,2
Thu Feb  4 15:00:16 2010," US and USA, IL and Illinois, Chicago, 60601",Cloudy,27,27,35,30,20,82,30.40 Steady ,23,5,SSE,3
Thu Jan 28 15:39:54 2010," US and USA, IL and Illinois, Chicago, 60601",Partly Cloudy,10,-7,14,10,10,51,30.36 Steady ,-2,10,WNW,15to19
Thu Jan 28 16:00:43 2010," US and USA, IL and Illinois, Chicago, 60601",Partly Cloudy,10,-7,14,10,10,51,30.36 Steady ,-2,10,WNW,15to19
Thu Jan 28 16:50:02 2010," US and USA, IL and Illinois, Chicago, 60601",Partly Cloudy,11,-5,14,10,10,50,30.38 Falling ,-2,10,WNW,13to22
Thu Jan 28 17:14:16 2010," US and USA, IL and Illinois, Chicago, 60601",Partly Cloudy,11,-5,14,10,10,47,30.40 Rising Rapidly ,-2,10,NW,16to24
Thu Jan 28 17:30:16 2010," US and USA, IL and Illinois, Chicago, 60601",Partly Cloudy,11,-5,14,10,10,47,30.40 Rising Rapidly ,-2,10,NW,16to24
Fri Jan 29 08:42:28 2010," US and USA, IL and Illinois, Chicago, 60601",Mostly Clear,9,-3,14,4,10,45,30.52 Steady ,-6,10,NW,7
Fri Jan 29 09:26:24 2010," US and USA, IL and Illinois, Chicago, 60601",Partly Cloudy,8,-6,14,4,10,40,30.51 Falling ,-8,10,NW,10
Fri Jan 29 11:58:26 2010," US and USA, IL and Illinois, Chicago, 60601",Mostly Cloudy,7,-6,19,11,20,36,30.50 Steady ,-11,10,NW,9
Fri Jan 29 12:43:08 2010," US and USA, IL and Illinois, Chicago, 60601",Mostly Cloudy,7,-6,19,11,20,42,30.50 Steady ,-9,10,WNW,8
Fri Jan 29 13:30:52 2010," US and USA, IL and Illinois, Chicago, 60601",Cloudy,7,-6,19,11,20,43,30.51 Rising ,-8,10,NW,8
Fri Jan 29 14:18:42 2010," US and USA, IL and Illinois, Chicago, 60601",Mostly Cloudy,6,-4,19,11,20,47,30.51 Steady ,-7,10,WNW,6
Fri Jan 29 15:03:29 2010," US and USA, IL and Illinois, Chicago, 60601",Mostly Cloudy,6,-4,19,11,20,47,30.51 Steady ,-8,10,WNW,6
Fri Jan 29 15:49:02 2010," US and USA, IL and Illinois, Chicago, 60601",Mostly Cloudy,7,-4,19,11,20,44,30.52 Steady ,-7,10,WNW,6
Fri Jan 29 16:36:51 2010," US and USA, IL and Illinois, Chicago, 60601",Mostly Cloudy,9,9,19,11,20,42,30.51 Falling ,-6,10,NNW,4
Fri Jan 29 17:21:15 2010," US and USA, IL and Illinois, Chicago, 60601",Cloudy,13,13,19,11,20,42,30.52 Rising ,-3,10,W,1
Fri Jan 29 18:09:44 2010," US and USA, IL and Illinois, Chicago, 60601",Cloudy,15,15,18,11,20,35,30.52 Steady ,-4,10,NNW,2
Fri Jan 29 18:54:42 2010," US and USA, IL and Illinois, Chicago, 60601",Cloudy,16,16,18,11,20,30,30.52 Steady ,-5,10,CALM,0
Fri Jan 29 19:46:41 2010," US and USA, IL and Illinois, Chicago, 60601",Mostly Cloudy,19,19,18,11,20,30,30.48 Steady ,-3,10,CALM,0
Fri Jan 29 20:44:31 2010," US and USA, IL and Illinois, Chicago, 60601",Cloudy,21,21,18,11,20,33,30.46 Rising ,1,10,CALM,0
Fri Jan 29 21:29:08 2010," US and USA, IL and Illinois, Chicago, 60601",Mostly Cloudy,21,14,18,15,20,35,30.42 Falling Rapidly ,2,10,E,5
Fri Jan 29 22:15:44 2010," US and USA, IL and Illinois, Chicago, 60601",Mostly Cloudy,20,11,18,15,20,42,30.41 Falling ,3,10,E,7
Fri Jan 29 23:00:39 2010," US and USA, IL and Illinois, Chicago, 60601",Mostly Cloudy,19,10,18,15,20,46,30.41 Steady ,4,10,E,6
Fri Jan 29 23:44:55 2010," US and USA, IL and Illinois, Chicago, 60601",Cloudy,19,10,18,15,20,53,30.40 Steady ,7,10,ENE,7
Sat Jan 30 00:29:00 2010," US and USA, IL and Illinois, Chicago, 60601",Cloudy,18,10,18,14,20,52,30.38 Falling Rapidly ,6,10,ENE,6
Sat Jan 30 01:13:09 2010," US and USA, IL and Illinois, Chicago, 60601",Cloudy,18,18,18,14,20,51,30.39 Rising ,5,10,NNW,2
Sat Jan 30 01:57:07 2010," US and USA, IL and Illinois, Chicago, 60601",Cloudy,17,17,18,14,20,58,30.39 Falling ,7,10,NNW,2
Sat Jan 30 02:41:24 2010," US and USA, IL and Illinois, Chicago, 60601",Cloudy,19,19,18,14,20,56,30.38 Steady ,8,10,NNW,3
Sat Jan 30 03:24:55 2010," US and USA, IL and Illinois, Chicago, 60601",Snow Showers,19,12,18,14,20,71,30.37 Falling ,12,2.8,NNE,5
Sat Jan 30 04:08:51 2010," US and USA, IL and Illinois, Chicago, 60601",Flurries,18,11,18,14,40,79,30.36 Falling ,14,4,NNE,5
Sat Jan 30 04:52:37 2010," US and USA, IL and Illinois, Chicago, 60601",Cloudy,17,17,18,14,40,81,30.35 Steady ,13,5,NNE,3
Sat Jan 30 05:36:23 2010," US and USA, IL and Illinois, Chicago, 60601",Cloudy,17,7,18,14,40,84,30.33 Steady ,14,7,SE,7
Sat Jan 30 06:20:27 2010," US and USA, IL and Illinois, Chicago, 60601",Flurries,16,6,18,14,40,86,30.33 Steady ,14,7,SE,8
Sat Jan 30 07:06:26 2010," US and USA, IL and Illinois, Chicago, 60601",Flurries,17,8,18,14,10,73,30.33 Steady ,11,7,SE,6
Sat Jan 30 07:49:07 2010," US and USA, IL and Illinois, Chicago, 60601",Cloudy,17,9,18,14,10,63,30.32 Steady ,9,9,SE,6
Sat Jan 30 08:32:21 2010," US and USA, IL and Illinois, Chicago, 60601",Cloudy,17,8,18,14,10,62,30.31 Steady ,8,9,ESE,6
Sat Jan 30 11:14:08 2010," US and USA, IL and Illinois, Chicago, 60601",Cloudy,18,9,25,14,10,53,30.27 Falling ,6,10,ESE,6
Sat Jan 30 12:01:57 2010," US and USA, IL and Illinois, Chicago, 60601",Cloudy,18,9,25,14,20,55,30.27 Steady ,7,10,ESE,6
Sat Jan 30 12:45:34 2010," US and USA, IL and Illinois, Chicago, 60601",Cloudy,19,10,25,14,30,58,30.27 Steady ,8,10,E,7
Sat Jan 30 13:28:47 2010," US and USA, IL and Illinois, Chicago, 60601",Cloudy,18,8,25,14,30,55,30.27 Steady ,7,10,ESE,9
Sat Jan 30 14:12:59 2010," US and USA, IL and Illinois, Chicago, 60601",Cloudy,18,9,25,14,30,56,30.27 Steady ,7,10,ESE,7
Sat Jan 30 14:57:16 2010," US and USA, IL and Illinois, Chicago, 60601",Mostly Cloudy,17,8,24,14,30,58,30.27 Steady ,7,10,ESE,6
Sat Jan 30 15:42:53 2010," US and USA, IL and Illinois, Chicago, 60601",Mostly Cloudy,19,8,24,14,30,49,30.27 Steady ,6,10,E,9
Sat Jan 30 16:27:51 2010," US and USA, IL and Illinois, Chicago, 60601",Mostly Cloudy,20,9,24,14,30,47,30.27 Steady ,6,10,E,9
Sat Jan 30 17:12:19 2010," US and USA, IL and Illinois, Chicago, 60601",Mostly Cloudy,22,11,24,14,30,43,30.26 Steady ,6,10,E,10
Sat Jan 30 17:55:29 2010," US and USA, IL and Illinois, Chicago, 60601",Mostly Cloudy,22,12,24,14,30,43,30.26 Steady ,6,10,E,11
Sat Jan 30 18:39:29 2010," US and USA, IL and Illinois, Chicago, 60601",Partly Cloudy,23,13,24,14,30,42,30.26 Steady ,6,10,E,9
Sat Jan 30 19:22:46 2010," US and USA, IL and Illinois, Chicago, 60601",Partly Cloudy,23,14,24,14,30,42,30.23 Falling Rapidly ,7,10,E,9
Sat Jan 30 20:07:02 2010," US and USA, IL and Illinois, Chicago, 60601",Partly Cloudy,24,14,24,14,30,42,30.23 Steady ,8,10,E,9
Sat Jan 30 20:50:07 2010," US and USA, IL and Illinois, Chicago, 60601",Partly Cloudy,23,14,24,14,30,47,30.22 Steady ,9,9,ENE,8
Sat Jan 30 21:33:53 2010," US and USA, IL and Illinois, Chicago, 60601",Partly Cloudy,23,14,24,17,20,50,30.20 Steady ,10,10,E,8
Sat Jan 30 22:17:24 2010," US and USA, IL and Illinois, Chicago, 60601",Partly Cloudy,22,15,24,17,20,50,30.20 Steady ,9,10,E,5
Sat Jan 30 23:02:51 2010," US and USA, IL and Illinois, Chicago, 60601",Partly Cloudy,22,15,24,17,20,53,30.20 Steady ,10,10,E,5
Sat Jan 30 23:47:45 2010," US and USA, IL and Illinois, Chicago, 60601",Mostly Cloudy,21,16,24,17,20,55,30.19 Steady ,10,10,E,4
Sun Jan 31 00:31:44 2010," US and USA, IL and Illinois, Chicago, 60601",Cloudy,20,20,24,17,20,59,30.14 Steady ,10,9,SE,3
Sun Jan 31 01:22:10 2010," US and USA, IL and Illinois, Chicago, 60601",Mostly Cloudy,21,14,24,17,20,59,30.20 Rising Rapidly ,11,10,ESE,5
Sun Jan 31 02:06:11 2010," US and USA, IL and Illinois, Chicago, 60601",Mostly Cloudy,20,13,24,17,20,63,30.20 Steady ,11,10,ESE,5
Sun Jan 31 02:49:34 2010," US and USA, IL and Illinois, Chicago, 60601",Mostly Cloudy,21,13,24,17,20,63,30.20 Steady ,12,10,ESE,6
Sun Jan 31 03:33:29 2010," US and USA, IL and Illinois, Chicago, 60601",Mostly Cloudy,20,20,24,17,20,67,30.20 Steady ,12,10,SSE,3
Sun Jan 31 04:17:17 2010," US and USA, IL and Illinois, Chicago, 60601",Cloudy,20,20,24,17,20,69,30.19 Falling ,13,10,SSE,3
Sun Jan 31 05:01:33 2010," US and USA, IL and Illinois, Chicago, 60601",Mostly Cloudy,20,20,24,17,20,73,30.19 Steady ,14,9,SE,2
Sun Jan 31 05:47:57 2010," US and USA, IL and Illinois, Chicago, 60601",Mostly Cloudy,20,20,24,17,20,69,30.19 Steady ,13,10,SW,2
Sun Jan 31 06:32:48 2010," US and USA, IL and Illinois, Chicago, 60601",Mostly Cloudy,19,13,24,17,20,71,30.18 Falling ,13,10,SW,5
Sun Jan 31 07:15:40 2010," US and USA, IL and Illinois, Chicago, 60601",Mostly Cloudy,20,20,24,17,20,67,30.18 Steady ,13,10,SW,3
Sun Jan 31 08:02:23 2010," US and USA, IL and Illinois, Chicago, 60601",Mostly Cloudy,20,20,24,17,20,66,30.17 Falling ,12,10,SW,3
Sun Jan 31 08:47:04 2010," US and USA, IL and Illinois, Chicago, 60601",Mostly Cloudy,21,21,24,17,20,63,30.17 Steady ,12,10,SSW,4
Sun Jan 31 09:30:19 2010," US and USA, IL and Illinois, Chicago, 60601",Mostly Cloudy,19,12,26,17,10,74,30.18 Rising ,14,10,WSW,5
Sun Jan 31 10:13:30 2010," US and USA, IL and Illinois, Chicago, 60601",Cloudy,19,12,26,17,10,74,30.18 Steady ,14,10,W,5
Sun Jan 31 10:57:17 2010," US and USA, IL and Illinois, Chicago, 60601",Cloudy,20,12,26,17,10,73,30.18 Steady ,14,10,W,6
Sun Jan 31 11:40:49 2010," US and USA, IL and Illinois, Chicago, 60601",Mostly Cloudy,20,12,26,17,10,73,30.18 Steady ,14,10,WSW,6
Sun Jan 31 12:24:23 2010," US and USA, IL and Illinois, Chicago, 60601",Mostly Cloudy,20,20,25,17,10,76,30.19 Rising ,15,10,WSW,4
Sun Jan 31 13:07:47 2010," US and USA, IL and Illinois, Chicago, 60601",Mostly Cloudy,19,12,25,17,10,78,30.19 Steady ,14,10,WSW,5
Sun Jan 31 13:51:24 2010," US and USA, IL and Illinois, Chicago, 60601",Partly Cloudy,18,10,25,17,10,78,30.19 Steady ,14,8,W,6
Sun Jan 31 14:34:11 2010," US and USA, IL and Illinois, Chicago, 60601",Sunny,18,11,25,17,10,75,30.19 Falling ,13,8,W,5
Sun Jan 31 15:18:17 2010," US and USA, IL and Illinois, Chicago, 60601",Partly Cloudy,17,8,25,17,10,75,30.20 Rising ,12,5,WSW,7
Sun Jan 31 16:01:49 2010," US and USA, IL and Illinois, Chicago, 60601",Partly Cloudy,17,7,26,17,10,71,30.20 Steady ,11,8,W,8
Sun Jan 31 16:51:37 2010," US and USA, IL and Illinois, Chicago, 60601",Partly Cloudy,19,7,25,17,10,57,30.20 Steady ,9,10,W,11
Sun Jan 31 17:35:14 2010," US and USA, IL and Illinois, Chicago, 60601",Partly Cloudy,23,12,25,17,10,45,30.20 Falling ,8,10,W,10
Sun Jan 31 18:20:14 2010," US and USA, IL and Illinois, Chicago, 60601",Partly Cloudy,26,16,25,17,10,35,30.21 Rising ,6,10,W,11
Sun Jan 31 19:04:02 2010," US and USA, IL and Illinois, Chicago, 60601",Partly Cloudy,26,15,25,17,10,35,30.21 Steady ,6,10,W,12
Sun Jan 31 19:49:31 2010," US and USA, IL and Illinois, Chicago, 60601",Partly Cloudy,28,17,25,16,10,29,30.19 Steady ,5,10,W,13
Sun Jan 31 20:32:21 2010," US and USA, IL and Illinois, Chicago, 60601",Partly Cloudy,30,19,25,16,10,32,30.18 Steady ,8,10,W,14to19
Sun Jan 31 21:16:59 2010," US and USA, IL and Illinois, Chicago, 60601",Partly Cloudy,30,19,25,16,10,29,30.18 Steady ,7,10,WSW,15to20
Sun Jan 31 21:59:47 2010," US and USA, IL and Illinois, Chicago, 60601",Partly Cloudy,30,19,25,16,20,32,30.18 Steady ,8,10,W,14to19
Sun Jan 31 22:44:36 2010," US and USA, IL and Illinois, Chicago, 60601",Mostly Cloudy,29,19,25,16,20,35,30.19 Steady ,9,10,W,14to18
Sun Jan 31 23:27:56 2010," US and USA, IL and Illinois, Chicago, 60601",Mostly Cloudy,29,19,25,16,20,35,30.21 Rising Rapidly ,9,10,W,14to22
Mon Feb  1 00:11:54 2010," US and USA, IL and Illinois, Chicago, 60601",Cloudy,28,19,25,16,20,40,30.23 Rising Rapidly ,10,10,WNW,9
Mon Feb  1 00:54:49 2010," US and USA, IL and Illinois, Chicago, 60601",Mostly Cloudy,27,18,25,16,20,42,30.23 Steady ,11,10,WNW,9
Mon Feb  1 01:41:06 2010," US and USA, IL and Illinois, Chicago, 60601",Mostly Clear,25,16,25,16,20,49,30.24 Steady ,11,10,WNW,8
Mon Feb  1 02:25:07 2010," US and USA, IL and Illinois, Chicago, 60601",Mostly Clear,25,16,25,16,20,53,30.26 Rising Rapidly ,13,10,WNW,9
Mon Feb  1 03:08:47 2010," US and USA, IL and Illinois, Chicago, 60601",Mostly Clear,24,14,25,16,20,55,30.26 Steady ,12,10,WNW,9
Mon Feb  1 03:53:27 2010," US and USA, IL and Illinois, Chicago, 60601",Partly Cloudy,23,15,25,16,20,52,30.28 Steady ,11,10,WNW,7
Mon Feb  1 04:38:16 2010," US and USA, IL and Illinois, Chicago, 60601",Mostly Clear,22,13,25,16,20,51,30.28 Steady ,9,10,NW,7
Mon Feb  1 05:21:25 2010," US and USA, IL and Illinois, Chicago, 60601",Partly Cloudy,22,13,25,16,20,54,30.29 Rising ,10,10,WNW,7
Mon Feb  1 06:06:18 2010," US and USA, IL and Illinois, Chicago, 60601",Partly Cloudy,21,13,25,16,20,54,30.29 Steady ,10,10,WNW,7
Mon Feb  1 06:49:28 2010," US and USA, IL and Illinois, Chicago, 60601",Partly Cloudy,20,20,25,16,20,58,30.30 Steady ,10,10,WNW,4
Mon Feb  1 07:33:18 2010," US and USA, IL and Illinois, Chicago, 60601",Partly Cloudy,19,13,25,16,30,64,30.31 Steady ,10,10,NW,4
Mon Feb  1 08:16:42 2010," US and USA, IL and Illinois, Chicago, 60601",Partly Cloudy,18,18,25,16,30,64,30.31 Steady ,10,10,NW,4
Mon Feb  1 09:00:10 2010," US and USA, IL and Illinois, Chicago, 60601",Mostly Clear,18,18,25,16,30,65,30.31 Steady ,10,9,NW,1
Mon Feb  1 09:43:08 2010," US and USA, IL and Illinois, Chicago, 60601",Partly Cloudy,18,18,29,26,30,66,30.31 Steady ,10,10,NW,3
Mon Feb  1 10:26:41 2010," US and USA, IL and Illinois, Chicago, 60601",Mostly Cloudy,20,20,29,26,30,61,30.31 Steady ,11,10,NW,2
Mon Feb  1 11:09:38 2010," US and USA, IL and Illinois, Chicago, 60601",Mostly Cloudy,21,21,29,26,30,58,30.31 Steady ,11,8,NW,2
Mon Feb  1 11:53:05 2010," US and USA, IL and Illinois, Chicago, 60601",Cloudy,20,14,29,26,30,65,30.30 Steady ,12,10,NNW,4
Mon Feb  1 12:36:27 2010," US and USA, IL and Illinois, Chicago, 60601",Cloudy,22,22,29,26,30,64,30.29 Steady ,13,10,NNW,2
Mon Feb  1 13:19:58 2010," US and USA, IL and Illinois, Chicago, 60601",Cloudy,22,22,29,26,30,65,30.29 Steady ,14,10,WNW,1
Mon Feb  1 14:03:52 2010," US and USA, IL and Illinois, Chicago, 60601",Cloudy,23,23,29,26,30,61,30.30 Steady ,13,10,CALM,0
Mon Feb  1 14:48:56 2010," US and USA, IL and Illinois, Chicago, 60601",Cloudy,24,24,29,26,30,58,30.30 Steady ,14,10,CALM,0
Mon Feb  1 15:32:41 2010," US and USA, IL and Illinois, Chicago, 60601",Cloudy,24,24,29,26,30,55,30.32 Steady ,13,9,NW,2
Mon Feb  1 16:17:24 2010," US and USA, IL and Illinois, Chicago, 60601",Cloudy,25,25,29,26,30,52,30.32 Steady ,13,8,NW,1
Mon Feb  1 17:02:11 2010," US and USA, IL and Illinois, Chicago, 60601",Cloudy,26,26,28,26,30,51,30.32 Steady ,13,8,S,1
Mon Feb  1 17:45:58 2010," US and USA, IL and Illinois, Chicago, 60601",Cloudy,27,27,28,26,30,52,30.32 Steady ,14,9,SSW,2
Mon Feb  1 18:29:28 2010," US and USA, IL and Illinois, Chicago, 60601",Cloudy,27,27,28,26,30,48,30.30 Falling Rapidly ,14,8,CALM,0
Mon Feb  1 19:13:14 2010," US and USA, IL and Illinois, Chicago, 60601",Cloudy,29,29,28,26,30,45,30.27 Falling Rapidly ,13,8,CALM,0
Mon Feb  1 19:58:04 2010," US and USA, IL and Illinois, Chicago, 60601",Cloudy,29,29,28,26,30,44,30.27 Steady ,14,8,ESE,2
Mon Feb  1 20:44:30 2010," US and USA, IL and Illinois, Chicago, 60601",Cloudy,30,30,28,26,30,42,30.24 Steady ,13,7,ESE,2
Mon Feb  1 21:29:29 2010," US and USA, IL and Illinois, Chicago, 60601",Cloudy,30,30,28,26,50,43,30.22 Falling Rapidly ,14,8,E,2
Mon Feb  1 22:12:50 2010," US and USA, IL and Illinois, Chicago, 60601",Cloudy,31,31,28,26,50,46,30.21 Falling ,16,8,E,3
Mon Feb  1 22:56:10 2010," US and USA, IL and Illinois, Chicago, 60601",Cloudy,30,25,28,26,50,49,30.21 Steady ,16,7,E,4
Mon Feb  1 23:42:17 2010," US and USA, IL and Illinois, Chicago, 60601",Cloudy,30,24,28,26,50,52,30.21 Steady ,17,7,ESE,6
Tue Feb  2 00:29:11 2010," US and USA, IL and Illinois, Chicago, 60601",Cloudy,30,23,28,26,50,50,30.19 Falling Rapidly ,16,8,ESE,7
Tue Feb  2 01:14:47 2010," US and USA, IL and Illinois, Chicago, 60601",Cloudy,28,21,28,26,80,55,30.19 Falling ,17,8,E,7
Tue Feb  2 01:57:54 2010," US and USA, IL and Illinois, Chicago, 60601",Cloudy,28,22,28,26,80,55,30.19 Steady ,17,8,E,7
Tue Feb  2 02:41:58 2010," US and USA, IL and Illinois, Chicago, 60601",Cloudy,28,22,28,26,80,61,30.19 Steady ,19,8,ESE,6
Tue Feb  2 03:25:28 2010," US and USA, IL and Illinois, Chicago, 60601",Cloudy,29,23,28,26,80,64,30.18 Falling ,20,9,ESE,6
Tue Feb  2 04:09:16 2010," US and USA, IL and Illinois, Chicago, 60601",Cloudy,29,23,28,26,80,60,30.18 Steady ,20,9,ESE,6
Tue Feb  2 04:52:49 2010," US and USA, IL and Illinois, Chicago, 60601",Cloudy,30,23,28,26,80,58,30.18 Steady ,19,9,SSE,7
Tue Feb  2 05:36:12 2010," US and USA, IL and Illinois, Chicago, 60601",Cloudy,30,22,28,26,80,60,30.16 Steady ,20,10,SE,9
Tue Feb  2 06:19:30 2010," US and USA, IL and Illinois, Chicago, 60601",Cloudy,30,22,28,26,80,59,30.16 Steady ,20,10,SE,9
Tue Feb  2 07:06:37 2010," US and USA, IL and Illinois, Chicago, 60601",Cloudy,31,24,28,26,60,52,30.14 Steady ,18,10,SE,6
Tue Feb  2 07:49:36 2010," US and USA, IL and Illinois, Chicago, 60601",Cloudy,31,25,28,26,60,54,30.13 Steady ,19,10,SE,5
Tue Feb  2 08:32:48 2010," US and USA, IL and Illinois, Chicago, 60601",Snow Showers,29,29,28,26,60,78,30.12 Falling ,24,0.8,SE,4
Tue Feb  2 09:16:18 2010," US and USA, IL and Illinois, Chicago, 60601",Snow Showers,28,22,28,26,60,88,30.13 Rising ,25,2.2,SE,5
Tue Feb  2 09:59:50 2010," US and USA, IL and Illinois, Chicago, 60601",Flurries,28,22,34,25,60,88,30.12 Falling ,26,2.5,SE,6
Tue Feb  2 10:43:24 2010," US and USA, IL and Illinois, Chicago, 60601",Flurries,28,22,34,25,60,91,30.11 Steady ,26,2.6,SE,5
Tue Feb  2 11:27:31 2010," US and USA, IL and Illinois, Chicago, 60601",Snow Showers,28,20,34,25,60,88,30.09 Steady ,26,2,SE,8
Tue Feb  2 12:11:32 2010," US and USA, IL and Illinois, Chicago, 60601",Snow Showers,28,21,34,25,60,87,30.07 Falling ,26,0.8,ESE,8
Tue Feb  2 12:55:25 2010," US and USA, IL and Illinois, Chicago, 60601",Snow Showers,29,21,34,25,60,86,30.06 Steady ,26,0.8,ESE,8
Tue Feb  2 13:38:46 2010," US and USA, IL and Illinois, Chicago, 60601",Snow Showers,30,21,34,25,60,84,30.05 Steady ,26,0.8,ESE,9
Tue Feb  2 14:22:25 2010," US and USA, IL and Illinois, Chicago, 60601",Snow Showers,29,22,34,25,80,90,30.03 Falling Rapidly ,27,0.8,ESE,7
Tue Feb  2 15:06:47 2010," US and USA, IL and Illinois, Chicago, 60601",Snow Showers,29,22,34,25,80,90,30.03 Steady ,27,2.2,SE,8
Tue Feb  2 15:53:11 2010," US and USA, IL and Illinois, Chicago, 60601",Snow Showers,30,21,34,25,80,84,30.02 Falling ,27,0.8,SE,10
Tue Feb  2 16:45:41 2010," US and USA, IL and Illinois, Chicago, 60601",Snow,30,23,34,25,80,85,30.03 Rising ,26,0.3,SE,7
Tue Feb  2 17:34:09 2010," US and USA, IL and Illinois, Chicago, 60601",Snow Showers,31,24,34,25,80,85,30.02 Steady ,27,0.8,SSE,7
Tue Feb  2 18:18:44 2010," US and USA, IL and Illinois, Chicago, 60601",Snow Showers,31,27,34,25,80,84,30.01 Falling ,28,0.8,SSE,4
Tue Feb  2 19:02:55 2010," US and USA, IL and Illinois, Chicago, 60601",Cloudy,32,25,34,25,80,80,30.00 Steady ,27,5,S,7
Tue Feb  2 19:52:20 2010," US and USA, IL and Illinois, Chicago, 60601",Cloudy,33,27,34,26,50,75,29.99 Steady ,26,6,S,7
Tue Feb  2 20:43:30 2010," US and USA, IL and Illinois, Chicago, 60601",Cloudy,34,29,34,26,50,69,29.97 Steady ,25,6,SSW,6
Tue Feb  2 21:30:20 2010," US and USA, IL and Illinois, Chicago, 60601",Cloudy,32,26,34,26,50,79,29.96 Falling ,26,6,WSW,7
Tue Feb  2 22:18:43 2010," US and USA, IL and Illinois, Chicago, 60601",Cloudy,32,26,34,26,60,81,29.97 Rising ,27,6,W,6
Tue Feb  2 23:03:01 2010," US and USA, IL and Illinois, Chicago, 60601",Cloudy,32,26,34,26,60,76,29.97 Steady ,27,6,W,7
Tue Feb  2 23:48:20 2010," US and USA, IL and Illinois, Chicago, 60601",Snow Showers,31,24,34,26,60,79,29.98 Steady ,26,3,W,7
Wed Feb  3 00:32:44 2010," US and USA, IL and Illinois, Chicago, 60601",Cloudy,32,26,34,26,60,81,29.99 Steady ,27,5,W,6
Wed Feb  3 01:19:55 2010," US and USA, IL and Illinois, Chicago, 60601",Cloudy,32,26,34,26,60,80,30.01 Rising Rapidly ,27,5,W,6
Wed Feb  3 02:05:07 2010," US and USA, IL and Illinois, Chicago, 60601",Cloudy,31,25,34,26,30,83,30.01 Steady ,28,5,W,7
Wed Feb  3 02:53:25 2010," US and USA, IL and Illinois, Chicago, 60601",Cloudy,31,22,34,26,30,81,30.02 Steady ,27,5,W,11
Wed Feb  3 03:40:14 2010," US and USA, IL and Illinois, Chicago, 60601",Cloudy,30,20,34,26,30,80,30.04 Steady ,26,5,W,12
Wed Feb  3 04:28:23 2010," US and USA, IL and Illinois, Chicago, 60601",Cloudy,30,20,34,26,30,76,30.06 Rising Rapidly ,24,5,W,11
Wed Feb  3 05:15:14 2010," US and USA, IL and Illinois, Chicago, 60601",Cloudy,29,19,34,26,30,73,30.07 Rising ,23,5,W,11
Wed Feb  3 06:03:01 2010," US and USA, IL and Illinois, Chicago, 60601",Cloudy,28,17,34,26,30,75,30.07 Steady ,22,5,W,12
Thu Feb  4 06:05:31 2010," US and USA, IL and Illinois, Chicago, 60601",Cloudy,29,29,30,23,20,67,30.39 Steady ,21,8,ESE,3
Thu Feb  4 06:48:35 2010," US and USA, IL and Illinois, Chicago, 60601",Cloudy,28,28,30,22,20,65,30.38 Steady ,20,8,ESE,1
Thu Feb  4 07:32:13 2010," US and USA, IL and Illinois, Chicago, 60601",Partly Cloudy,26,26,30,22,20,75,30.37 Falling ,20,7,SSW,3
Thu Feb  4 08:14:44 2010," US and USA, IL and Illinois, Chicago, 60601",Partly Cloudy,24,24,30,22,20,78,30.37 Steady ,19,7,S,3
Thu Feb  4 08:58:25 2010," US and USA, IL and Illinois, Chicago, 60601",Mostly Cloudy,22,16,30,22,20,82,30.34 Steady ,19,6,SSE,5
Thu Feb  4 09:42:21 2010," US and USA, IL and Illinois, Chicago, 60601",Cloudy,24,17,35,30,20,80,30.36 Rising Rapidly ,19,6,SSE,5
Thu Feb  4 10:26:00 2010," US and USA, IL and Illinois, Chicago, 60601",Mostly Cloudy,25,18,35,30,20,76,30.38 Rising Rapidly ,20,7,S,6
Thu Feb  4 11:11:56 2010," US and USA, IL and Illinois, Chicago, 60601",Mostly Cloudy,24,17,35,30,20,79,30.38 Steady ,19,6,S,5
Thu Feb  4 11:55:27 2010," US and USA, IL and Illinois, Chicago, 60601",Cloudy,25,25,35,30,20,80,30.38 Steady ,20,6,CALM,0
Thu Feb  4 12:38:32 2010," US and USA, IL and Illinois, Chicago, 60601",Cloudy,24,24,35,30,20,86,30.39 Steady ,21,6,SSE,1
Thu Feb  4 13:22:37 2010," US and USA, IL and Illinois, Chicago, 60601",Cloudy,25,20,35,30,20,86,30.39 Steady ,22,6,SSE,4
Thu Feb  4 14:07:26 2010," US and USA, IL and Illinois, Chicago, 60601",Cloudy,24,18,35,30,20,88,30.39 Steady ,22,6,SSE,5
Wed Feb  3 06:49:45 2010," US and USA, IL and Illinois, Chicago, 60601",Cloudy,25,16,34,26,20,79,30.08 Steady ,20,5,W,9
Wed Feb  3 07:34:24 2010," US and USA, IN and Indiana, Indianapolis, 46201",Cloudy,33,27,37,25,0,80,30.09 Steady ,27,9,W,7
Wed Feb  3 08:17:31 2010," US and USA, IN and Indiana, Indianapolis, 46201",Cloudy,32,26,37,25,0,80,30.09 Steady ,27,9,W,7
Wed Feb  3 09:04:02 2010," US and USA, IN and Indiana, Indianapolis, 46201",Cloudy,33,27,37,25,0,77,30.11 Rising ,27,7,W,7
Wed Feb  3 09:47:51 2010," US and USA, IN and Indiana, Indianapolis, 46201",Cloudy,33,26,31,23,0,81,30.13 Steady ,27,6,WNW,8
Wed Feb  3 10:31:16 2010," US and USA, IN and Indiana, Indianapolis, 46201",Cloudy,31,25,31,23,30,81,30.14 Steady ,27,5,WNW,5
Wed Feb  3 11:18:08 2010," US and USA, IN and Indiana, Indianapolis, 46201",Cloudy,31,22,31,23,30,70,30.15 Rising ,24,6,WNW,10
Wed Feb  3 12:02:52 2010," US and USA, IN and Indiana, Indianapolis, 46201",Mostly Cloudy,29,22,31,23,30,70,30.15 Steady ,22,6,NW,7
Wed Feb  3 12:46:03 2010," US and USA, IN and Indiana, Indianapolis, 46201",Partly Cloudy,28,21,31,23,30,70,30.15 Steady ,21,6,NW,7
Wed Feb  3 13:29:47 2010," US and USA, IN and Indiana, Indianapolis, 46201",Cloudy,28,19,31,23,30,68,30.18 Rising Rapidly ,21,7,WNW,11
Wed Feb  3 14:15:55 2010," US and USA, IN and Indiana, Indianapolis, 46201",Cloudy,26,19,31,23,30,69,30.18 Steady ,19,5,WNW,6
Wed Feb  3 15:01:55 2010," US and USA, IN and Indiana, Indianapolis, 46201",Cloudy,26,19,31,23,30,71,30.19 Rising ,19,5,WNW,6
Wed Feb  3 15:46:43 2010," US and USA, IN and Indiana, Indianapolis, 46201",Cloudy,25,17,31,23,30,75,30.24 Steady ,19,5,NW,7
Wed Feb  3 16:32:36 2010," US and USA, IN and Indiana, Indianapolis, 46201",Cloudy,26,18,31,23,10,72,30.26 Rising Rapidly ,20,5,NW,7
Wed Feb  3 17:19:46 2010," US and USA, IN and Indiana, Indianapolis, 46201",Cloudy,26,18,31,23,0,73,30.26 Steady ,20,5,NW,6
Wed Feb  3 18:08:05 2010," US and USA, IN and Indiana, Indianapolis, 46201",Cloudy,27,19,31,23,0,71,30.26 Steady ,20,5,NW,7
Wed Feb  3 18:51:12 2010," US and USA, IN and Indiana, Indianapolis, 46201",Cloudy,27,22,31,23,0,69,30.29 Steady ,20,5,NW,5
Wed Feb  3 19:35:27 2010," US and USA, IN and Indiana, Indianapolis, 46201",Cloudy,28,28,31,23,20,69,30.29 Steady ,21,5,NW,3
Wed Feb  3 20:19:32 2010," US and USA, IN and Indiana, Indianapolis, 46201",Cloudy,28,22,31,23,20,69,30.27 Falling Rapidly ,21,5,WNW,6
Wed Feb  3 21:03:51 2010," US and USA, IN and Indiana, Indianapolis, 46201",Cloudy,29,22,31,23,20,69,30.27 Steady ,21,5,NW,6
Wed Feb  3 21:51:56 2010," US and USA, IN and Indiana, Indianapolis, 46201",Cloudy,29,23,31,23,10,68,30.26 Steady ,22,6,N,6
Wed Feb  3 22:37:28 2010," US and USA, IN and Indiana, Indianapolis, 46201",Cloudy,30,24,31,23,10,67,30.27 Rising ,22,7,N,5
Wed Feb  3 23:28:24 2010," US and USA, IN and Indiana, Indianapolis, 46201",Cloudy,30,30,31,23,10,66,30.29 Rising Rapidly ,22,7,N,3
Thu Feb  4 00:13:20 2010," US and USA, IN and Indiana, Indianapolis, 46201",Mostly Cloudy,29,29,31,23,10,69,30.29 Steady ,22,7,N,1
Thu Feb  4 00:57:22 2010," US and USA, IN and Indiana, Indianapolis, 46201",Partly Cloudy,28,28,31,23,10,72,30.29 Steady ,22,6,CALM,0
Thu Feb  4 01:40:40 2010," US and USA, IN and Indiana, Indianapolis, 46201",Clear,27,27,31,23,10,77,30.32 Steady ,21,7,N,1
Thu Feb  4 02:28:24 2010," US and USA, IN and Indiana, Indianapolis, 46201",Clear,26,26,31,23,10,77,30.35 Rising Rapidly ,21,6,NNW,1
Thu Feb  4 03:11:36 2010," US and USA, IN and Indiana, Indianapolis, 46201",Clear,26,26,31,23,10,78,30.35 Steady ,21,6,NNE,1
Thu Feb  4 03:56:03 2010," US and USA, IN and Indiana, Indianapolis, 46201",Mostly Cloudy,27,27,31,23,10,80,30.36 Steady ,22,5,N,2
Thu Feb  4 04:39:19 2010," US and USA, IN and Indiana, Indianapolis, 46201",Mostly Cloudy,28,28,31,23,10,78,30.37 Steady ,23,5,NNE,2
Thu Feb  4 05:22:42 2010," US and USA, IN and Indiana, Indianapolis, 46201",Mostly Cloudy,28,28,31,23,10,78,30.36 Steady ,24,5,NE,4
Thu Feb  4 15:00:18 2010," US and USA, IN and Indiana, Indianapolis, 46201",Cloudy,28,22,36,30,10,73,30.36 Steady ,22,5,E,6
Thu Jan 28 15:39:56 2010," US and USA, IN and Indiana, Indianapolis, 46201",Partly Cloudy,16,0,19,12,20,64,30.33 Steady ,7,10,WNW,15to28
Thu Jan 28 16:00:45 2010," US and USA, IN and Indiana, Indianapolis, 46201",Partly Cloudy,16,0,19,12,20,64,30.33 Steady ,7,10,WNW,15to28
Thu Jan 28 16:50:03 2010," US and USA, IN and Indiana, Indianapolis, 46201",Mostly Sunny,16,1,19,12,20,61,30.36 Rising ,7,10,WNW,15to26
Thu Jan 28 17:14:17 2010," US and USA, IN and Indiana, Indianapolis, 46201",Mostly Sunny,16,2,19,12,20,56,30.39 Rising Rapidly ,6,10,NW,15to22
Thu Jan 28 17:30:18 2010," US and USA, IN and Indiana, Indianapolis, 46201",Mostly Sunny,16,2,19,12,20,56,30.39 Rising Rapidly ,6,10,NW,15to22
Fri Jan 29 08:42:30 2010," US and USA, IN and Indiana, Indianapolis, 46201",Partly Cloudy,11,11,20,6,10,60,30.45 Steady ,2,10,NNW,1
Fri Jan 29 09:26:26 2010," US and USA, IN and Indiana, Indianapolis, 46201",Partly Cloudy,11,11,20,6,20,63,30.46 Rising ,3,10,N,1
Fri Jan 29 11:58:28 2010," US and USA, IN and Indiana, Indianapolis, 46201",Cloudy,13,5,22,10,10,54,30.43 Steady ,2,10,NE,5
Fri Jan 29 12:43:10 2010," US and USA, IN and Indiana, Indianapolis, 46201",Cloudy,13,4,22,10,10,58,30.44 Steady ,3,10,NNE,6
Fri Jan 29 13:30:53 2010," US and USA, IN and Indiana, Indianapolis, 46201",Cloudy,14,5,22,10,10,57,30.45 Steady ,4,10,NE,6
Fri Jan 29 14:18:43 2010," US and USA, IN and Indiana, Indianapolis, 46201",Cloudy,14,4,22,10,10,58,30.45 Steady ,4,10,NE,7
Fri Jan 29 15:03:30 2010," US and USA, IN and Indiana, Indianapolis, 46201",Cloudy,15,5,22,10,10,52,30.45 Steady ,3,10,NNE,6
Fri Jan 29 15:49:03 2010," US and USA, IN and Indiana, Indianapolis, 46201",Cloudy,15,5,22,10,10,52,30.44 Steady ,3,10,NE,8
Fri Jan 29 16:36:52 2010," US and USA, IN and Indiana, Indianapolis, 46201",Cloudy,15,7,22,10,10,56,30.47 Rising Rapidly ,4,10,NE,5
Fri Jan 29 17:21:17 2010," US and USA, IN and Indiana, Indianapolis, 46201",Cloudy,16,6,22,10,10,55,30.48 Rising ,5,10,ENE,6
Fri Jan 29 18:09:45 2010," US and USA, IN and Indiana, Indianapolis, 46201",Cloudy,17,8,19,10,10,51,30.48 Steady ,5,10,E,7
Fri Jan 29 18:54:44 2010," US and USA, IN and Indiana, Indianapolis, 46201",Cloudy,19,8,19,10,10,51,30.46 Steady ,6,10,E,10
Fri Jan 29 19:46:43 2010," US and USA, IN and Indiana, Indianapolis, 46201",Cloudy,18,8,19,10,10,55,30.44 Steady ,7,10,ENE,9
Fri Jan 29 20:44:33 2010," US and USA, IN and Indiana, Indianapolis, 46201",Cloudy,19,9,19,10,10,53,30.39 Steady ,7,10,ENE,8
Fri Jan 29 21:29:09 2010," US and USA, IN and Indiana, Indianapolis, 46201",Mostly Cloudy,19,8,19,10,10,53,30.35 Falling Rapidly ,7,10,ENE,9
Fri Jan 29 22:15:46 2010," US and USA, IN and Indiana, Indianapolis, 46201",Mostly Cloudy,19,9,19,14,10,54,30.34 Falling ,8,10,E,8
Fri Jan 29 23:00:41 2010," US and USA, IN and Indiana, Indianapolis, 46201",Mostly Cloudy,19,9,19,14,10,56,30.34 Steady ,8,10,ENE,8
Fri Jan 29 23:44:56 2010," US and USA, IN and Indiana, Indianapolis, 46201",Mostly Cloudy,18,6,19,14,10,58,30.32 Steady ,8,10,ENE,11to16
Sat Jan 30 00:29:02 2010," US and USA, IN and Indiana, Indianapolis, 46201",Cloudy,18,7,19,14,10,60,30.31 Falling ,8,10,ENE,9
Sat Jan 30 01:13:11 2010," US and USA, IN and Indiana, Indianapolis, 46201",Cloudy,18,7,19,14,10,58,30.31 Steady ,8,10,ENE,10
Sat Jan 30 01:57:08 2010," US and USA, IN and Indiana, Indianapolis, 46201",Cloudy,18,7,19,14,10,58,30.31 Steady ,8,10,ENE,9
Sat Jan 30 02:41:26 2010," US and USA, IN and Indiana, Indianapolis, 46201",Mostly Cloudy,17,6,19,14,10,59,30.28 Falling ,8,10,ENE,10
Sat Jan 30 03:24:57 2010," US and USA, IN and Indiana, Indianapolis, 46201",Cloudy,17,4,19,14,10,59,30.28 Steady ,8,10,ENE,12to17
Sat Jan 30 04:08:53 2010," US and USA, IN and Indiana, Indianapolis, 46201",Cloudy,17,4,19,14,10,57,30.27 Falling ,7,10,ENE,12to17
Sat Jan 30 04:52:38 2010," US and USA, IN and Indiana, Indianapolis, 46201",Partly Cloudy,17,4,19,14,10,59,30.26 Steady ,8,10,ENE,13to20
Sat Jan 30 05:36:25 2010," US and USA, IN and Indiana, Indianapolis, 46201",Cloudy,17,3,19,14,10,58,30.23 Steady ,7,10,ENE,12to19
Sat Jan 30 06:20:29 2010," US and USA, IN and Indiana, Indianapolis, 46201",Cloudy,17,3,19,14,0,57,30.23 Steady ,6,10,ENE,12to19
Sat Jan 30 07:06:28 2010," US and USA, IN and Indiana, Indianapolis, 46201",Cloudy,16,3,19,14,0,60,30.22 Steady ,7,10,ENE,12
Sat Jan 30 07:49:08 2010," US and USA, IN and Indiana, Indianapolis, 46201",Cloudy,16,3,19,14,0,58,30.21 Steady ,6,10,NE,13to18
Sat Jan 30 08:32:23 2010," US and USA, IN and Indiana, Indianapolis, 46201",Cloudy,16,3,19,14,0,57,30.17 Steady ,6,10,NE,12
Sat Jan 30 11:14:09 2010," US and USA, IN and Indiana, Indianapolis, 46201",Cloudy,16,4,24,14,0,59,30.13 Falling Rapidly ,6,10,ENE,10
Sat Jan 30 12:01:59 2010," US and USA, IN and Indiana, Indianapolis, 46201",Cloudy,16,4,24,14,0,59,30.13 Steady ,6,8,ENE,10
Sat Jan 30 12:45:36 2010," US and USA, IN and Indiana, Indianapolis, 46201",Cloudy,16,3,24,14,0,58,30.12 Steady ,6,10,NE,12to18
Sat Jan 30 13:28:49 2010," US and USA, IN and Indiana, Indianapolis, 46201",Cloudy,16,4,24,14,0,58,30.11 Falling ,6,10,NE,10
Sat Jan 30 14:13:01 2010," US and USA, IN and Indiana, Indianapolis, 46201",Cloudy,16,3,24,14,0,60,30.10 Falling ,7,10,NE,11to16
Sat Jan 30 14:57:17 2010," US and USA, IN and Indiana, Indianapolis, 46201",Cloudy,17,3,24,14,0,59,30.10 Steady ,7,10,NE,13to20
Sat Jan 30 15:42:55 2010," US and USA, IN and Indiana, Indianapolis, 46201",Partly Cloudy,17,5,24,14,0,58,30.11 Steady ,7,10,NE,11to16
Sat Jan 30 16:27:53 2010," US and USA, IN and Indiana, Indianapolis, 46201",Partly Cloudy,18,6,24,14,0,56,30.11 Steady ,7,10,NE,11to17
Sat Jan 30 17:12:20 2010," US and USA, IN and Indiana, Indianapolis, 46201",Partly Cloudy,20,8,24,14,0,52,30.13 Rising ,8,10,NE,13
Sat Jan 30 17:55:30 2010," US and USA, IN and Indiana, Indianapolis, 46201",Partly Cloudy,21,8,23,14,0,50,30.13 Steady ,8,10,NE,14
Sat Jan 30 18:39:30 2010," US and USA, IN and Indiana, Indianapolis, 46201",Partly Cloudy,23,11,23,14,0,48,30.14 Steady ,9,10,NE,13to16
Sat Jan 30 19:22:48 2010," US and USA, IN and Indiana, Indianapolis, 46201",Partly Cloudy,24,13,23,14,0,49,30.12 Falling Rapidly ,10,10,NE,10
Sat Jan 30 20:07:03 2010," US and USA, IN and Indiana, Indianapolis, 46201",Partly Cloudy,24,14,23,14,0,47,30.11 Falling ,10,10,NE,10
Sat Jan 30 20:50:08 2010," US and USA, IN and Indiana, Indianapolis, 46201",Partly Cloudy,24,14,23,14,0,49,30.09 Steady ,11,10,NNE,11
Sat Jan 30 21:33:55 2010," US and USA, IN and Indiana, Indianapolis, 46201",Partly Cloudy,25,16,23,13,0,49,30.09 Steady ,12,10,NE,9
Sat Jan 30 22:17:26 2010," US and USA, IN and Indiana, Indianapolis, 46201",Partly Cloudy,26,18,23,13,0,48,30.10 Rising ,12,10,NNE,7
Sat Jan 30 23:02:52 2010," US and USA, IN and Indiana, Indianapolis, 46201",Partly Cloudy,25,17,23,13,0,50,30.10 Steady ,12,9,NNE,7
Sat Jan 30 23:47:46 2010," US and USA, IN and Indiana, Indianapolis, 46201",Mostly Sunny,24,15,23,13,0,53,30.11 Steady ,12,9,NNE,9
Sun Jan 31 00:31:45 2010," US and USA, IN and Indiana, Indianapolis, 46201",Mostly Clear,22,14,23,13,0,57,30.13 Steady ,12,9,NNE,7
Sun Jan 31 01:22:12 2010," US and USA, IN and Indiana, Indianapolis, 46201",Clear,20,12,23,12,0,61,30.13 Steady ,11,10,NNE,6
Sun Jan 31 02:06:12 2010," US and USA, IN and Indiana, Indianapolis, 46201",Clear,19,12,23,12,0,64,30.13 Steady ,11,9,NE,5
Sun Jan 31 02:49:36 2010," US and USA, IN and Indiana, Indianapolis, 46201",Clear,18,12,23,12,0,66,30.13 Steady ,10,10,NE,4
Sun Jan 31 03:33:31 2010," US and USA, IN and Indiana, Indianapolis, 46201",Clear,18,18,23,13,0,64,30.15 Steady ,10,10,N,4
Sun Jan 31 04:17:19 2010," US and USA, IN and Indiana, Indianapolis, 46201",Clear,19,10,23,13,0,68,30.16 Rising ,12,10,NNE,7
Sun Jan 31 05:01:34 2010," US and USA, IN and Indiana, Indianapolis, 46201",Mostly Clear,19,10,23,13,0,68,30.16 Steady ,11,10,NE,6
Sun Jan 31 05:47:58 2010," US and USA, IN and Indiana, Indianapolis, 46201",Partly Cloudy,19,11,23,13,0,66,30.15 Steady ,12,10,NE,6
Sun Jan 31 06:32:49 2010," US and USA, IN and Indiana, Indianapolis, 46201",Partly Cloudy,18,18,23,13,0,70,30.17 Rising Rapidly ,12,10,NE,3
Sun Jan 31 07:15:41 2010," US and USA, IN and Indiana, Indianapolis, 46201",Partly Cloudy,18,18,23,13,0,69,30.16 Falling ,11,10,E,1
Sun Jan 31 08:02:25 2010," US and USA, IN and Indiana, Indianapolis, 46201",Partly Cloudy,18,18,23,13,0,65,30.16 Steady ,10,10,ESE,1
Sun Jan 31 08:47:05 2010," US and USA, IN and Indiana, Indianapolis, 46201",Partly Cloudy,16,16,23,13,0,72,30.16 Steady ,10,10,SE,2
Sun Jan 31 09:30:20 2010," US and USA, IN and Indiana, Indianapolis, 46201",Clear,14,14,23,13,0,79,30.17 Rising ,10,10,SE,2
Sun Jan 31 10:13:31 2010," US and USA, IN and Indiana, Indianapolis, 46201",Clear,14,14,28,17,0,78,30.17 Steady ,9,10,CALM,0
Sun Jan 31 10:57:19 2010," US and USA, IN and Indiana, Indianapolis, 46201",Clear,14,14,28,17,0,76,30.17 Steady ,9,10,WSW,1
Sun Jan 31 11:40:50 2010," US and USA, IN and Indiana, Indianapolis, 46201",Clear,12,12,28,17,0,80,30.19 Steady ,7,9,WNW,3
Sun Jan 31 12:24:25 2010," US and USA, IN and Indiana, Indianapolis, 46201",Clear,13,13,28,17,0,80,30.20 Rising ,8,9,NW,3
Sun Jan 31 13:07:48 2010," US and USA, IN and Indiana, Indianapolis, 46201",Clear,13,13,28,17,0,80,30.20 Steady ,8,9,NW,3
Sun Jan 31 13:51:25 2010," US and USA, IN and Indiana, Indianapolis, 46201",Sunny,11,11,28,17,0,82,30.22 Steady ,8,8,CALM,0
Sun Jan 31 14:34:13 2010," US and USA, IN and Indiana, Indianapolis, 46201",Sunny,13,13,28,17,0,77,30.23 Steady ,8,9,SW,2
Sun Jan 31 15:18:19 2010," US and USA, IN and Indiana, Indianapolis, 46201",Mostly Cloudy,16,16,28,17,0,83,30.24 Rising ,13,7,CALM,0
Sun Jan 31 16:01:51 2010," US and USA, IN and Indiana, Indianapolis, 46201",Sunny,17,17,28,17,0,82,30.24 Steady ,14,7,WSW,1
Sun Jan 31 16:51:39 2010," US and USA, IN and Indiana, Indianapolis, 46201",Sunny,20,20,27,17,0,77,30.25 Steady ,16,9,WSW,3
Sun Jan 31 17:35:16 2010," US and USA, IN and Indiana, Indianapolis, 46201",Sunny,24,16,26,17,0,63,30.25 Steady ,15,10,WSW,6
Sun Jan 31 18:20:16 2010," US and USA, IN and Indiana, Indianapolis, 46201",Sunny,25,16,26,17,0,59,30.25 Steady ,14,10,WSW,8
Sun Jan 31 19:04:04 2010," US and USA, IN and Indiana, Indianapolis, 46201",Sunny,25,17,25,17,0,56,30.25 Steady ,14,10,WSW,8
Sun Jan 31 19:49:33 2010," US and USA, IN and Indiana, Indianapolis, 46201",Sunny,27,20,27,17,0,50,30.23 Falling ,14,10,WSW,8
Sun Jan 31 20:32:22 2010," US and USA, IN and Indiana, Indianapolis, 46201",Sunny,28,20,27,17,0,49,30.23 Steady ,14,10,WSW,8
Sun Jan 31 21:17:00 2010," US and USA, IN and Indiana, Indianapolis, 46201",Sunny,29,20,27,17,0,48,30.22 Falling ,15,10,W,9
Sun Jan 31 21:59:49 2010," US and USA, IN and Indiana, Indianapolis, 46201",Sunny,29,20,27,17,0,47,30.22 Steady ,14,10,W,9
Sun Jan 31 22:44:37 2010," US and USA, IN and Indiana, Indianapolis, 46201",Sunny,28,19,27,17,0,50,30.22 Steady ,15,9,W,10to17
Sun Jan 31 23:27:58 2010," US and USA, IN and Indiana, Indianapolis, 46201",Sunny,29,21,27,13,0,48,30.24 Rising Rapidly ,15,9,WSW,8
Mon Feb  1 00:11:56 2010," US and USA, IN and Indiana, Indianapolis, 46201",Clear,27,19,27,13,0,52,30.24 Steady ,14,9,WSW,8
Mon Feb  1 00:54:51 2010," US and USA, IN and Indiana, Indianapolis, 46201",Clear,26,18,27,13,0,54,30.24 Steady ,15,9,WSW,8
Mon Feb  1 01:41:08 2010," US and USA, IN and Indiana, Indianapolis, 46201",Clear,25,18,27,13,0,58,30.25 Steady ,14,9,W,5
Mon Feb  1 02:25:08 2010," US and USA, IN and Indiana, Indianapolis, 46201",Clear,24,17,27,13,0,58,30.26 Rising ,13,10,WNW,5
Mon Feb  1 03:08:48 2010," US and USA, IN and Indiana, Indianapolis, 46201",Clear,22,14,27,13,0,64,30.26 Steady ,14,8,WNW,6
Mon Feb  1 03:53:29 2010," US and USA, IN and Indiana, Indianapolis, 46201",Clear,23,23,27,13,0,60,30.27 Steady ,13,9,WNW,3
Mon Feb  1 04:38:17 2010," US and USA, IN and Indiana, Indianapolis, 46201",Clear,22,22,27,13,0,64,30.28 Steady ,14,9,W,3
Mon Feb  1 05:21:26 2010," US and USA, IN and Indiana, Indianapolis, 46201",Mostly Clear,21,21,27,13,0,70,30.28 Steady ,15,9,WSW,2
Mon Feb  1 06:06:20 2010," US and USA, IN and Indiana, Indianapolis, 46201",Mostly Clear,21,21,27,13,20,70,30.28 Steady ,14,9,W,1
Mon Feb  1 06:49:29 2010," US and USA, IN and Indiana, Indianapolis, 46201",Clear,20,20,27,13,20,72,30.29 Steady ,14,9,CALM,0
Mon Feb  1 07:33:19 2010," US and USA, IN and Indiana, Indianapolis, 46201",Partly Cloudy,20,20,27,13,20,71,30.30 Steady ,13,9,CALM,0
Mon Feb  1 08:16:44 2010," US and USA, IN and Indiana, Indianapolis, 46201",Partly Cloudy,19,19,27,13,20,72,30.30 Steady ,13,9,CALM,0
Mon Feb  1 09:00:12 2010," US and USA, IN and Indiana, Indianapolis, 46201",Partly Cloudy,19,19,27,13,20,74,30.30 Steady ,13,9,SSE,1
Mon Feb  1 09:43:09 2010," US and USA, IN and Indiana, Indianapolis, 46201",Mostly Cloudy,20,20,33,25,20,76,30.30 Steady ,14,8,CALM,0
Mon Feb  1 10:26:42 2010," US and USA, IN and Indiana, Indianapolis, 46201",Mostly Cloudy,19,19,33,25,20,75,30.29 Falling ,14,9,ENE,3
Mon Feb  1 11:09:39 2010," US and USA, IN and Indiana, Indianapolis, 46201",Mostly Cloudy,18,11,33,25,20,79,30.29 Steady ,13,8,ENE,4
Mon Feb  1 11:53:06 2010," US and USA, IN and Indiana, Indianapolis, 46201",Partly Cloudy,21,21,33,25,20,74,30.27 Steady ,15,9,ESE,1
Mon Feb  1 12:36:29 2010," US and USA, IN and Indiana, Indianapolis, 46201",Mostly Cloudy,22,22,32,25,20,77,30.28 Steady ,17,10,SSE,2
Mon Feb  1 13:20:00 2010," US and USA, IN and Indiana, Indianapolis, 46201",Mostly Cloudy,23,23,32,25,20,73,30.29 Rising ,16,10,CALM,0
Mon Feb  1 14:03:54 2010," US and USA, IN and Indiana, Indianapolis, 46201",Mostly Cloudy,22,22,32,25,20,74,30.29 Steady ,17,9,CALM,0
Mon Feb  1 14:48:57 2010," US and USA, IN and Indiana, Indianapolis, 46201",Cloudy,22,22,32,25,20,75,30.30 Steady ,16,9,SE,3
Mon Feb  1 15:32:42 2010," US and USA, IN and Indiana, Indianapolis, 46201",Partly Cloudy,25,25,32,25,20,71,30.31 Steady ,19,9,CALM,0
Mon Feb  1 16:17:25 2010," US and USA, IN and Indiana, Indianapolis, 46201",Partly Cloudy,26,26,32,25,20,69,30.31 Steady ,19,9,CALM,0
Mon Feb  1 17:02:12 2010," US and USA, IN and Indiana, Indianapolis, 46201",Partly Cloudy,28,28,33,25,20,56,30.30 Steady ,17,10,SE,4
Mon Feb  1 17:46:00 2010," US and USA, IN and Indiana, Indianapolis, 46201",Partly Cloudy,29,23,32,25,20,51,30.31 Steady ,17,10,SSE,6
Mon Feb  1 18:29:29 2010," US and USA, IN and Indiana, Indianapolis, 46201",Partly Cloudy,30,26,32,25,20,48,30.29 Falling Rapidly ,16,10,S,4
Mon Feb  1 19:13:16 2010," US and USA, IN and Indiana, Indianapolis, 46201",Partly Cloudy,32,32,32,25,20,44,30.26 Falling Rapidly ,15,10,S,2
Mon Feb  1 19:58:06 2010," US and USA, IN and Indiana, Indianapolis, 46201",Partly Cloudy,32,32,32,25,20,50,30.26 Steady ,15,10,S,2
Mon Feb  1 20:44:31 2010," US and USA, IN and Indiana, Indianapolis, 46201",Partly Cloudy,34,34,32,25,20,48,30.22 Steady ,16,10,S,3
Mon Feb  1 21:29:31 2010," US and USA, IN and Indiana, Indianapolis, 46201",Partly Cloudy,36,36,32,25,20,45,30.21 Falling ,16,10,ESE,1
Mon Feb  1 22:12:51 2010," US and USA, IN and Indiana, Indianapolis, 46201",Partly Cloudy,36,36,32,25,40,46,30.20 Falling ,17,9,CALM,0
Mon Feb  1 22:56:12 2010," US and USA, IN and Indiana, Indianapolis, 46201",Partly Cloudy,36,36,32,25,40,53,30.20 Steady ,20,7,NNE,1
Mon Feb  1 23:42:18 2010," US and USA, IN and Indiana, Indianapolis, 46201",Partly Cloudy,35,31,32,25,40,52,30.18 Steady ,19,7,ESE,4
Tue Feb  2 00:29:12 2010," US and USA, IN and Indiana, Indianapolis, 46201",Cloudy,34,28,32,25,40,58,30.17 Falling ,20,8,ESE,6
Tue Feb  2 01:14:49 2010," US and USA, IN and Indiana, Indianapolis, 46201",Cloudy,33,33,32,25,40,65,30.17 Steady ,22,9,ESE,4
Tue Feb  2 01:57:56 2010," US and USA, IN and Indiana, Indianapolis, 46201",Cloudy,32,27,32,25,40,58,30.17 Steady ,21,7,ESE,5
Tue Feb  2 02:41:59 2010," US and USA, IN and Indiana, Indianapolis, 46201",Cloudy,34,34,32,25,40,56,30.16 Steady ,20,10,ESE,3
Tue Feb  2 03:25:30 2010," US and USA, IN and Indiana, Indianapolis, 46201",Cloudy,33,33,32,25,40,61,30.16 Steady ,21,9,E,3
Tue Feb  2 04:09:17 2010," US and USA, IN and Indiana, Indianapolis, 46201",Cloudy,33,33,32,25,40,60,30.16 Steady ,21,10,ESE,3
Tue Feb  2 04:52:50 2010," US and USA, IN and Indiana, Indianapolis, 46201",Cloudy,32,28,32,25,40,62,30.14 Steady ,21,10,ESE,4
Tue Feb  2 05:36:14 2010," US and USA, IN and Indiana, Indianapolis, 46201",Cloudy,32,28,32,25,40,66,30.12 Steady ,22,8,E,4
Tue Feb  2 06:19:31 2010," US and USA, IN and Indiana, Indianapolis, 46201",Cloudy,32,32,32,25,30,65,30.12 Steady ,22,8,ENE,4
Tue Feb  2 07:06:39 2010," US and USA, IN and Indiana, Indianapolis, 46201",Flurries,32,27,32,25,30,65,30.11 Steady ,21,2.2,ESE,5
Tue Feb  2 07:49:38 2010," US and USA, IN and Indiana, Indianapolis, 46201",Snow,31,31,32,25,30,69,30.11 Steady ,24,0.3,SE,2
Tue Feb  2 08:32:50 2010," US and USA, IN and Indiana, Indianapolis, 46201",Cloudy,32,32,32,25,30,65,30.10 Steady ,23,9,SSE,4
Tue Feb  2 09:16:20 2010," US and USA, IN and Indiana, Indianapolis, 46201",Snow Showers,33,33,32,25,30,65,30.09 Falling ,23,0.5,SE,4
Tue Feb  2 09:59:51 2010," US and USA, IN and Indiana, Indianapolis, 46201",Flurries,34,34,38,25,40,65,30.09 Steady ,23,7,SE,4
Tue Feb  2 10:43:26 2010," US and USA, IN and Indiana, Indianapolis, 46201",Cloudy,33,28,38,25,40,70,30.07 Falling ,24,9,E,5
Tue Feb  2 11:27:33 2010," US and USA, IN and Indiana, Indianapolis, 46201",Cloudy,32,32,38,25,40,75,30.06 Falling ,25,10,E,2
Tue Feb  2 12:11:34 2010," US and USA, IN and Indiana, Indianapolis, 46201",Cloudy,32,32,38,25,40,76,30.04 Falling ,25,5,ENE,3
Tue Feb  2 12:55:26 2010," US and USA, IN and Indiana, Indianapolis, 46201",Cloudy,32,28,37,25,40,75,30.04 Steady ,25,10,E,4
Tue Feb  2 13:38:48 2010," US and USA, IN and Indiana, Indianapolis, 46201",Cloudy,32,27,37,25,40,75,30.04 Steady ,25,9,ESE,5
Tue Feb  2 14:22:27 2010," US and USA, IN and Indiana, Indianapolis, 46201",Mostly Cloudy,31,31,37,25,40,71,30.04 Falling ,25,10,ESE,2
Tue Feb  2 15:06:48 2010," US and USA, IN and Indiana, Indianapolis, 46201",Cloudy,31,31,37,25,40,70,30.04 Steady ,24,9,ESE,3
Tue Feb  2 15:53:13 2010," US and USA, IN and Indiana, Indianapolis, 46201",Cloudy,32,32,37,25,40,73,30.05 Steady ,25,10,ESE,4
Tue Feb  2 16:45:42 2010," US and USA, IN and Indiana, Indianapolis, 46201",Cloudy,34,29,38,25,30,62,30.04 Steady ,22,10,SSE,6
Tue Feb  2 17:34:11 2010," US and USA, IN and Indiana, Indianapolis, 46201",Cloudy,37,32,37,25,30,51,30.02 Steady ,21,10,S,6
Tue Feb  2 18:18:46 2010," US and USA, IN and Indiana, Indianapolis, 46201",Cloudy,38,34,37,25,20,48,30.01 Falling ,20,10,SSW,5
Tue Feb  2 19:02:56 2010," US and USA, IN and Indiana, Indianapolis, 46201",Cloudy,41,37,37,25,20,44,30.01 Steady ,20,10,SSW,6
Tue Feb  2 19:52:21 2010," US and USA, IN and Indiana, Indianapolis, 46201",Cloudy,40,35,37,25,20,48,29.98 Steady ,21,10,SW,6
Tue Feb  2 20:43:31 2010," US and USA, IN and Indiana, Indianapolis, 46201",Cloudy,39,33,37,25,20,51,29.97 Steady ,22,10,WSW,8
Tue Feb  2 21:30:21 2010," US and USA, IN and Indiana, Indianapolis, 46201",Cloudy,39,33,37,25,20,52,29.96 Falling ,22,10,WSW,8
Tue Feb  2 22:18:45 2010," US and USA, IN and Indiana, Indianapolis, 46201",Cloudy,39,33,37,25,10,54,29.97 Rising ,24,10,WSW,9
Tue Feb  2 23:03:02 2010," US and USA, IN and Indiana, Indianapolis, 46201",Cloudy,38,31,37,25,10,58,29.97 Steady ,24,9,W,10
Tue Feb  2 23:48:21 2010," US and USA, IN and Indiana, Indianapolis, 46201",Cloudy,37,31,37,25,10,61,29.98 Steady ,25,10,W,8
Wed Feb  3 00:32:46 2010," US and USA, IN and Indiana, Indianapolis, 46201",Cloudy,35,28,37,25,10,69,30.00 Steady ,26,9,W,9
Wed Feb  3 01:19:56 2010," US and USA, IN and Indiana, Indianapolis, 46201",Cloudy,35,27,37,25,10,72,30.02 Rising Rapidly ,27,10,W,10
Wed Feb  3 02:05:09 2010," US and USA, IN and Indiana, Indianapolis, 46201",Cloudy,35,27,37,25,20,76,30.02 Steady ,28,9,W,10
Wed Feb  3 02:53:26 2010," US and USA, IN and Indiana, Indianapolis, 46201",Cloudy,34,28,37,25,20,80,30.04 Steady ,29,9,W,8
Wed Feb  3 03:40:15 2010," US and USA, IN and Indiana, Indianapolis, 46201",Cloudy,34,27,37,25,20,81,30.05 Steady ,29,8,W,9
Wed Feb  3 04:28:24 2010," US and USA, IN and Indiana, Indianapolis, 46201",Cloudy,34,26,37,25,20,80,30.07 Rising Rapidly ,28,9,W,9
Wed Feb  3 05:15:15 2010," US and USA, IN and Indiana, Indianapolis, 46201",Cloudy,33,25,37,25,20,79,30.08 Rising ,28,9,W,10
Wed Feb  3 06:03:03 2010," US and USA, IN and Indiana, Indianapolis, 46201",Cloudy,33,25,37,25,0,79,30.08 Steady ,27,9,W,10
Thu Feb  4 06:05:32 2010," US and USA, IN and Indiana, Indianapolis, 46201",Mostly Cloudy,28,28,31,23,10,79,30.36 Steady ,24,5,ENE,4
Thu Feb  4 06:48:36 2010," US and USA, IN and Indiana, Indianapolis, 46201",Partly Cloudy,27,21,31,23,10,81,30.35 Steady ,23,6,ENE,5
Thu Feb  4 07:32:14 2010," US and USA, IN and Indiana, Indianapolis, 46201",Partly Cloudy,26,26,31,22,10,81,30.34 Steady ,21,6,ENE,3
Thu Feb  4 08:14:46 2010," US and USA, IN and Indiana, Indianapolis, 46201",Partly Cloudy,25,25,31,22,10,81,30.34 Steady ,21,6,ENE,3
Thu Feb  4 08:58:26 2010," US and USA, IN and Indiana, Indianapolis, 46201",Partly Cloudy,26,21,31,22,10,80,30.32 Steady ,22,5,ENE,4
Thu Feb  4 09:42:22 2010," US and USA, IN and Indiana, Indianapolis, 46201",Partly Cloudy,26,26,36,30,10,81,30.35 Steady ,22,5,E,3
Thu Feb  4 10:26:02 2010," US and USA, IN and Indiana, Indianapolis, 46201",Cloudy,26,26,36,30,10,83,30.36 Rising ,23,5,ENE,4
Thu Feb  4 11:11:57 2010," US and USA, IN and Indiana, Indianapolis, 46201",Cloudy,26,21,36,30,10,80,30.34 Falling Rapidly ,22,5,NE,4
Thu Feb  4 11:55:28 2010," US and USA, IN and Indiana, Indianapolis, 46201",Cloudy,26,21,36,30,10,81,30.34 Steady ,22,5,ENE,4
Thu Feb  4 12:38:33 2010," US and USA, IN and Indiana, Indianapolis, 46201",Mostly Cloudy,26,21,36,30,10,81,30.34 Steady ,22,5,NE,4
Thu Feb  4 13:22:38 2010," US and USA, IN and Indiana, Indianapolis, 46201",Mostly Cloudy,27,27,36,30,10,83,30.36 Rising Rapidly ,23,5,E,2
Thu Feb  4 14:07:27 2010," US and USA, IN and Indiana, Indianapolis, 46201",Mostly Cloudy,27,27,36,30,10,79,30.36 Steady ,22,5,E,4
Wed Feb  3 06:49:47 2010," US and USA, IN and Indiana, Indianapolis, 46201",Cloudy,32,26,37,25,0,82,30.09 Steady ,27,9,W,8
Wed Feb  3 07:34:15 2010," US and USA, MD and Maryland, Baltimore, 21201",Snow Showers,32,32,36,31,30,88,30.04 Steady ,29,0.8,CALM,0
Wed Feb  3 08:17:24 2010," US and USA, MD and Maryland, Baltimore, 21201",Snow Showers,32,32,36,31,30,88,30.04 Steady ,29,0.8,CALM,0
Wed Feb  3 09:03:53 2010," US and USA, MD and Maryland, Baltimore, 21201",Snow,32,32,36,31,30,88,30.04 Steady ,29,0.3,CALM,0
Wed Feb  3 09:47:43 2010," US and USA, MD and Maryland, Baltimore, 21201",Cloudy,32,32,39,31,40,88,30.04 Steady ,29,5,CALM,0
Wed Feb  3 10:31:07 2010," US and USA, MD and Maryland, Baltimore, 21201",Cloudy,32,32,39,31,40,88,30.04 Steady ,29,5,NNW,2
Wed Feb  3 11:17:59 2010," US and USA, MD and Maryland, Baltimore, 21201",Cloudy,32,32,39,31,30,86,30.05 Rising ,29,5,CALM,0
Wed Feb  3 12:02:43 2010," US and USA, MD and Maryland, Baltimore, 21201",Cloudy,30,30,39,31,30,89,30.05 Steady ,28,5,CALM,0
Wed Feb  3 12:45:55 2010," US and USA, MD and Maryland, Baltimore, 21201",Cloudy,30,30,40,31,30,87,30.06 Steady ,28,5,CALM,0
Wed Feb  3 13:29:38 2010," US and USA, MD and Maryland, Baltimore, 21201",Cloudy,31,31,40,31,30,87,30.08 Rising Rapidly ,28,5,WNW,2
Wed Feb  3 14:15:46 2010," US and USA, MD and Maryland, Baltimore, 21201",Mostly Cloudy,32,32,40,31,30,82,30.10 Rising Rapidly ,28,5,W,2
Wed Feb  3 15:01:46 2010," US and USA, MD and Maryland, Baltimore, 21201",Mostly Cloudy,32,32,40,31,30,82,30.10 Steady ,28,5,W,2
Wed Feb  3 15:46:34 2010," US and USA, MD and Maryland, Baltimore, 21201",Cloudy,34,34,39,31,10,78,30.11 Rising ,28,5,WNW,3
Wed Feb  3 16:32:27 2010," US and USA, MD and Maryland, Baltimore, 21201",Mostly Cloudy,36,36,39,31,30,78,30.11 Steady ,30,5,WNW,2
Wed Feb  3 17:19:38 2010," US and USA, MD and Maryland, Baltimore, 21201",Mostly Cloudy,38,34,39,31,20,73,30.10 Falling ,30,6,WNW,6
Wed Feb  3 18:07:55 2010," US and USA, MD and Maryland, Baltimore, 21201",Mostly Cloudy,38,33,39,31,20,72,30.10 Steady ,30,7,WNW,7
Wed Feb  3 18:51:03 2010," US and USA, MD and Maryland, Baltimore, 21201",Partly Cloudy,40,36,41,31,20,70,30.10 Steady ,31,7,W,6
Wed Feb  3 19:35:19 2010," US and USA, MD and Maryland, Baltimore, 21201",Partly Cloudy,42,37,43,30,10,60,30.08 Steady ,29,10,W,9
Wed Feb  3 20:19:23 2010," US and USA, MD and Maryland, Baltimore, 21201",Mostly Cloudy,43,37,43,30,10,54,30.07 Falling ,27,9,WNW,10
Wed Feb  3 21:03:42 2010," US and USA, MD and Maryland, Baltimore, 21201",Mostly Cloudy,42,36,43,30,10,55,30.07 Steady ,27,9,WNW,11to16
Wed Feb  3 21:51:47 2010," US and USA, MD and Maryland, Baltimore, 21201",Cloudy,41,34,43,30,10,54,30.08 Steady ,26,9,NW,13to19
Wed Feb  3 22:37:20 2010," US and USA, MD and Maryland, Baltimore, 21201",Cloudy,41,36,43,30,10,55,30.10 Steady ,26,10,WNW,7
Wed Feb  3 23:28:15 2010," US and USA, MD and Maryland, Baltimore, 21201",Cloudy,41,35,43,30,10,56,30.12 Rising Rapidly ,26,9,WNW,8
Thu Feb  4 00:13:11 2010," US and USA, MD and Maryland, Baltimore, 21201",Cloudy,40,37,43,30,10,57,30.15 Rising Rapidly ,26,10,WNW,5
Thu Feb  4 00:57:14 2010," US and USA, MD and Maryland, Baltimore, 21201",Cloudy,40,37,43,30,10,58,30.15 Steady ,26,9,WNW,5
Thu Feb  4 01:40:31 2010," US and USA, MD and Maryland, Baltimore, 21201",Mostly Cloudy,38,34,43,30,10,58,30.17 Steady ,25,9,WNW,6
Thu Feb  4 02:28:15 2010," US and USA, MD and Maryland, Baltimore, 21201",Partly Cloudy,39,33,43,30,10,60,30.19 Rising Rapidly ,26,10,WNW,7
Thu Feb  4 03:11:27 2010," US and USA, MD and Maryland, Baltimore, 21201",Partly Cloudy,36,31,43,30,10,68,30.21 Rising Rapidly ,27,9,W,7
Thu Feb  4 03:55:54 2010," US and USA, MD and Maryland, Baltimore, 21201",Partly Cloudy,36,31,43,30,10,69,30.21 Steady ,27,9,WNW,7
Thu Feb  4 04:39:10 2010," US and USA, MD and Maryland, Baltimore, 21201",Mostly Cloudy,37,32,43,30,10,67,30.23 Steady ,27,10,W,6
Thu Feb  4 05:22:33 2010," US and USA, MD and Maryland, Baltimore, 21201",Mostly Cloudy,36,30,43,30,10,68,30.24 Rising ,26,10,W,6
Thu Feb  4 15:00:08 2010," US and USA, MD and Maryland, Baltimore, 21201",Partly Cloudy,25,25,40,29,0,70,30.39 Steady ,18,10,NW,1
Thu Jan 28 15:39:46 2010," US and USA, MD and Maryland, Baltimore, 21201",Cloudy,38,32,47,25,20,59,30.05 Steady ,24,10,SW,7
Thu Jan 28 16:00:35 2010," US and USA, MD and Maryland, Baltimore, 21201",Cloudy,38,32,47,25,20,59,30.05 Steady ,24,10,SW,7
Thu Jan 28 16:49:54 2010," US and USA, MD and Maryland, Baltimore, 21201",Cloudy,40,35,47,25,10,56,30.04 Steady ,26,10,SW,7
Thu Jan 28 17:14:08 2010," US and USA, MD and Maryland, Baltimore, 21201",Mostly Cloudy,41,36,46,25,10,53,30.02 Falling Rapidly ,25,10,WSW,8
Thu Jan 28 17:30:09 2010," US and USA, MD and Maryland, Baltimore, 21201",Mostly Cloudy,41,36,46,25,10,53,30.02 Falling Rapidly ,25,10,WSW,8
Fri Jan 29 08:42:21 2010," US and USA, MD and Maryland, Baltimore, 21201",Partly Cloudy,23,13,47,23,10,28,30.33 Steady ,-1,10,NW,8
Fri Jan 29 09:26:16 2010," US and USA, MD and Maryland, Baltimore, 21201",Partly Cloudy,22,11,33,25,10,27,30.35 Rising Rapidly ,-2,10,NW,10
Fri Jan 29 11:58:19 2010," US and USA, MD and Maryland, Baltimore, 21201",Partly Cloudy,21,13,33,25,10,30,30.37 Steady ,-1,10,NW,6
Fri Jan 29 12:43:01 2010," US and USA, MD and Maryland, Baltimore, 21201",Mostly Cloudy,20,10,33,25,10,33,30.38 Steady ,-1,10,NW,8
Fri Jan 29 13:30:44 2010," US and USA, MD and Maryland, Baltimore, 21201",Mostly Cloudy,20,9,34,25,10,35,30.40 Steady ,0,10,NW,9
Fri Jan 29 14:18:34 2010," US and USA, MD and Maryland, Baltimore, 21201",Mostly Cloudy,20,9,34,25,10,32,30.41 Rising ,-1,10,WNW,10
Fri Jan 29 15:03:22 2010," US and USA, MD and Maryland, Baltimore, 21201",Mostly Cloudy,21,10,34,25,10,31,30.41 Steady ,-1,10,WNW,11
Fri Jan 29 15:48:54 2010," US and USA, MD and Maryland, Baltimore, 21201",Cloudy,22,12,33,25,10,31,30.42 Steady ,0,10,NW,9
Fri Jan 29 16:36:43 2010," US and USA, MD and Maryland, Baltimore, 21201",Cloudy,21,9,33,25,10,32,30.44 Rising Rapidly ,0,10,WNW,13to20
Fri Jan 29 17:21:08 2010," US and USA, MD and Maryland, Baltimore, 21201",Cloudy,22,12,30,18,10,30,30.40 Falling Rapidly ,0,10,NW,10to18
Fri Jan 29 18:09:36 2010," US and USA, MD and Maryland, Baltimore, 21201",Cloudy,23,12,30,18,10,30,30.40 Steady ,1,10,NW,11
Fri Jan 29 18:54:35 2010," US and USA, MD and Maryland, Baltimore, 21201",Cloudy,24,12,27,18,10,27,30.39 Steady ,-1,10,NW,14
Fri Jan 29 19:46:34 2010," US and USA, MD and Maryland, Baltimore, 21201",Cloudy,24,12,26,20,10,27,30.37 Steady ,0,10,WNW,15to27
Fri Jan 29 20:44:24 2010," US and USA, MD and Maryland, Baltimore, 21201",Mostly Cloudy,25,14,26,20,10,27,30.35 Steady ,1,10,WNW,14to21
Fri Jan 29 21:29:00 2010," US and USA, MD and Maryland, Baltimore, 21201",Mostly Cloudy,25,15,26,20,20,27,30.35 Steady ,0,10,WNW,10to19
Fri Jan 29 22:15:37 2010," US and USA, MD and Maryland, Baltimore, 21201",Cloudy,25,14,26,20,20,26,30.34 Falling ,0,9,WNW,12to20
Fri Jan 29 23:00:32 2010," US and USA, MD and Maryland, Baltimore, 21201",Cloudy,24,12,26,20,20,28,30.34 Steady ,0,9,NW,12to22
Fri Jan 29 23:44:47 2010," US and USA, MD and Maryland, Baltimore, 21201",Cloudy,26,16,26,20,20,25,30.34 Steady ,0,9,NW,9
Sat Jan 30 00:28:53 2010," US and USA, MD and Maryland, Baltimore, 21201",Cloudy,25,17,26,20,20,24,30.35 Rising ,-1,9,WNW,8
Sat Jan 30 01:13:02 2010," US and USA, MD and Maryland, Baltimore, 21201",Cloudy,25,14,26,20,20,27,30.35 Steady ,0,10,WNW,12
Sat Jan 30 01:56:59 2010," US and USA, MD and Maryland, Baltimore, 21201",Cloudy,25,13,26,20,20,28,30.35 Steady ,1,9,WNW,12to17
Sat Jan 30 02:41:17 2010," US and USA, MD and Maryland, Baltimore, 21201",Mostly Cloudy,24,16,26,20,20,26,30.36 Steady ,-1,10,NW,7
Sat Jan 30 03:24:48 2010," US and USA, MD and Maryland, Baltimore, 21201",Cloudy,24,15,26,20,20,27,30.37 Rising ,0,10,NW,8to16
Sat Jan 30 04:08:44 2010," US and USA, MD and Maryland, Baltimore, 21201",Cloudy,23,12,26,20,20,30,30.37 Steady ,0,8,NW,10
Sat Jan 30 04:52:29 2010," US and USA, MD and Maryland, Baltimore, 21201",Cloudy,22,14,26,20,20,30,30.37 Steady ,0,10,NW,6
Sat Jan 30 05:36:13 2010," US and USA, MD and Maryland, Baltimore, 21201",Cloudy,23,12,26,20,20,31,30.37 Steady ,1,10,NW,10to16
Sat Jan 30 06:20:20 2010," US and USA, MD and Maryland, Baltimore, 21201",Cloudy,22,12,26,20,30,31,30.37 Steady ,1,10,NW,10
Sat Jan 30 07:06:19 2010," US and USA, MD and Maryland, Baltimore, 21201",Cloudy,23,13,26,20,30,29,30.37 Steady ,0,10,NW,9
Sat Jan 30 07:48:59 2010," US and USA, MD and Maryland, Baltimore, 21201",Cloudy,22,13,26,20,30,32,30.36 Steady ,0,10,NNW,7
Sat Jan 30 08:32:14 2010," US and USA, MD and Maryland, Baltimore, 21201",Cloudy,22,12,26,20,30,32,30.35 Steady ,1,10,NNW,8
Sat Jan 30 11:14:00 2010," US and USA, MD and Maryland, Baltimore, 21201",Cloudy,21,14,21,19,90,36,30.29 Falling Rapidly ,2,10,N,5
Sat Jan 30 12:01:50 2010," US and USA, MD and Maryland, Baltimore, 21201",Cloudy,21,13,21,19,90,37,30.29 Steady ,2,10,N,7
Sat Jan 30 12:45:27 2010," US and USA, MD and Maryland, Baltimore, 21201",Cloudy,21,13,21,19,90,39,30.29 Steady ,3,10,N,6
Sat Jan 30 13:28:40 2010," US and USA, MD and Maryland, Baltimore, 21201",Cloudy,21,14,21,19,90,39,30.28 Falling ,3,10,N,5
Sat Jan 30 14:12:51 2010," US and USA, MD and Maryland, Baltimore, 21201",Cloudy,21,11,21,19,90,34,30.25 Falling Rapidly ,1,10,NNE,9
Sat Jan 30 14:57:08 2010," US and USA, MD and Maryland, Baltimore, 21201",Cloudy,21,9,21,19,90,35,30.25 Steady ,1,8,NNE,11
Sat Jan 30 15:42:46 2010," US and USA, MD and Maryland, Baltimore, 21201",Cloudy,21,14,21,19,90,35,30.24 Steady ,2,5,NNE,6
Sat Jan 30 16:27:44 2010," US and USA, MD and Maryland, Baltimore, 21201",Cloudy,21,14,21,19,90,34,30.24 Steady ,1,6,NNE,5
Sat Jan 30 17:12:11 2010," US and USA, MD and Maryland, Baltimore, 21201",Snow,19,19,21,19,90,61,30.24 Steady ,10,0.3,NE,4
Sat Jan 30 17:55:22 2010," US and USA, MD and Maryland, Baltimore, 21201",Snow,19,19,21,19,90,61,30.24 Steady ,10,0.3,ENE,2
Sat Jan 30 18:39:21 2010," US and USA, MD and Maryland, Baltimore, 21201",Snow,18,18,21,19,90,76,30.24 Steady ,13,0.3,N,4
Sat Jan 30 19:22:39 2010," US and USA, MD and Maryland, Baltimore, 21201",Snow,18,9,22,19,90,73,30.21 Falling Rapidly ,12,0.3,NNW,6
Sat Jan 30 20:06:55 2010," US and USA, MD and Maryland, Baltimore, 21201",Snow,17,8,22,19,90,74,30.21 Steady ,12,0.3,N,7
Sat Jan 30 20:50:00 2010," US and USA, MD and Maryland, Baltimore, 21201",Snow,18,7,22,19,90,72,30.15 Steady ,12,0.3,N,9
Sat Jan 30 21:33:46 2010," US and USA, MD and Maryland, Baltimore, 21201",Snow,18,9,22,19,100,76,30.14 Steady ,13,0.3,NNE,7
Sat Jan 30 22:17:17 2010," US and USA, MD and Maryland, Baltimore, 21201",Snow,17,7,22,19,100,76,30.09 Falling Rapidly ,12,0.3,N,7
Sat Jan 30 23:02:43 2010," US and USA, MD and Maryland, Baltimore, 21201",Snow,17,6,22,19,100,74,30.09 Steady ,11,0.3,N,8
Sat Jan 30 23:47:37 2010," US and USA, MD and Maryland, Baltimore, 21201",Snow,18,11,22,19,100,72,30.08 Steady ,12,0.3,N,5
Sun Jan 31 00:31:36 2010," US and USA, MD and Maryland, Baltimore, 21201",Cloudy,18,9,22,19,100,76,30.07 Steady ,13,5,N,7
Sun Jan 31 01:22:03 2010," US and USA, MD and Maryland, Baltimore, 21201",Cloudy,19,8,22,18,100,72,30.06 Falling ,13,5,N,10
Sun Jan 31 02:06:03 2010," US and USA, MD and Maryland, Baltimore, 21201",Flurries,19,8,22,18,100,70,30.06 Steady ,13,1.3,NNE,10
Sun Jan 31 02:49:27 2010," US and USA, MD and Maryland, Baltimore, 21201",Snow Showers,19,12,22,19,90,68,30.05 Steady ,12,0.5,N,5
Sun Jan 31 03:33:22 2010," US and USA, MD and Maryland, Baltimore, 21201",Snow Showers,19,12,22,18,80,67,30.04 Steady ,12,2,N,5
Sun Jan 31 04:17:10 2010," US and USA, MD and Maryland, Baltimore, 21201",Snow Showers,20,12,22,18,70,55,30.03 Falling ,9,0.8,NNW,6
Sun Jan 31 05:01:26 2010," US and USA, MD and Maryland, Baltimore, 21201",Flurries,20,14,22,18,70,52,30.03 Steady ,8,2.9,N,4
Sun Jan 31 05:47:49 2010," US and USA, MD and Maryland, Baltimore, 21201",Cloudy,21,15,22,18,30,46,30.02 Steady ,7,8,NNW,4
Sun Jan 31 06:32:41 2010," US and USA, MD and Maryland, Baltimore, 21201",Cloudy,21,21,22,18,10,42,30.03 Rising ,5,10,WNW,4
Sun Jan 31 07:15:33 2010," US and USA, MD and Maryland, Baltimore, 21201",Cloudy,21,15,22,18,10,40,30.03 Steady ,4,10,WNW,4
Sun Jan 31 08:02:16 2010," US and USA, MD and Maryland, Baltimore, 21201",Cloudy,22,22,22,18,10,37,30.03 Steady ,3,10,NW,4
Sun Jan 31 08:46:57 2010," US and USA, MD and Maryland, Baltimore, 21201",Cloudy,21,13,22,18,10,38,30.04 Steady ,4,10,NW,6
Sun Jan 31 09:30:11 2010," US and USA, MD and Maryland, Baltimore, 21201",Mostly Cloudy,20,11,32,23,10,42,30.06 Rising Rapidly ,4,10,NW,7
Sun Jan 31 10:13:23 2010," US and USA, MD and Maryland, Baltimore, 21201",Partly Cloudy,19,10,32,23,10,42,30.08 Rising Rapidly ,3,10,NW,6
Sun Jan 31 10:57:10 2010," US and USA, MD and Maryland, Baltimore, 21201",Partly Cloudy,20,11,32,23,10,41,30.08 Steady ,3,10,NW,7
Sun Jan 31 11:40:41 2010," US and USA, MD and Maryland, Baltimore, 21201",Partly Cloudy,17,9,32,23,10,43,30.11 Steady ,2,10,NW,6
Sun Jan 31 12:24:16 2010," US and USA, MD and Maryland, Baltimore, 21201",Partly Cloudy,18,10,32,23,10,43,30.13 Rising Rapidly ,2,10,NW,5
Sun Jan 31 13:07:39 2010," US and USA, MD and Maryland, Baltimore, 21201",Partly Cloudy,17,9,32,23,10,43,30.13 Steady ,2,10,NW,5
Sun Jan 31 13:51:16 2010," US and USA, MD and Maryland, Baltimore, 21201",Mostly Cloudy,17,8,32,23,10,43,30.16 Steady ,1,10,NW,7
Sun Jan 31 14:34:04 2010," US and USA, MD and Maryland, Baltimore, 21201",Partly Cloudy,19,11,32,23,10,42,30.18 Steady ,3,10,NW,5
Sun Jan 31 15:18:10 2010," US and USA, MD and Maryland, Baltimore, 21201",Partly Cloudy,20,9,32,23,10,31,30.20 Rising Rapidly ,-2,10,NW,9
Sun Jan 31 16:01:42 2010," US and USA, MD and Maryland, Baltimore, 21201",Partly Cloudy,21,10,31,23,10,29,30.20 Steady ,-2,10,NNW,10
Sun Jan 31 16:51:30 2010," US and USA, MD and Maryland, Baltimore, 21201",Sunny,22,13,31,23,10,25,30.21 Steady ,-3,10,NW,9
Sun Jan 31 17:35:07 2010," US and USA, MD and Maryland, Baltimore, 21201",Sunny,25,18,31,23,0,23,30.22 Steady ,-2,10,NW,7
Sun Jan 31 18:20:07 2010," US and USA, MD and Maryland, Baltimore, 21201",Sunny,27,17,31,23,0,23,30.21 Falling ,0,10,WNW,11
Sun Jan 31 19:03:55 2010," US and USA, MD and Maryland, Baltimore, 21201",Sunny,28,18,30,23,0,22,30.21 Steady ,0,10,WNW,11
Sun Jan 31 19:49:24 2010," US and USA, MD and Maryland, Baltimore, 21201",Sunny,29,21,30,23,0,22,30.18 Steady ,1,10,WNW,9
Sun Jan 31 20:32:14 2010," US and USA, MD and Maryland, Baltimore, 21201",Sunny,30,23,30,23,0,22,30.17 Steady ,2,9,W,8
Sun Jan 31 21:16:52 2010," US and USA, MD and Maryland, Baltimore, 21201",Sunny,31,23,30,23,0,25,30.17 Steady ,5,9,W,8
Sun Jan 31 21:59:40 2010," US and USA, MD and Maryland, Baltimore, 21201",Sunny,30,23,30,23,0,29,30.17 Steady ,7,7,W,8
Sun Jan 31 22:44:29 2010," US and USA, MD and Maryland, Baltimore, 21201",Sunny,28,19,30,23,0,32,30.17 Steady ,7,7,WSW,10
Sun Jan 31 23:27:49 2010," US and USA, MD and Maryland, Baltimore, 21201",Sunny,29,23,30,16,0,29,30.16 Falling ,5,8,W,6
Mon Feb  1 00:11:47 2010," US and USA, MD and Maryland, Baltimore, 21201",Clear,25,25,30,16,0,40,30.16 Steady ,7,9,W,3
Mon Feb  1 00:54:42 2010," US and USA, MD and Maryland, Baltimore, 21201",Clear,23,23,30,16,0,43,30.16 Steady ,7,8,W,3
Mon Feb  1 01:40:59 2010," US and USA, MD and Maryland, Baltimore, 21201",Clear,27,27,30,16,0,37,30.17 Rising ,8,8,SW,3
Mon Feb  1 02:24:59 2010," US and USA, MD and Maryland, Baltimore, 21201",Clear,27,27,30,16,0,41,30.18 Rising ,10,10,CALM,0
Mon Feb  1 03:08:39 2010," US and USA, MD and Maryland, Baltimore, 21201",Clear,25,25,30,16,0,42,30.18 Steady ,9,8,CALM,0
Mon Feb  1 03:53:20 2010," US and USA, MD and Maryland, Baltimore, 21201",Clear,26,26,30,16,0,40,30.19 Steady ,9,8,CALM,0
Mon Feb  1 04:38:09 2010," US and USA, MD and Maryland, Baltimore, 21201",Clear,25,25,30,16,0,44,30.20 Steady ,10,9,WNW,4
Mon Feb  1 05:21:17 2010," US and USA, MD and Maryland, Baltimore, 21201",Clear,25,25,30,16,0,40,30.20 Steady ,8,9,SW,4
Mon Feb  1 06:06:11 2010," US and USA, MD and Maryland, Baltimore, 21201",Clear,25,25,30,16,10,40,30.20 Steady ,8,9,WSW,2
Mon Feb  1 06:49:21 2010," US and USA, MD and Maryland, Baltimore, 21201",Mostly Clear,27,27,30,16,10,42,30.21 Steady ,10,9,W,2
Mon Feb  1 07:33:10 2010," US and USA, MD and Maryland, Baltimore, 21201",Clear,26,20,30,16,10,42,30.22 Steady ,9,9,WSW,5
Mon Feb  1 08:16:35 2010," US and USA, MD and Maryland, Baltimore, 21201",Clear,26,21,30,16,10,43,30.22 Steady ,10,9,WSW,4
Mon Feb  1 09:00:03 2010," US and USA, MD and Maryland, Baltimore, 21201",Mostly Clear,24,24,30,16,10,47,30.23 Steady ,10,9,WSW,3
Mon Feb  1 09:43:00 2010," US and USA, MD and Maryland, Baltimore, 21201",Mostly Clear,25,18,38,30,20,46,30.26 Steady ,10,10,WSW,6
Mon Feb  1 10:26:34 2010," US and USA, MD and Maryland, Baltimore, 21201",Mostly Clear,25,19,38,30,20,46,30.27 Rising ,10,10,W,5
Mon Feb  1 11:09:30 2010," US and USA, MD and Maryland, Baltimore, 21201",Clear,27,22,38,30,20,44,30.27 Steady ,12,10,WNW,5
Mon Feb  1 11:52:58 2010," US and USA, MD and Maryland, Baltimore, 21201",Clear,27,22,39,27,20,42,30.28 Steady ,11,10,W,5
Mon Feb  1 12:36:20 2010," US and USA, MD and Maryland, Baltimore, 21201",Partly Cloudy,26,19,38,27,20,47,30.32 Steady ,11,10,WNW,5
Mon Feb  1 13:19:51 2010," US and USA, MD and Maryland, Baltimore, 21201",Partly Cloudy,26,26,38,27,20,44,30.34 Rising Rapidly ,10,10,WNW,3
Mon Feb  1 14:03:45 2010," US and USA, MD and Maryland, Baltimore, 21201",Partly Cloudy,27,27,38,27,20,42,30.34 Steady ,10,10,WNW,2
Mon Feb  1 14:48:48 2010," US and USA, MD and Maryland, Baltimore, 21201",Partly Cloudy,29,29,38,27,20,37,30.36 Steady ,10,10,WNW,3
Mon Feb  1 15:32:33 2010," US and USA, MD and Maryland, Baltimore, 21201",Partly Cloudy,33,25,37,27,20,43,30.37 Steady ,12,10,WNW,11to18
Mon Feb  1 16:17:16 2010," US and USA, MD and Maryland, Baltimore, 21201",Partly Cloudy,35,27,37,27,20,39,30.37 Steady ,13,10,WNW,11to23
Mon Feb  1 17:02:03 2010," US and USA, MD and Maryland, Baltimore, 21201",Partly Cloudy,32,24,39,27,20,38,30.35 Steady ,13,10,WNW,9
Mon Feb  1 17:45:51 2010," US and USA, MD and Maryland, Baltimore, 21201",Mostly Cloudy,34,26,37,27,20,43,30.35 Steady ,14,10,WNW,10
Mon Feb  1 18:29:21 2010," US and USA, MD and Maryland, Baltimore, 21201",Mostly Cloudy,33,26,36,27,20,44,30.33 Falling Rapidly ,13,10,W,9
Mon Feb  1 19:13:07 2010," US and USA, MD and Maryland, Baltimore, 21201",Mostly Cloudy,36,29,37,27,20,41,30.33 Steady ,14,10,W,9to19
Mon Feb  1 19:57:57 2010," US and USA, MD and Maryland, Baltimore, 21201",Mostly Cloudy,37,30,37,27,20,41,30.33 Steady ,15,10,W,9to17
Mon Feb  1 20:44:22 2010," US and USA, MD and Maryland, Baltimore, 21201",Partly Cloudy,36,28,37,27,20,41,30.31 Steady ,14,9,WNW,11
Mon Feb  1 21:29:22 2010," US and USA, MD and Maryland, Baltimore, 21201",Mostly Cloudy,35,29,37,27,10,40,30.29 Falling Rapidly ,13,9,W,6
Mon Feb  1 22:12:43 2010," US and USA, MD and Maryland, Baltimore, 21201",Mostly Cloudy,35,27,37,27,10,42,30.29 Steady ,14,9,W,10
Mon Feb  1 22:56:03 2010," US and USA, MD and Maryland, Baltimore, 21201",Mostly Cloudy,32,24,37,27,10,49,30.29 Steady ,15,6,W,10
Mon Feb  1 23:42:09 2010," US and USA, MD and Maryland, Baltimore, 21201",Mostly Cloudy,33,27,37,27,10,42,30.29 Steady ,13,8,WSW,7
Tue Feb  2 00:29:03 2010," US and USA, MD and Maryland, Baltimore, 21201",Mostly Cloudy,33,33,37,27,10,43,30.29 Steady ,13,8,W,1
Tue Feb  2 01:14:39 2010," US and USA, MD and Maryland, Baltimore, 21201",Partly Cloudy,33,33,37,27,10,47,30.29 Steady ,15,9,W,3
Tue Feb  2 01:57:47 2010," US and USA, MD and Maryland, Baltimore, 21201",Partly Cloudy,30,30,37,27,10,43,30.29 Steady ,14,8,W,3
Tue Feb  2 02:41:50 2010," US and USA, MD and Maryland, Baltimore, 21201",Mostly Cloudy,31,31,37,27,10,43,30.29 Steady ,15,9,CALM,0
Tue Feb  2 03:25:21 2010," US and USA, MD and Maryland, Baltimore, 21201",Mostly Cloudy,33,33,37,27,10,52,30.30 Rising ,17,9,W,1
Tue Feb  2 04:09:08 2010," US and USA, MD and Maryland, Baltimore, 21201",Mostly Cloudy,31,31,37,27,10,46,30.30 Steady ,16,9,CALM,0
Tue Feb  2 04:52:41 2010," US and USA, MD and Maryland, Baltimore, 21201",Mostly Cloudy,31,31,37,27,10,46,30.29 Steady ,16,9,CALM,0
Tue Feb  2 05:36:03 2010," US and USA, MD and Maryland, Baltimore, 21201",Partly Cloudy,29,29,37,27,10,56,30.29 Steady ,18,9,CALM,0
Tue Feb  2 06:19:22 2010," US and USA, MD and Maryland, Baltimore, 21201",Partly Cloudy,28,28,37,27,40,57,30.29 Steady ,17,9,WSW,1
Tue Feb  2 07:06:30 2010," US and USA, MD and Maryland, Baltimore, 21201",Partly Cloudy,29,29,37,27,40,55,30.28 Steady ,17,9,CALM,0
Tue Feb  2 07:49:29 2010," US and USA, MD and Maryland, Baltimore, 21201",Partly Cloudy,29,29,37,26,40,59,30.27 Steady ,19,9,CALM,0
Tue Feb  2 08:32:41 2010," US and USA, MD and Maryland, Baltimore, 21201",Partly Cloudy,28,28,37,26,40,62,30.26 Steady ,18,10,CALM,0
Tue Feb  2 09:16:11 2010," US and USA, MD and Maryland, Baltimore, 21201",Partly Cloudy,28,28,37,26,60,68,30.25 Falling ,21,10,CALM,0
Tue Feb  2 09:59:42 2010," US and USA, MD and Maryland, Baltimore, 21201",Partly Cloudy,28,28,37,32,60,69,30.25 Steady ,20,10,CALM,0
Tue Feb  2 10:43:16 2010," US and USA, MD and Maryland, Baltimore, 21201",Partly Cloudy,28,28,37,32,60,61,30.26 Steady ,19,9,CALM,0
Tue Feb  2 11:27:24 2010," US and USA, MD and Maryland, Baltimore, 21201",Partly Cloudy,27,27,37,32,60,67,30.26 Steady ,20,8,CALM,0
Tue Feb  2 12:11:25 2010," US and USA, MD and Maryland, Baltimore, 21201",Mostly Cloudy,29,29,37,32,60,61,30.24 Falling Rapidly ,19,9,CALM,0
Tue Feb  2 12:55:18 2010," US and USA, MD and Maryland, Baltimore, 21201",Cloudy,27,27,37,32,60,63,30.24 Steady ,18,9,CALM,0
Tue Feb  2 13:38:39 2010," US and USA, MD and Maryland, Baltimore, 21201",Cloudy,29,29,36,32,60,68,30.23 Steady ,21,6,N,2
Tue Feb  2 14:22:18 2010," US and USA, MD and Maryland, Baltimore, 21201",Cloudy,30,30,36,32,60,63,30.26 Rising Rapidly ,21,7,NE,2
Tue Feb  2 15:06:40 2010," US and USA, MD and Maryland, Baltimore, 21201",Cloudy,33,33,36,32,60,66,30.26 Steady ,23,8,ENE,3
Tue Feb  2 15:53:03 2010," US and USA, MD and Maryland, Baltimore, 21201",Cloudy,34,28,36,32,60,62,30.25 Steady ,22,7,E,6
Tue Feb  2 16:45:34 2010," US and USA, MD and Maryland, Baltimore, 21201",Cloudy,34,27,36,32,60,64,30.23 Steady ,23,8,E,9
Tue Feb  2 17:34:02 2010," US and USA, MD and Maryland, Baltimore, 21201",Cloudy,35,28,36,32,60,63,30.22 Steady ,24,8,E,9
Tue Feb  2 18:18:37 2010," US and USA, MD and Maryland, Baltimore, 21201",Cloudy,34,28,36,32,60,65,30.20 Falling Rapidly ,23,8,E,7
Tue Feb  2 19:02:48 2010," US and USA, MD and Maryland, Baltimore, 21201",Cloudy,34,28,36,32,60,68,30.20 Steady ,24,8,E,7
Tue Feb  2 19:52:12 2010," US and USA, MD and Maryland, Baltimore, 21201",Cloudy,37,33,36,32,60,68,30.17 Steady ,27,8,E,5
Tue Feb  2 20:43:22 2010," US and USA, MD and Maryland, Baltimore, 21201",Cloudy,36,30,36,32,60,67,30.15 Steady ,26,8,E,7
Tue Feb  2 21:30:13 2010," US and USA, MD and Maryland, Baltimore, 21201",Cloudy,37,32,36,32,100,61,30.14 Falling ,24,8,E,5
Tue Feb  2 22:18:36 2010," US and USA, MD and Maryland, Baltimore, 21201",Cloudy,37,32,36,32,100,61,30.13 Falling ,24,7,ENE,6
Tue Feb  2 23:02:54 2010," US and USA, MD and Maryland, Baltimore, 21201",Cloudy,36,31,36,32,100,61,30.13 Steady ,24,5,ENE,7
Tue Feb  2 23:48:12 2010," US and USA, MD and Maryland, Baltimore, 21201",Cloudy,37,32,36,32,100,57,30.13 Steady ,23,8,ENE,6
Wed Feb  3 00:32:37 2010," US and USA, MD and Maryland, Baltimore, 21201",Flurries,36,36,36,32,100,57,30.13 Steady ,22,1.9,NE,2
Wed Feb  3 01:19:47 2010," US and USA, MD and Maryland, Baltimore, 21201",Snow,34,30,36,32,100,70,30.12 Falling ,25,0.3,NE,4
Wed Feb  3 02:05:00 2010," US and USA, MD and Maryland, Baltimore, 21201",Snow,33,29,36,32,100,72,30.12 Steady ,25,0.3,NNE,4
Wed Feb  3 02:53:18 2010," US and USA, MD and Maryland, Baltimore, 21201",Snow,31,26,36,31,100,82,30.11 Steady ,27,0.3,NE,5
Wed Feb  3 03:40:06 2010," US and USA, MD and Maryland, Baltimore, 21201",Snow,32,32,36,30,100,86,30.10 Steady ,29,0.3,NNE,3
Wed Feb  3 04:28:16 2010," US and USA, MD and Maryland, Baltimore, 21201",Snow,32,32,36,30,100,90,30.09 Falling ,30,0.3,N,4
Wed Feb  3 05:15:06 2010," US and USA, MD and Maryland, Baltimore, 21201",Snow Showers,32,32,36,30,100,88,30.07 Falling Rapidly ,29,0.8,NNE,2
Thu Feb  4 06:05:23 2010," US and USA, MD and Maryland, Baltimore, 21201",Partly Cloudy,34,28,43,30,0,71,30.24 Steady ,26,10,W,6
Thu Feb  4 06:48:28 2010," US and USA, MD and Maryland, Baltimore, 21201",Mostly Clear,34,29,43,30,0,64,30.25 Steady ,23,10,WNW,6
Thu Feb  4 07:32:06 2010," US and USA, MD and Maryland, Baltimore, 21201",Partly Cloudy,36,30,43,30,0,56,30.26 Steady ,22,10,WNW,8
Thu Feb  4 08:14:37 2010," US and USA, MD and Maryland, Baltimore, 21201",Partly Cloudy,37,31,43,30,0,55,30.26 Steady ,22,10,WNW,8
Thu Feb  4 08:58:17 2010," US and USA, MD and Maryland, Baltimore, 21201",Clear,35,29,43,30,0,56,30.28 Steady ,21,9,WNW,7
Thu Feb  4 09:42:13 2010," US and USA, MD and Maryland, Baltimore, 21201",Clear,33,27,38,29,0,55,30.30 Steady ,18,9,WNW,7
Thu Feb  4 10:25:52 2010," US and USA, MD and Maryland, Baltimore, 21201",Clear,33,29,38,29,0,51,30.31 Rising ,17,9,WNW,5
Thu Feb  4 11:11:48 2010," US and USA, MD and Maryland, Baltimore, 21201",Clear,33,27,39,29,0,53,30.34 Rising Rapidly ,17,9,W,6
Thu Feb  4 11:55:20 2010," US and USA, MD and Maryland, Baltimore, 21201",Clear,33,27,39,29,0,52,30.34 Steady ,17,9,W,6
Thu Feb  4 12:38:25 2010," US and USA, MD and Maryland, Baltimore, 21201",Clear,33,33,38,29,0,54,30.37 Steady ,18,10,WNW,3
Thu Feb  4 13:22:29 2010," US and USA, MD and Maryland, Baltimore, 21201",Partly Cloudy,20,20,39,29,0,86,30.38 Rising ,17,9,NW,2
Thu Feb  4 14:07:18 2010," US and USA, MD and Maryland, Baltimore, 21201",Partly Cloudy,20,20,39,29,0,83,30.38 Steady ,17,9,NNW,2
Wed Feb  3 06:49:38 2010," US and USA, MD and Maryland, Baltimore, 21201",Snow,32,32,36,32,30,88,30.06 Steady ,29,0.3,NE,2
Wed Feb  3 07:34:29 2010," US and USA, MI and Michigan, Detroit, 48201",Cloudy,27,27,30,25,30,91,30.03 Rising ,25,5,W,1
Wed Feb  3 08:17:37 2010," US and USA, MI and Michigan, Detroit, 48201",Flurries,27,27,30,25,30,90,30.03 Steady ,25,2,CALM,0
Wed Feb  3 09:04:08 2010," US and USA, MI and Michigan, Detroit, 48201",Flurries,28,28,30,25,30,86,30.03 Steady ,25,3,WSW,3
Wed Feb  3 09:47:57 2010," US and USA, MI and Michigan, Detroit, 48201",Cloudy,28,28,32,20,40,90,30.04 Steady ,26,5,WSW,4
Wed Feb  3 10:31:22 2010," US and USA, MI and Michigan, Detroit, 48201",Cloudy,27,22,32,20,40,90,30.04 Steady ,25,5,SW,4
Wed Feb  3 11:18:13 2010," US and USA, MI and Michigan, Detroit, 48201",Cloudy,27,27,32,20,40,90,30.06 Rising ,25,5,W,4
Wed Feb  3 12:02:57 2010," US and USA, MI and Michigan, Detroit, 48201",Snow Showers,28,22,32,20,40,90,30.08 Rising ,26,0.8,W,5
Wed Feb  3 12:46:09 2010," US and USA, MI and Michigan, Detroit, 48201",Snow Showers,29,29,32,20,40,89,30.09 Rising ,26,0.8,W,4
Wed Feb  3 13:29:52 2010," US and USA, MI and Michigan, Detroit, 48201",Cloudy,29,29,32,20,40,90,30.09 Steady ,27,5,WSW,3
Wed Feb  3 14:16:00 2010," US and USA, MI and Michigan, Detroit, 48201",Cloudy,29,24,32,20,60,89,30.11 Rising ,27,5,W,4
Wed Feb  3 15:02:01 2010," US and USA, MI and Michigan, Detroit, 48201",Cloudy,30,24,32,20,60,87,30.13 Rising ,27,5,WNW,6
Wed Feb  3 15:46:49 2010," US and USA, MI and Michigan, Detroit, 48201",Cloudy,31,25,32,20,60,81,30.14 Steady ,27,5,NW,6
Wed Feb  3 16:32:42 2010," US and USA, MI and Michigan, Detroit, 48201",Cloudy,30,22,33,20,30,73,30.16 Rising Rapidly ,24,8,NW,10
Wed Feb  3 17:19:52 2010," US and USA, MI and Michigan, Detroit, 48201",Cloudy,32,25,33,20,30,66,30.18 Rising Rapidly ,24,9,NW,7
Wed Feb  3 18:08:10 2010," US and USA, MI and Michigan, Detroit, 48201",Cloudy,32,27,32,20,20,71,30.18 Steady ,23,9,NW,6
Wed Feb  3 18:51:17 2010," US and USA, MI and Michigan, Detroit, 48201",Cloudy,32,27,32,20,20,72,30.20 Steady ,24,9,WNW,6
Wed Feb  3 19:35:33 2010," US and USA, MI and Michigan, Detroit, 48201",Partly Cloudy,33,26,32,20,20,69,30.20 Steady ,24,10,WNW,8
Wed Feb  3 20:19:38 2010," US and USA, MI and Michigan, Detroit, 48201",Cloudy,34,28,32,20,20,67,30.20 Steady ,24,10,WNW,7
Wed Feb  3 21:03:57 2010," US and USA, MI and Michigan, Detroit, 48201",Cloudy,33,27,32,20,20,67,30.20 Steady ,24,10,WNW,8
Wed Feb  3 21:52:01 2010," US and USA, MI and Michigan, Detroit, 48201",Cloudy,34,26,32,20,20,61,30.19 Steady ,22,10,WNW,11
Wed Feb  3 22:37:34 2010," US and USA, MI and Michigan, Detroit, 48201",Cloudy,33,26,32,20,20,66,30.20 Steady ,23,10,WNW,8
Wed Feb  3 23:28:30 2010," US and USA, MI and Michigan, Detroit, 48201",Cloudy,32,26,32,20,20,71,30.24 Rising Rapidly ,24,9,NW,7
Thu Feb  4 00:13:26 2010," US and USA, MI and Michigan, Detroit, 48201",Cloudy,32,27,32,20,20,70,30.26 Rising Rapidly ,23,10,NW,5
Thu Feb  4 00:57:28 2010," US and USA, MI and Michigan, Detroit, 48201",Cloudy,32,26,32,20,20,64,30.26 Steady ,23,10,WNW,6
Thu Feb  4 01:40:46 2010," US and USA, MI and Michigan, Detroit, 48201",Partly Cloudy,31,26,32,20,20,61,30.29 Steady ,22,10,NNW,6
Thu Feb  4 02:28:30 2010," US and USA, MI and Michigan, Detroit, 48201",Cloudy,31,25,32,20,20,64,30.32 Rising Rapidly ,22,9,NNW,7
Thu Feb  4 03:11:42 2010," US and USA, MI and Michigan, Detroit, 48201",Cloudy,29,22,32,20,20,63,30.32 Steady ,20,9,NNW,7
Thu Feb  4 03:56:08 2010," US and USA, MI and Michigan, Detroit, 48201",Partly Cloudy,28,21,32,20,20,63,30.34 Steady ,19,9,NNW,6
Thu Feb  4 04:39:25 2010," US and USA, MI and Michigan, Detroit, 48201",Partly Cloudy,28,28,32,20,20,67,30.35 Steady ,20,8,NNW,4
Thu Feb  4 05:22:47 2010," US and USA, MI and Michigan, Detroit, 48201",Cloudy,30,25,32,20,20,63,30.37 Rising Rapidly ,21,9,NW,4
Thu Feb  4 15:00:24 2010," US and USA, MI and Michigan, Detroit, 48201",Partly Cloudy,20,20,32,25,20,85,30.43 Steady ,17,7,CALM,0
Thu Jan 28 15:40:02 2010," US and USA, MI and Michigan, Detroit, 48201",Cloudy,16,0,19,12,30,54,30.13 Rising ,5,7,NW,19to27
Thu Jan 28 16:00:50 2010," US and USA, MI and Michigan, Detroit, 48201",Cloudy,16,0,19,12,30,54,30.13 Rising ,5,7,NW,19to27
Thu Jan 28 16:50:09 2010," US and USA, MI and Michigan, Detroit, 48201",Cloudy,16,-1,20,12,30,44,30.18 Rising ,1,9,NW,19to33
Thu Jan 28 17:14:23 2010," US and USA, MI and Michigan, Detroit, 48201",Mostly Cloudy,15,-1,20,12,30,40,30.20 Rising ,-2,10,NW,15to30
Thu Jan 28 17:30:24 2010," US and USA, MI and Michigan, Detroit, 48201",Mostly Cloudy,15,-1,20,12,30,40,30.20 Rising ,-2,10,NW,15to30
Fri Jan 29 08:42:36 2010," US and USA, MI and Michigan, Detroit, 48201",Clear,8,-4,20,6,10,54,30.45 Steady ,-3,10,WNW,7
Fri Jan 29 09:26:32 2010," US and USA, MI and Michigan, Detroit, 48201",Mostly Clear,8,-3,20,6,30,59,30.46 Rising ,-2,10,WNW,7
Fri Jan 29 11:58:34 2010," US and USA, MI and Michigan, Detroit, 48201",Clear,8,-3,20,8,10,60,30.44 Steady ,-1,10,WNW,7
Fri Jan 29 12:43:16 2010," US and USA, MI and Michigan, Detroit, 48201",Clear,8,-2,20,5,10,62,30.45 Steady ,-1,9,WNW,6
Fri Jan 29 13:30:59 2010," US and USA, MI and Michigan, Detroit, 48201",Partly Cloudy,9,-1,20,5,10,59,30.45 Rising ,-1,10,WNW,5
Fri Jan 29 14:18:49 2010," US and USA, MI and Michigan, Detroit, 48201",Partly Cloudy,9,1,20,5,10,58,30.47 Rising Rapidly ,-1,10,WNW,4
Fri Jan 29 15:03:36 2010," US and USA, MI and Michigan, Detroit, 48201",Partly Cloudy,10,2,20,5,10,57,30.47 Steady ,0,10,NW,5
Fri Jan 29 15:49:09 2010," US and USA, MI and Michigan, Detroit, 48201",Partly Cloudy,13,1,20,5,10,50,30.47 Steady ,0,10,NW,8
Fri Jan 29 16:36:58 2010," US and USA, MI and Michigan, Detroit, 48201",Mostly Sunny,14,2,20,5,10,42,30.46 Falling ,-1,10,NW,10
Fri Jan 29 17:21:23 2010," US and USA, MI and Michigan, Detroit, 48201",Sunny,16,6,20,5,10,36,30.47 Steady ,-3,10,NW,7
Fri Jan 29 18:09:52 2010," US and USA, MI and Michigan, Detroit, 48201",Sunny,17,8,19,5,10,33,30.47 Steady ,-3,10,NNW,7
Fri Jan 29 18:54:50 2010," US and USA, MI and Michigan, Detroit, 48201",Mostly Sunny,18,9,19,5,10,31,30.48 Steady ,-3,10,NNW,6
Fri Jan 29 19:46:49 2010," US and USA, MI and Michigan, Detroit, 48201",Partly Cloudy,20,11,19,5,10,31,30.46 Steady ,-2,10,NNW,6
Fri Jan 29 20:44:38 2010," US and USA, MI and Michigan, Detroit, 48201",Partly Cloudy,20,14,19,5,10,33,30.44 Steady ,-1,10,NW,4
Fri Jan 29 21:29:15 2010," US and USA, MI and Michigan, Detroit, 48201",Mostly Sunny,20,12,19,12,10,29,30.42 Falling Rapidly ,-2,10,N,6
Fri Jan 29 22:15:51 2010," US and USA, MI and Michigan, Detroit, 48201",Sunny,20,13,19,12,10,33,30.40 Falling Rapidly ,0,10,NNW,5
Fri Jan 29 23:00:47 2010," US and USA, MI and Michigan, Detroit, 48201",Sunny,18,9,19,12,10,40,30.40 Steady ,2,7,N,7
Fri Jan 29 23:45:02 2010," US and USA, MI and Michigan, Detroit, 48201",Sunny,18,10,19,12,10,39,30.41 Steady ,1,7,N,6
Sat Jan 30 00:29:08 2010," US and USA, MI and Michigan, Detroit, 48201",Clear,17,9,19,12,10,41,30.41 Steady ,1,9,NE,5
Sat Jan 30 01:13:17 2010," US and USA, MI and Michigan, Detroit, 48201",Clear,17,17,19,5,10,43,30.41 Steady ,1,10,NE,4
Sat Jan 30 01:57:14 2010," US and USA, MI and Michigan, Detroit, 48201",Clear,13,5,19,5,10,53,30.41 Steady ,1,7,NE,5
Sat Jan 30 02:41:32 2010," US and USA, MI and Michigan, Detroit, 48201",Clear,14,14,19,5,10,52,30.42 Steady ,2,9,ENE,4
Sat Jan 30 03:25:03 2010," US and USA, MI and Michigan, Detroit, 48201",Clear,14,6,19,5,10,55,30.40 Falling Rapidly ,3,10,ENE,4
Sat Jan 30 04:08:58 2010," US and USA, MI and Michigan, Detroit, 48201",Clear,12,3,19,6,10,64,30.40 Steady ,4,8,ENE,5
Sat Jan 30 04:52:44 2010," US and USA, MI and Michigan, Detroit, 48201",Partly Cloudy,13,13,19,6,10,60,30.41 Steady ,4,9,E,3
Sat Jan 30 05:36:31 2010," US and USA, MI and Michigan, Detroit, 48201",Partly Cloudy,13,13,19,6,10,64,30.39 Steady ,5,9,E,4
Sat Jan 30 06:20:35 2010," US and USA, MI and Michigan, Detroit, 48201",Partly Cloudy,13,13,19,5,10,64,30.39 Steady ,5,9,E,4
Sat Jan 30 07:06:33 2010," US and USA, MI and Michigan, Detroit, 48201",Partly Cloudy,12,12,19,5,10,66,30.38 Steady ,5,10,E,2
Sat Jan 30 07:49:15 2010," US and USA, MI and Michigan, Detroit, 48201",Clear,12,12,19,5,10,68,30.37 Steady ,5,9,CALM,0
Sat Jan 30 08:32:28 2010," US and USA, MI and Michigan, Detroit, 48201",Mostly Clear,11,11,19,5,10,67,30.36 Steady ,3,10,CALM,0
Sat Jan 30 11:14:15 2010," US and USA, MI and Michigan, Detroit, 48201",Partly Cloudy,11,2,22,16,10,68,30.29 Falling Rapidly ,4,10,NNE,6
Sat Jan 30 12:02:05 2010," US and USA, MI and Michigan, Detroit, 48201",Mostly Cloudy,11,3,22,16,10,70,30.29 Steady ,5,10,NNE,5
Sat Jan 30 12:45:42 2010," US and USA, MI and Michigan, Detroit, 48201",Partly Cloudy,11,4,22,16,10,71,30.30 Steady ,5,10,NNE,4
Sat Jan 30 13:28:55 2010," US and USA, MI and Michigan, Detroit, 48201",Partly Cloudy,11,4,22,16,10,69,30.30 Steady ,4,10,NNE,4
Sat Jan 30 14:13:06 2010," US and USA, MI and Michigan, Detroit, 48201",Cloudy,13,3,22,16,10,64,30.30 Steady ,5,10,NNE,6
Sat Jan 30 14:57:23 2010," US and USA, MI and Michigan, Detroit, 48201",Cloudy,15,5,22,16,10,60,30.30 Steady ,5,10,NNE,7
Sat Jan 30 15:43:01 2010," US and USA, MI and Michigan, Detroit, 48201",Cloudy,17,7,22,16,10,56,30.30 Steady ,6,10,NE,8
Sat Jan 30 16:27:59 2010," US and USA, MI and Michigan, Detroit, 48201",Cloudy,17,7,21,16,10,56,30.30 Steady ,7,10,NE,8
Sat Jan 30 17:12:26 2010," US and USA, MI and Michigan, Detroit, 48201",Partly Cloudy,18,6,21,16,10,64,30.28 Falling ,9,10,E,10
Sat Jan 30 17:55:36 2010," US and USA, MI and Michigan, Detroit, 48201",Partly Cloudy,18,7,21,16,10,62,30.28 Steady ,9,10,E,9
Sat Jan 30 18:39:36 2010," US and USA, MI and Michigan, Detroit, 48201",Mostly Cloudy,19,9,21,16,10,53,30.26 Steady ,7,10,E,8
Sat Jan 30 19:22:54 2010," US and USA, MI and Michigan, Detroit, 48201",Cloudy,20,12,21,15,30,48,30.24 Falling Rapidly ,6,10,NE,6
Sat Jan 30 20:07:09 2010," US and USA, MI and Michigan, Detroit, 48201",Mostly Cloudy,19,10,21,15,30,52,30.23 Falling ,7,10,ENE,6
Sat Jan 30 20:50:14 2010," US and USA, MI and Michigan, Detroit, 48201",Mostly Cloudy,20,11,21,15,30,48,30.21 Steady ,6,10,ENE,7
Sat Jan 30 21:34:00 2010," US and USA, MI and Michigan, Detroit, 48201",Mostly Cloudy,19,11,21,15,30,52,30.19 Steady ,7,10,ESE,6
Sat Jan 30 22:17:32 2010," US and USA, MI and Michigan, Detroit, 48201",Partly Cloudy,19,19,21,15,20,52,30.20 Steady ,7,10,E,3
Sat Jan 30 23:02:58 2010," US and USA, MI and Michigan, Detroit, 48201",Partly Cloudy,18,18,21,15,20,57,30.20 Steady ,7,9,ESE,2
Sat Jan 30 23:47:52 2010," US and USA, MI and Michigan, Detroit, 48201",Partly Cloudy,18,18,21,15,20,56,30.19 Steady ,7,9,E,1
Sun Jan 31 00:31:51 2010," US and USA, MI and Michigan, Detroit, 48201",Clear,17,9,21,15,20,59,30.18 Steady ,7,9,SE,6
Sun Jan 31 01:22:18 2010," US and USA, MI and Michigan, Detroit, 48201",Clear,16,16,21,15,20,65,30.19 Rising ,8,10,SSE,4
Sun Jan 31 02:06:18 2010," US and USA, MI and Michigan, Detroit, 48201",Clear,15,15,21,15,20,68,30.19 Steady ,8,9,SSE,3
Sun Jan 31 02:49:42 2010," US and USA, MI and Michigan, Detroit, 48201",Clear,14,5,21,11,20,69,30.18 Steady ,8,9,S,6
Sun Jan 31 03:33:37 2010," US and USA, MI and Michigan, Detroit, 48201",Clear,13,5,21,11,20,70,30.17 Steady ,7,9,SSW,5
Sun Jan 31 04:17:24 2010," US and USA, MI and Michigan, Detroit, 48201",Partly Cloudy,14,14,21,11,20,68,30.17 Steady ,7,10,SW,2
Sun Jan 31 05:01:40 2010," US and USA, MI and Michigan, Detroit, 48201",Partly Cloudy,13,13,21,11,20,69,30.17 Steady ,6,9,WSW,2
Sun Jan 31 05:48:04 2010," US and USA, MI and Michigan, Detroit, 48201",Mostly Clear,13,13,21,11,20,71,30.17 Steady ,7,10,SW,2
Sun Jan 31 06:32:55 2010," US and USA, MI and Michigan, Detroit, 48201",Clear,14,14,21,11,30,69,30.16 Falling ,7,10,W,4
Sun Jan 31 07:15:47 2010," US and USA, MI and Michigan, Detroit, 48201",Mostly Clear,14,5,21,11,30,75,30.16 Falling ,8,10,WSW,5
Sun Jan 31 08:02:31 2010," US and USA, MI and Michigan, Detroit, 48201",Partly Cloudy,14,7,21,11,30,71,30.16 Steady ,8,10,WSW,4
Sun Jan 31 08:47:11 2010," US and USA, MI and Michigan, Detroit, 48201",Clear,13,4,21,11,30,76,30.15 Steady ,8,10,WSW,6
Sun Jan 31 09:30:26 2010," US and USA, MI and Michigan, Detroit, 48201",Clear,14,4,27,15,30,73,30.15 Steady ,8,10,WSW,6
Sun Jan 31 10:13:37 2010," US and USA, MI and Michigan, Detroit, 48201",Clear,13,1,27,15,30,74,30.15 Falling ,7,10,WSW,8
Sun Jan 31 10:57:24 2010," US and USA, MI and Michigan, Detroit, 48201",Clear,13,3,27,15,30,76,30.15 Steady ,8,10,W,7
Sun Jan 31 11:40:56 2010," US and USA, MI and Michigan, Detroit, 48201",Clear,13,3,27,15,30,77,30.15 Steady ,8,10,WSW,6
Sun Jan 31 12:24:31 2010," US and USA, MI and Michigan, Detroit, 48201",Mostly Clear,12,2,28,15,30,78,30.15 Steady ,7,10,SW,6
Sun Jan 31 13:07:54 2010," US and USA, MI and Michigan, Detroit, 48201",Mostly Clear,12,2,28,15,30,77,30.15 Steady ,7,10,WSW,6
Sun Jan 31 13:51:31 2010," US and USA, MI and Michigan, Detroit, 48201",Cloudy,14,3,28,15,30,77,30.16 Steady ,9,10,WSW,7
Sun Jan 31 14:34:19 2010," US and USA, MI and Michigan, Detroit, 48201",Cloudy,15,5,28,15,30,72,30.17 Steady ,9,10,SW,6
Sun Jan 31 15:18:25 2010," US and USA, MI and Michigan, Detroit, 48201",Cloudy,17,5,28,15,30,66,30.17 Rising ,9,10,SW,10
Sun Jan 31 16:01:57 2010," US and USA, MI and Michigan, Detroit, 48201",Cloudy,18,7,27,15,30,64,30.17 Steady ,10,10,SW,9
Sun Jan 31 16:51:44 2010," US and USA, MI and Michigan, Detroit, 48201",Cloudy,20,8,26,15,30,57,30.15 Rising ,10,10,SW,13
Sun Jan 31 17:35:21 2010," US and USA, MI and Michigan, Detroit, 48201",Cloudy,21,9,26,15,30,58,30.15 Steady ,11,9,WSW,13to16
Sun Jan 31 18:20:22 2010," US and USA, MI and Michigan, Detroit, 48201",Cloudy,22,9,26,15,30,63,30.13 Falling Rapidly ,13,10,SW,14to18
Sun Jan 31 19:04:10 2010," US and USA, MI and Michigan, Detroit, 48201",Cloudy,22,9,26,15,30,64,30.13 Steady ,14,10,SW,15to19
Sun Jan 31 19:49:39 2010," US and USA, MI and Michigan, Detroit, 48201",Cloudy,24,11,26,15,30,59,30.11 Rising ,14,10,WSW,15to21
Sun Jan 31 20:32:29 2010," US and USA, MI and Michigan, Detroit, 48201",Cloudy,24,11,26,15,30,59,30.09 Steady ,14,10,WSW,15to25
Sun Jan 31 21:17:06 2010," US and USA, MI and Michigan, Detroit, 48201",Cloudy,25,14,26,15,30,56,30.08 Falling ,14,10,WSW,13to21
Sun Jan 31 21:59:54 2010," US and USA, MI and Michigan, Detroit, 48201",Cloudy,26,15,26,15,30,55,30.08 Steady ,14,10,WSW,12to17
Sun Jan 31 22:44:43 2010," US and USA, MI and Michigan, Detroit, 48201",Cloudy,26,15,26,15,30,54,30.07 Steady ,14,9,WSW,13to18
Sun Jan 31 23:28:04 2010," US and USA, MI and Michigan, Detroit, 48201",Partly Cloudy,27,15,26,15,30,49,30.07 Steady ,13,10,WSW,16to20
Mon Feb  1 00:12:01 2010," US and USA, MI and Michigan, Detroit, 48201",Clear,27,16,26,15,30,51,30.09 Rising Rapidly ,13,10,W,11
Mon Feb  1 00:54:57 2010," US and USA, MI and Michigan, Detroit, 48201",Clear,26,16,26,15,30,51,30.09 Steady ,13,9,W,11
Mon Feb  1 01:41:14 2010," US and USA, MI and Michigan, Detroit, 48201",Cloudy,26,16,26,15,30,47,30.12 Steady ,12,10,WNW,12to17
Mon Feb  1 02:25:14 2010," US and USA, MI and Michigan, Detroit, 48201",Cloudy,26,13,26,15,30,45,30.15 Rising Rapidly ,11,9,WNW,17to26
Mon Feb  1 03:08:54 2010," US and USA, MI and Michigan, Detroit, 48201",Cloudy,25,12,26,15,30,46,30.15 Steady ,10,10,WNW,17to27
Mon Feb  1 03:53:35 2010," US and USA, MI and Michigan, Detroit, 48201",Cloudy,24,11,26,15,30,48,30.19 Steady ,10,9,NW,16to29
Mon Feb  1 04:38:23 2010," US and USA, MI and Michigan, Detroit, 48201",Partly Cloudy,21,9,26,16,30,49,30.21 Steady ,8,10,NW,12to16
Mon Feb  1 05:21:32 2010," US and USA, MI and Michigan, Detroit, 48201",Clear,20,10,26,16,30,54,30.23 Rising Rapidly ,9,10,WNW,9
Mon Feb  1 06:06:26 2010," US and USA, MI and Michigan, Detroit, 48201",Clear,20,9,26,16,20,54,30.23 Steady ,8,10,WNW,9
Mon Feb  1 06:49:35 2010," US and USA, MI and Michigan, Detroit, 48201",Clear,19,10,26,15,20,55,30.25 Steady ,8,10,WNW,7
Mon Feb  1 07:33:25 2010," US and USA, MI and Michigan, Detroit, 48201",Clear,17,7,26,15,20,61,30.26 Steady ,8,10,WNW,8
Mon Feb  1 08:16:50 2010," US and USA, MI and Michigan, Detroit, 48201",Clear,17,7,26,15,20,61,30.26 Steady ,8,10,WNW,8
Mon Feb  1 09:00:17 2010," US and USA, MI and Michigan, Detroit, 48201",Clear,18,7,26,15,20,60,30.28 Steady ,8,10,WNW,8
Mon Feb  1 09:43:15 2010," US and USA, MI and Michigan, Detroit, 48201",Clear,17,10,28,22,20,66,30.30 Steady ,9,10,NW,5
Mon Feb  1 10:26:48 2010," US and USA, MI and Michigan, Detroit, 48201",Clear,15,15,28,22,20,71,30.30 Steady ,9,9,W,4
Mon Feb  1 11:09:45 2010," US and USA, MI and Michigan, Detroit, 48201",Clear,15,7,28,22,20,71,30.30 Steady ,9,10,WNW,5
Mon Feb  1 11:53:12 2010," US and USA, MI and Michigan, Detroit, 48201",Clear,14,7,28,22,20,73,30.31 Rising ,9,10,W,5
Mon Feb  1 12:36:35 2010," US and USA, MI and Michigan, Detroit, 48201",Clear,14,14,29,22,20,75,30.31 Steady ,9,10,W,3
Mon Feb  1 13:20:05 2010," US and USA, MI and Michigan, Detroit, 48201",Mostly Clear,13,13,29,22,20,78,30.31 Steady ,9,9,WSW,3
Mon Feb  1 14:04:00 2010," US and USA, MI and Michigan, Detroit, 48201",Mostly Sunny,13,13,29,22,20,78,30.31 Steady ,8,10,W,3
Mon Feb  1 14:49:03 2010," US and USA, MI and Michigan, Detroit, 48201",Mostly Sunny,15,15,29,22,20,76,30.32 Steady ,9,10,WNW,2
Mon Feb  1 15:32:48 2010," US and USA, MI and Michigan, Detroit, 48201",Partly Cloudy,19,19,29,22,20,72,30.33 Steady ,12,9,SSW,1
Mon Feb  1 16:17:32 2010," US and USA, MI and Michigan, Detroit, 48201",Partly Cloudy,20,20,28,22,20,70,30.33 Steady ,13,10,S,1
Mon Feb  1 17:02:18 2010," US and USA, MI and Michigan, Detroit, 48201",Partly Cloudy,23,15,28,22,20,59,30.34 Rising ,13,10,WSW,7
Mon Feb  1 17:46:05 2010," US and USA, MI and Michigan, Detroit, 48201",Mostly Cloudy,25,16,27,22,20,47,30.34 Steady ,10,10,WSW,8
Mon Feb  1 18:29:35 2010," US and USA, MI and Michigan, Detroit, 48201",Cloudy,26,16,27,22,20,47,30.33 Falling ,11,10,WSW,9
Mon Feb  1 19:13:22 2010," US and USA, MI and Michigan, Detroit, 48201",Cloudy,27,19,27,22,20,43,30.30 Falling Rapidly ,11,10,W,7
Mon Feb  1 19:58:12 2010," US and USA, MI and Michigan, Detroit, 48201",Cloudy,27,18,27,22,20,45,30.30 Steady ,11,10,W,8
Mon Feb  1 20:44:37 2010," US and USA, MI and Michigan, Detroit, 48201",Cloudy,27,18,27,22,20,46,30.27 Steady ,12,10,WSW,9
Mon Feb  1 21:29:37 2010," US and USA, MI and Michigan, Detroit, 48201",Cloudy,27,19,27,22,20,45,30.26 Falling ,12,10,WSW,8
Mon Feb  1 22:12:57 2010," US and USA, MI and Michigan, Detroit, 48201",Cloudy,27,17,27,22,40,49,30.25 Falling ,13,10,SW,10
Mon Feb  1 22:56:18 2010," US and USA, MI and Michigan, Detroit, 48201",Cloudy,25,15,27,22,40,54,30.26 Steady ,14,9,SW,10
Mon Feb  1 23:42:24 2010," US and USA, MI and Michigan, Detroit, 48201",Cloudy,26,17,27,22,40,58,30.26 Steady ,15,9,SW,9
Tue Feb  2 00:29:18 2010," US and USA, MI and Michigan, Detroit, 48201",Cloudy,25,17,27,22,40,59,30.26 Steady ,15,10,SW,8
Tue Feb  2 01:14:54 2010," US and USA, MI and Michigan, Detroit, 48201",Cloudy,25,18,27,22,40,65,30.26 Steady ,17,10,SW,6
Tue Feb  2 01:58:02 2010," US and USA, MI and Michigan, Detroit, 48201",Cloudy,25,18,27,22,40,66,30.26 Steady ,17,9,SW,5
Tue Feb  2 02:42:05 2010," US and USA, MI and Michigan, Detroit, 48201",Cloudy,25,25,27,22,40,66,30.24 Steady ,17,10,SW,2
Tue Feb  2 03:25:36 2010," US and USA, MI and Michigan, Detroit, 48201",Mostly Cloudy,23,23,27,22,40,68,30.24 Steady ,16,9,SW,2
Tue Feb  2 04:09:23 2010," US and USA, MI and Michigan, Detroit, 48201",Mostly Cloudy,23,23,27,22,40,74,30.24 Steady ,17,9,SSW,4
Tue Feb  2 04:52:56 2010," US and USA, MI and Michigan, Detroit, 48201",Cloudy,23,23,27,22,40,74,30.23 Steady ,17,9,SW,2
Tue Feb  2 05:36:20 2010," US and USA, MI and Michigan, Detroit, 48201",Cloudy,22,22,27,22,40,75,30.22 Steady ,17,10,CALM,0
Tue Feb  2 06:19:37 2010," US and USA, MI and Michigan, Detroit, 48201",Cloudy,22,22,27,22,60,76,30.22 Steady ,17,9,CALM,0
Tue Feb  2 07:06:45 2010," US and USA, MI and Michigan, Detroit, 48201",Cloudy,21,21,27,22,60,75,30.21 Steady ,16,9,S,1
Tue Feb  2 07:49:43 2010," US and USA, MI and Michigan, Detroit, 48201",Partly Cloudy,19,19,27,22,60,82,30.21 Steady ,16,10,CALM,0
Tue Feb  2 08:32:55 2010," US and USA, MI and Michigan, Detroit, 48201",Mostly Cloudy,19,19,27,22,60,81,30.21 Steady ,16,9,CALM,0
Tue Feb  2 09:16:26 2010," US and USA, MI and Michigan, Detroit, 48201",Cloudy,19,19,27,22,60,81,30.20 Falling ,15,9,ENE,3
Tue Feb  2 09:59:57 2010," US and USA, MI and Michigan, Detroit, 48201",Cloudy,19,19,31,27,60,80,30.20 Steady ,15,9,ENE,3
Tue Feb  2 10:43:31 2010," US and USA, MI and Michigan, Detroit, 48201",Cloudy,21,21,31,27,60,77,30.19 Steady ,16,9,E,3
Tue Feb  2 11:27:38 2010," US and USA, MI and Michigan, Detroit, 48201",Cloudy,21,21,31,27,60,77,30.18 Falling ,16,9,CALM,0
Tue Feb  2 12:11:39 2010," US and USA, MI and Michigan, Detroit, 48201",Cloudy,22,22,31,27,60,79,30.17 Falling ,17,8,ESE,3
Tue Feb  2 12:55:32 2010," US and USA, MI and Michigan, Detroit, 48201",Cloudy,22,22,31,27,60,77,30.17 Steady ,18,8,ESE,3
Tue Feb  2 13:38:53 2010," US and USA, MI and Michigan, Detroit, 48201",Cloudy,23,23,31,27,60,76,30.15 Steady ,18,9,E,3
Tue Feb  2 14:22:33 2010," US and USA, MI and Michigan, Detroit, 48201",Cloudy,23,23,31,27,60,74,30.15 Steady ,18,9,ESE,4
Tue Feb  2 15:06:54 2010," US and USA, MI and Michigan, Detroit, 48201",Cloudy,24,19,31,27,60,72,30.15 Steady ,18,10,ESE,4
Tue Feb  2 15:53:19 2010," US and USA, MI and Michigan, Detroit, 48201",Cloudy,25,17,30,27,60,71,30.15 Steady ,18,7,ESE,7
Tue Feb  2 16:45:48 2010," US and USA, MI and Michigan, Detroit, 48201",Snow Showers,27,19,30,27,60,75,30.14 Steady ,22,3,ESE,8
Tue Feb  2 17:34:16 2010," US and USA, MI and Michigan, Detroit, 48201",Snow Showers,28,22,30,27,60,69,30.12 Steady ,21,5,SE,6
Tue Feb  2 18:18:52 2010," US and USA, MI and Michigan, Detroit, 48201",Snow Showers,28,22,30,27,60,79,30.10 Falling ,24,2.7,ESE,6
Tue Feb  2 19:03:02 2010," US and USA, MI and Michigan, Detroit, 48201",Snow Showers,29,22,30,27,60,77,30.08 Falling Rapidly ,24,5,ESE,7
Tue Feb  2 19:52:27 2010," US and USA, MI and Michigan, Detroit, 48201",Cloudy,30,24,30,25,100,72,30.04 Falling ,24,7,ESE,6
Tue Feb  2 20:43:37 2010," US and USA, MI and Michigan, Detroit, 48201",Snow Showers,29,24,30,25,100,82,30.03 Falling ,25,0.8,ESE,5
Tue Feb  2 21:30:27 2010," US and USA, MI and Michigan, Detroit, 48201",Snow Showers,29,23,30,25,100,86,30.02 Falling ,26,2.2,ESE,6
Tue Feb  2 22:18:50 2010," US and USA, MI and Michigan, Detroit, 48201",Snow,29,22,30,25,100,90,30.02 Steady ,27,0.3,ESE,7
Tue Feb  2 23:03:08 2010," US and USA, MI and Michigan, Detroit, 48201",Snow,28,21,30,25,100,91,30.02 Steady ,27,0.3,ESE,7
Tue Feb  2 23:48:27 2010," US and USA, MI and Michigan, Detroit, 48201",Snow Showers,27,20,30,25,100,90,30.01 Falling ,25,1.5,ESE,7
Wed Feb  3 00:32:52 2010," US and USA, MI and Michigan, Detroit, 48201",Cloudy,28,20,30,25,100,90,30.01 Steady ,26,5,SE,8
Wed Feb  3 01:20:02 2010," US and USA, MI and Michigan, Detroit, 48201",Cloudy,27,27,30,25,100,90,30.02 Rising ,25,5,SE,4
Wed Feb  3 02:05:15 2010," US and USA, MI and Michigan, Detroit, 48201",Flurries,27,21,30,25,100,94,30.02 Steady ,26,2.6,SE,5
Wed Feb  3 02:53:32 2010," US and USA, MI and Michigan, Detroit, 48201",Snow Showers,27,27,30,25,90,90,30.02 Steady ,25,2.3,SSE,3
Wed Feb  3 03:40:21 2010," US and USA, MI and Michigan, Detroit, 48201",Cloudy,27,27,30,25,90,90,30.02 Steady ,25,5,SSE,3
Wed Feb  3 04:28:30 2010," US and USA, MI and Michigan, Detroit, 48201",Snow Showers,27,27,30,25,80,93,30.03 Rising ,26,2.1,CALM,0
Wed Feb  3 05:15:21 2010," US and USA, MI and Michigan, Detroit, 48201",Snow Showers,27,27,30,25,60,93,30.02 Steady ,26,2.5,SSW,3
Wed Feb  3 06:03:08 2010," US and USA, MI and Michigan, Detroit, 48201",Snow Showers,27,27,30,25,30,93,30.02 Steady ,25,2.6,SSW,3
Thu Feb  4 06:05:38 2010," US and USA, MI and Michigan, Detroit, 48201",Cloudy,29,25,32,20,20,63,30.37 Steady ,20,9,NW,4
Thu Feb  4 06:48:42 2010," US and USA, MI and Michigan, Detroit, 48201",Partly Cloudy,28,23,32,20,20,64,30.38 Steady ,19,10,NW,4
Thu Feb  4 07:32:20 2010," US and USA, MI and Michigan, Detroit, 48201",Mostly Cloudy,26,20,32,20,20,65,30.38 Steady ,18,9,NW,5
Thu Feb  4 08:14:51 2010," US and USA, MI and Michigan, Detroit, 48201",Mostly Cloudy,25,17,32,20,20,68,30.38 Steady ,17,9,NW,6
Thu Feb  4 08:58:32 2010," US and USA, MI and Michigan, Detroit, 48201",Partly Cloudy,24,18,32,20,20,69,30.37 Steady ,17,8,N,4
Thu Feb  4 09:42:28 2010," US and USA, MI and Michigan, Detroit, 48201",Mostly Clear,22,22,32,25,20,77,30.37 Steady ,17,9,N,2
Thu Feb  4 10:26:08 2010," US and USA, MI and Michigan, Detroit, 48201",Partly Cloudy,23,23,32,25,20,81,30.38 Rising ,19,8,CALM,0
Thu Feb  4 11:12:03 2010," US and USA, MI and Michigan, Detroit, 48201",Mostly Cloudy,22,22,32,25,20,84,30.40 Steady ,19,7,CALM,0
Thu Feb  4 11:55:34 2010," US and USA, MI and Michigan, Detroit, 48201",Cloudy,22,22,32,25,20,85,30.40 Steady ,19,7,CALM,0
Thu Feb  4 12:38:39 2010," US and USA, MI and Michigan, Detroit, 48201",Partly Cloudy,21,21,32,25,20,83,30.42 Steady ,18,8,CALM,0
Thu Feb  4 13:22:44 2010," US and USA, MI and Michigan, Detroit, 48201",Mostly Clear,20,20,32,25,20,85,30.41 Falling ,17,7,SE,1
Thu Feb  4 14:07:33 2010," US and USA, MI and Michigan, Detroit, 48201",Mostly Sunny,19,19,32,25,20,87,30.41 Steady ,17,7,ESE,1
Wed Feb  3 06:49:52 2010," US and USA, MI and Michigan, Detroit, 48201",Snow Showers,27,27,30,25,30,93,30.02 Steady ,25,0.8,CALM,0
Wed Feb  3 07:34:10 2010," US and USA, NC and North Carolina, Charlotte, 28201",Cloudy,38,38,39,28,0,92,30.04 Steady ,36,5,CALM,0
Wed Feb  3 08:17:20 2010," US and USA, NC and North Carolina, Charlotte, 28201",Cloudy,38,38,39,28,0,92,30.04 Steady ,36,5,NNE,2
Wed Feb  3 09:03:48 2010," US and USA, NC and North Carolina, Charlotte, 28201",Cloudy,38,35,39,28,0,91,30.04 Rising ,36,5,NNW,4
Wed Feb  3 09:47:38 2010," US and USA, NC and North Carolina, Charlotte, 28201",Fog,36,36,51,28,0,96,30.05 Steady ,35,0,NNW,2
Wed Feb  3 10:31:02 2010," US and USA, NC and North Carolina, Charlotte, 28201",Fog,35,31,51,28,0,98,30.06 Rising ,35,0,NNW,5
Wed Feb  3 11:17:54 2010," US and USA, NC and North Carolina, Charlotte, 28201",Fog,36,32,51,28,0,95,30.08 Rising Rapidly ,34,1.1,WNW,5
Wed Feb  3 12:02:38 2010," US and USA, NC and North Carolina, Charlotte, 28201",Fog,36,36,51,28,0,98,30.09 Steady ,35,1.3,NW,4
Wed Feb  3 12:45:50 2010," US and USA, NC and North Carolina, Charlotte, 28201",Fog,34,34,52,28,0,98,30.09 Steady ,34,0.9,NW,4
Wed Feb  3 13:29:33 2010," US and USA, NC and North Carolina, Charlotte, 28201",Fog,35,35,52,28,0,94,30.11 Rising Rapidly ,33,0.7,N,1
Wed Feb  3 14:15:41 2010," US and USA, NC and North Carolina, Charlotte, 28201",Fog,35,35,52,28,0,95,30.12 Rising ,33,0.6,CALM,0
Wed Feb  3 15:01:41 2010," US and USA, NC and North Carolina, Charlotte, 28201",Fog,35,35,52,28,0,95,30.12 Steady ,34,0.7,CALM,0
Wed Feb  3 15:46:29 2010," US and USA, NC and North Carolina, Charlotte, 28201",Fog,35,35,52,28,0,97,30.12 Steady ,34,0.6,NNW,1
Wed Feb  3 16:32:22 2010," US and USA, NC and North Carolina, Charlotte, 28201",Fog,37,37,52,28,0,94,30.17 Rising Rapidly ,35,1.5,NW,2
Wed Feb  3 17:19:32 2010," US and USA, NC and North Carolina, Charlotte, 28201",Fog,38,38,52,28,0,93,30.18 Rising ,36,1.5,CALM,0
Wed Feb  3 18:07:50 2010," US and USA, NC and North Carolina, Charlotte, 28201",Mostly Cloudy,40,40,50,28,0,88,30.18 Steady ,37,6,SW,3
Wed Feb  3 18:50:58 2010," US and USA, NC and North Carolina, Charlotte, 28201",Partly Cloudy,42,42,52,28,0,80,30.19 Steady ,37,9,NNW,3
Wed Feb  3 19:35:13 2010," US and USA, NC and North Carolina, Charlotte, 28201",Sunny,46,46,52,28,0,65,30.17 Steady ,35,10,NE,1
Wed Feb  3 20:19:18 2010," US and USA, NC and North Carolina, Charlotte, 28201",Partly Cloudy,49,49,52,28,0,59,30.15 Falling Rapidly ,35,10,CALM,0
Wed Feb  3 21:03:37 2010," US and USA, NC and North Carolina, Charlotte, 28201",Partly Cloudy,48,48,52,28,0,61,30.15 Steady ,36,9,CALM,0
Wed Feb  3 21:51:41 2010," US and USA, NC and North Carolina, Charlotte, 28201",Sunny,50,50,52,27,10,53,30.13 Steady ,33,9,CALM,0
Wed Feb  3 22:37:15 2010," US and USA, NC and North Carolina, Charlotte, 28201",Mostly Sunny,49,49,52,27,10,50,30.12 Steady ,32,9,WNW,3
Wed Feb  3 23:28:09 2010," US and USA, NC and North Carolina, Charlotte, 28201",Sunny,51,51,52,27,10,46,30.14 Rising Rapidly ,31,9,NNE,4
Thu Feb  4 00:13:06 2010," US and USA, NC and North Carolina, Charlotte, 28201",Mostly Clear,46,46,52,27,10,57,30.16 Rising Rapidly ,32,10,N,1
Thu Feb  4 00:57:08 2010," US and USA, NC and North Carolina, Charlotte, 28201",Mostly Clear,45,45,52,27,10,59,30.16 Steady ,32,8,NNE,1
Thu Feb  4 01:40:26 2010," US and USA, NC and North Carolina, Charlotte, 28201",Mostly Clear,41,38,52,27,10,69,30.18 Steady ,32,8,NE,5
Thu Feb  4 02:28:10 2010," US and USA, NC and North Carolina, Charlotte, 28201",Clear,38,38,52,27,10,80,30.20 Rising Rapidly ,32,9,CALM,0
Thu Feb  4 03:11:22 2010," US and USA, NC and North Carolina, Charlotte, 28201",Clear,43,40,52,27,10,63,30.23 Rising Rapidly ,31,9,ENE,5
Thu Feb  4 03:55:49 2010," US and USA, NC and North Carolina, Charlotte, 28201",Clear,41,38,52,27,10,68,30.23 Steady ,31,10,ENE,4
Thu Feb  4 04:39:05 2010," US and USA, NC and North Carolina, Charlotte, 28201",Clear,40,40,52,27,10,70,30.27 Steady ,31,10,N,3
Thu Feb  4 05:22:27 2010," US and USA, NC and North Carolina, Charlotte, 28201",Clear,38,31,52,27,10,69,30.27 Steady ,28,10,NNE,10
Thu Feb  4 15:00:02 2010," US and USA, NC and North Carolina, Charlotte, 28201",Cloudy,37,30,47,35,10,63,30.37 Steady ,25,10,NE,10
Thu Jan 28 15:39:41 2010," US and USA, NC and North Carolina, Charlotte, 28201",Mostly Sunny,40,40,61,32,10,66,30.23 Steady ,29,10,SSW,1
Thu Jan 28 16:00:30 2010," US and USA, NC and North Carolina, Charlotte, 28201",Mostly Sunny,40,40,61,32,10,66,30.23 Steady ,29,10,SSW,1
Thu Jan 28 16:49:49 2010," US and USA, NC and North Carolina, Charlotte, 28201",Partly Cloudy,45,45,61,32,10,57,30.22 Steady ,30,10,SW,3
Thu Jan 28 17:14:02 2010," US and USA, NC and North Carolina, Charlotte, 28201",Partly Cloudy,49,49,61,32,10,45,30.22 Steady ,28,10,SW,1
Thu Jan 28 17:30:03 2010," US and USA, NC and North Carolina, Charlotte, 28201",Partly Cloudy,49,49,61,32,10,45,30.22 Steady ,28,10,SW,1
Fri Jan 29 08:42:16 2010," US and USA, NC and North Carolina, Charlotte, 28201",Mostly Cloudy,42,38,61,31,50,48,30.18 Rising ,24,10,NNE,7
Fri Jan 29 09:26:11 2010," US and USA, NC and North Carolina, Charlotte, 28201",Partly Cloudy,42,37,61,31,50,51,30.19 Rising ,25,10,NE,6
Fri Jan 29 11:58:13 2010," US and USA, NC and North Carolina, Charlotte, 28201",Mostly Cloudy,40,33,47,28,50,41,30.20 Steady ,18,10,NE,11
Fri Jan 29 12:42:55 2010," US and USA, NC and North Carolina, Charlotte, 28201",Cloudy,39,32,46,28,50,44,30.21 Steady ,18,9,NE,9
Fri Jan 29 13:30:39 2010," US and USA, NC and North Carolina, Charlotte, 28201",Partly Cloudy,37,32,46,28,50,44,30.24 Steady ,17,9,ENE,6
Fri Jan 29 14:18:28 2010," US and USA, NC and North Carolina, Charlotte, 28201",Partly Cloudy,38,34,46,28,50,46,30.26 Rising Rapidly ,18,10,NE,5
Fri Jan 29 15:03:16 2010," US and USA, NC and North Carolina, Charlotte, 28201",Partly Cloudy,39,35,46,28,50,43,30.26 Steady ,19,10,NE,6
Fri Jan 29 15:48:48 2010," US and USA, NC and North Carolina, Charlotte, 28201",Mostly Cloudy,40,33,46,28,50,39,30.27 Steady ,17,10,NE,13
Fri Jan 29 16:36:38 2010," US and USA, NC and North Carolina, Charlotte, 28201",Mostly Cloudy,41,34,45,28,50,33,30.28 Rising ,14,10,ENE,11to17
Fri Jan 29 17:21:02 2010," US and USA, NC and North Carolina, Charlotte, 28201",Mostly Cloudy,42,35,45,28,50,32,30.28 Steady ,14,9,ENE,11
Fri Jan 29 18:09:31 2010," US and USA, NC and North Carolina, Charlotte, 28201",Mostly Cloudy,42,36,42,28,50,33,30.28 Steady ,15,9,ENE,11
Fri Jan 29 18:54:30 2010," US and USA, NC and North Carolina, Charlotte, 28201",Mostly Cloudy,45,39,42,28,50,28,30.28 Steady ,13,9,ENE,10
Fri Jan 29 19:46:29 2010," US and USA, NC and North Carolina, Charlotte, 28201",Mostly Cloudy,43,39,43,28,50,29,30.25 Steady ,13,9,NE,7
Fri Jan 29 20:44:18 2010," US and USA, NC and North Carolina, Charlotte, 28201",Cloudy,44,39,43,28,50,30,30.23 Steady ,14,9,ENE,8
Fri Jan 29 21:28:55 2010," US and USA, NC and North Carolina, Charlotte, 28201",Cloudy,42,36,43,28,50,35,30.24 Rising ,16,8,NE,10
Fri Jan 29 22:15:32 2010," US and USA, NC and North Carolina, Charlotte, 28201",Cloudy,38,33,43,28,100,50,30.24 Steady ,21,5,NNE,7
Fri Jan 29 23:00:27 2010," US and USA, NC and North Carolina, Charlotte, 28201",Cloudy,38,32,43,28,100,56,30.25 Steady ,23,5,NE,7
Fri Jan 29 23:44:42 2010," US and USA, NC and North Carolina, Charlotte, 28201",Snow Showers,35,29,43,28,100,74,30.26 Steady ,27,2.2,NE,8
Sat Jan 30 00:28:48 2010," US and USA, NC and North Carolina, Charlotte, 28201",Snow,33,27,43,28,100,93,30.28 Rising ,31,0.3,NNE,6
Sat Jan 30 01:12:57 2010," US and USA, NC and North Carolina, Charlotte, 28201",Snow Showers,34,27,43,28,100,94,30.24 Falling Rapidly ,32,0.8,ENE,7
Sat Jan 30 01:56:54 2010," US and USA, NC and North Carolina, Charlotte, 28201",Snow,34,26,43,28,100,95,30.24 Steady ,32,0.3,NE,9
Sat Jan 30 02:41:12 2010," US and USA, NC and North Carolina, Charlotte, 28201",Snow,33,27,43,28,100,90,30.23 Steady ,30,0.3,NE,6
Sat Jan 30 03:24:42 2010," US and USA, NC and North Carolina, Charlotte, 28201",Snow,32,26,43,28,100,90,30.21 Falling ,30,0.3,NE,7
Sat Jan 30 04:08:38 2010," US and USA, NC and North Carolina, Charlotte, 28201",Flurries,33,26,43,28,100,91,30.20 Falling ,30,2.7,ENE,8
Sat Jan 30 04:52:24 2010," US and USA, NC and North Carolina, Charlotte, 28201",Snow Showers,33,26,43,28,100,85,30.17 Falling Rapidly ,29,2.9,ENE,7
Sat Jan 30 05:36:06 2010," US and USA, NC and North Carolina, Charlotte, 28201",Snow Showers,33,27,43,28,100,84,30.17 Steady ,28,0.8,ENE,5
Sat Jan 30 06:20:15 2010," US and USA, NC and North Carolina, Charlotte, 28201",Snow Showers,32,26,43,28,100,84,30.16 Falling ,28,0.8,ENE,7
Sat Jan 30 07:06:14 2010," US and USA, NC and North Carolina, Charlotte, 28201",Snow,31,23,43,28,100,86,30.12 Falling ,28,0.3,ENE,9
Sat Jan 30 07:48:54 2010," US and USA, NC and North Carolina, Charlotte, 28201",Cloudy,31,23,43,27,100,83,30.10 Falling ,27,5,NE,9
Sat Jan 30 08:32:09 2010," US and USA, NC and North Carolina, Charlotte, 28201",Snow,30,21,43,27,100,83,30.07 Steady ,27,0.3,NE,11
Sat Jan 30 11:13:55 2010," US and USA, NC and North Carolina, Charlotte, 28201",Freezing Rain,29,19,28,13,100,86,29.99 Falling Rapidly ,26,5,NE,11to18
Sat Jan 30 12:01:45 2010," US and USA, NC and North Carolina, Charlotte, 28201",Wintry Mix,29,19,28,13,100,87,29.99 Steady ,26,3,NE,11to19
Sat Jan 30 12:45:21 2010," US and USA, NC and North Carolina, Charlotte, 28201",Freezing Rain,28,20,29,13,100,88,29.99 Steady ,26,2.7,NE,9
Sat Jan 30 13:28:35 2010," US and USA, NC and North Carolina, Charlotte, 28201",Wintry Mix,29,21,28,13,100,84,29.99 Steady ,26,4,NE,8
Sat Jan 30 14:12:46 2010," US and USA, NC and North Carolina, Charlotte, 28201",Snow Showers,28,19,28,13,100,87,30.01 Rising Rapidly ,26,1.3,NNE,10
Sat Jan 30 14:57:03 2010," US and USA, NC and North Carolina, Charlotte, 28201",Freezing Rain,28,18,28,13,100,83,29.99 Falling ,25,5,NE,12
Sat Jan 30 15:42:41 2010," US and USA, NC and North Carolina, Charlotte, 28201",Freezing Drizzle,28,17,28,13,100,79,29.99 Falling ,24,1.6,NNE,15
Sat Jan 30 16:27:39 2010," US and USA, NC and North Carolina, Charlotte, 28201",Freezing Rain,28,16,26,13,100,81,29.99 Steady ,23,2,NNE,16
Sat Jan 30 17:12:06 2010," US and USA, NC and North Carolina, Charlotte, 28201",Freezing Rain,26,13,26,13,100,78,29.96 Falling ,21,2,NE,17to26
Sat Jan 30 17:55:16 2010," US and USA, NC and North Carolina, Charlotte, 28201",Freezing Rain,27,16,26,13,90,77,29.96 Steady ,22,2.5,NNE,13to18
Sat Jan 30 18:39:16 2010," US and USA, NC and North Carolina, Charlotte, 28201",Freezing Rain,25,12,26,13,90,79,29.95 Falling ,20,2.4,NNE,16to21
Sat Jan 30 19:22:34 2010," US and USA, NC and North Carolina, Charlotte, 28201",Cloudy,25,12,26,13,90,75,29.91 Falling Rapidly ,20,5,NNE,18to24
Sat Jan 30 20:06:50 2010," US and USA, NC and North Carolina, Charlotte, 28201",Cloudy,25,11,26,13,90,74,29.91 Steady ,19,5,NNE,18to27
Sat Jan 30 20:49:55 2010," US and USA, NC and North Carolina, Charlotte, 28201",Cloudy,24,11,26,13,90,77,29.88 Steady ,19,6,NNE,15
Sat Jan 30 21:33:41 2010," US and USA, NC and North Carolina, Charlotte, 28201",Cloudy,24,12,26,14,90,73,29.87 Rising ,18,9,NE,14to21
Sat Jan 30 22:17:11 2010," US and USA, NC and North Carolina, Charlotte, 28201",Cloudy,25,14,26,14,40,74,29.85 Falling Rapidly ,19,9,NNE,11
Sat Jan 30 23:02:38 2010," US and USA, NC and North Carolina, Charlotte, 28201",Cloudy,25,14,26,14,40,73,29.85 Steady ,18,9,NNE,11
Sat Jan 30 23:47:32 2010," US and USA, NC and North Carolina, Charlotte, 28201",Cloudy,25,15,26,14,40,73,29.87 Steady ,19,10,NE,9
Sun Jan 31 00:31:31 2010," US and USA, NC and North Carolina, Charlotte, 28201",Cloudy,24,14,26,14,40,76,29.89 Steady ,19,10,NE,10
Sun Jan 31 01:21:58 2010," US and USA, NC and North Carolina, Charlotte, 28201",Flurries,24,14,26,14,40,76,29.92 Rising Rapidly ,19,7,NNE,10
Sun Jan 31 02:05:58 2010," US and USA, NC and North Carolina, Charlotte, 28201",Snow Showers,25,16,26,14,40,73,29.92 Rising ,19,3,NNE,8
Sun Jan 31 02:49:22 2010," US and USA, NC and North Carolina, Charlotte, 28201",Cloudy,25,14,26,14,40,70,29.93 Rising ,18,8,N,11
Sun Jan 31 03:33:17 2010," US and USA, NC and North Carolina, Charlotte, 28201",Cloudy,24,13,26,14,40,67,29.94 Steady ,16,10,NNE,12
Sun Jan 31 04:17:05 2010," US and USA, NC and North Carolina, Charlotte, 28201",Cloudy,23,10,26,14,30,72,29.97 Rising Rapidly ,16,10,NNE,13
Sun Jan 31 05:01:21 2010," US and USA, NC and North Carolina, Charlotte, 28201",Cloudy,23,10,26,14,30,70,29.97 Rising ,16,10,N,14
Sun Jan 31 05:47:44 2010," US and USA, NC and North Carolina, Charlotte, 28201",Cloudy,24,14,26,14,30,65,29.98 Steady ,15,10,NNE,10
Sun Jan 31 06:32:36 2010," US and USA, NC and North Carolina, Charlotte, 28201",Mostly Cloudy,24,14,26,14,20,66,29.99 Rising ,16,10,NNE,9
Sun Jan 31 07:15:28 2010," US and USA, NC and North Carolina, Charlotte, 28201",Partly Cloudy,22,15,26,14,20,72,30.01 Rising ,16,10,NNE,6
Sun Jan 31 08:02:11 2010," US and USA, NC and North Carolina, Charlotte, 28201",Partly Cloudy,23,17,26,14,20,68,30.01 Steady ,16,10,NE,5
Sun Jan 31 08:46:51 2010," US and USA, NC and North Carolina, Charlotte, 28201",Partly Cloudy,20,20,26,14,20,77,30.03 Steady ,15,10,NNW,3
Sun Jan 31 09:30:06 2010," US and USA, NC and North Carolina, Charlotte, 28201",Clear,18,18,26,14,20,82,30.04 Rising ,14,9,N,4
Sun Jan 31 10:13:18 2010," US and USA, NC and North Carolina, Charlotte, 28201",Clear,17,17,37,12,20,81,30.06 Rising Rapidly ,13,9,N,3
Sun Jan 31 10:57:05 2010," US and USA, NC and North Carolina, Charlotte, 28201",Clear,18,18,37,12,20,81,30.07 Steady ,14,9,N,3
Sun Jan 31 11:40:36 2010," US and USA, NC and North Carolina, Charlotte, 28201",Clear,14,14,37,12,20,87,30.08 Steady ,12,9,N,1
Sun Jan 31 12:24:11 2010," US and USA, NC and North Carolina, Charlotte, 28201",Clear,15,15,37,12,20,88,30.10 Rising Rapidly ,12,9,NW,2
Sun Jan 31 13:07:34 2010," US and USA, NC and North Carolina, Charlotte, 28201",Clear,11,11,37,12,10,92,30.11 Rising ,9,7,N,2
Sun Jan 31 13:51:11 2010," US and USA, NC and North Carolina, Charlotte, 28201",Mostly Sunny,13,13,37,12,10,83,30.13 Steady ,10,9,CALM,0
Sun Jan 31 14:33:59 2010," US and USA, NC and North Carolina, Charlotte, 28201",Mostly Sunny,18,18,37,12,10,76,30.17 Steady ,13,10,CALM,0
Sun Jan 31 15:18:05 2010," US and USA, NC and North Carolina, Charlotte, 28201",Sunny,23,23,37,12,10,83,30.22 Rising Rapidly ,19,9,SSW,3
Sun Jan 31 16:01:37 2010," US and USA, NC and North Carolina, Charlotte, 28201",Sunny,26,26,37,12,10,79,30.22 Steady ,21,9,SSW,4
Sun Jan 31 16:51:24 2010," US and USA, NC and North Carolina, Charlotte, 28201",Mostly Sunny,29,29,37,12,10,65,30.24 Steady ,21,10,NNE,2
Sun Jan 31 17:35:02 2010," US and USA, NC and North Carolina, Charlotte, 28201",Sunny,32,32,36,12,10,61,30.26 Steady ,20,10,NNW,4
Sun Jan 31 18:20:02 2010," US and USA, NC and North Carolina, Charlotte, 28201",Sunny,32,32,36,12,0,56,30.26 Steady ,18,10,NNE,2
Sun Jan 31 19:03:49 2010," US and USA, NC and North Carolina, Charlotte, 28201",Sunny,34,34,35,12,0,51,30.26 Steady ,17,10,NNE,2
Sun Jan 31 19:49:19 2010," US and USA, NC and North Carolina, Charlotte, 28201",Sunny,36,30,37,14,0,43,30.22 Steady ,15,10,NE,7
Sun Jan 31 20:32:09 2010," US and USA, NC and North Carolina, Charlotte, 28201",Partly Cloudy,36,36,37,14,0,42,30.22 Steady ,15,10,CALM,0
Sun Jan 31 21:16:46 2010," US and USA, NC and North Carolina, Charlotte, 28201",Partly Cloudy,38,38,37,14,0,34,30.22 Steady ,12,9,CALM,0
Sun Jan 31 21:59:35 2010," US and USA, NC and North Carolina, Charlotte, 28201",Partly Cloudy,38,38,37,14,0,38,30.22 Steady ,14,7,SSE,1
Sun Jan 31 22:44:24 2010," US and USA, NC and North Carolina, Charlotte, 28201",Sunny,39,39,37,14,0,32,30.21 Steady ,11,8,SE,1
Sun Jan 31 23:27:44 2010," US and USA, NC and North Carolina, Charlotte, 28201",Sunny,39,39,37,14,0,37,30.21 Steady ,14,10,SSE,4
Mon Feb  1 00:11:42 2010," US and USA, NC and North Carolina, Charlotte, 28201",Partly Cloudy,35,31,37,14,0,50,30.23 Rising Rapidly ,18,10,S,4
Mon Feb  1 00:54:37 2010," US and USA, NC and North Carolina, Charlotte, 28201",Partly Cloudy,33,29,37,14,0,52,30.23 Steady ,17,8,S,5
Mon Feb  1 01:40:54 2010," US and USA, NC and North Carolina, Charlotte, 28201",Partly Cloudy,31,26,37,14,0,49,30.25 Steady ,17,8,SSW,5
Mon Feb  1 02:24:54 2010," US and USA, NC and North Carolina, Charlotte, 28201",Mostly Clear,31,26,37,14,10,73,30.27 Rising Rapidly ,24,10,SSW,4
Mon Feb  1 03:08:34 2010," US and USA, NC and North Carolina, Charlotte, 28201",Clear,29,29,37,14,10,73,30.26 Steady ,23,8,SW,4
Mon Feb  1 03:53:15 2010," US and USA, NC and North Carolina, Charlotte, 28201",Partly Cloudy,31,31,37,14,10,72,30.27 Steady ,24,9,E,1
Mon Feb  1 04:38:03 2010," US and USA, NC and North Carolina, Charlotte, 28201",Mostly Clear,28,28,37,14,10,80,30.27 Steady ,23,9,ENE,1
Mon Feb  1 05:21:12 2010," US and USA, NC and North Carolina, Charlotte, 28201",Partly Cloudy,27,27,37,14,10,84,30.28 Steady ,24,9,E,2
Mon Feb  1 06:06:06 2010," US and USA, NC and North Carolina, Charlotte, 28201",Partly Cloudy,27,27,37,14,10,87,30.28 Steady ,24,9,SSE,2
Mon Feb  1 06:49:16 2010," US and USA, NC and North Carolina, Charlotte, 28201",Partly Cloudy,28,28,37,14,10,84,30.28 Steady ,25,7,SW,1
Mon Feb  1 07:33:05 2010," US and USA, NC and North Carolina, Charlotte, 28201",Mostly Clear,27,27,37,14,10,89,30.29 Steady ,25,7,CALM,0
Mon Feb  1 08:16:30 2010," US and USA, NC and North Carolina, Charlotte, 28201",Mostly Clear,27,27,37,14,10,91,30.30 Rising ,25,6,CALM,0
Mon Feb  1 08:59:58 2010," US and USA, NC and North Carolina, Charlotte, 28201",Mostly Clear,26,26,37,14,10,89,30.30 Steady ,24,6,W,1
Mon Feb  1 09:42:55 2010," US and USA, NC and North Carolina, Charlotte, 28201",Clear,27,27,37,14,10,90,30.31 Steady ,24,5,CALM,0
Mon Feb  1 10:26:28 2010," US and USA, NC and North Carolina, Charlotte, 28201",Clear,26,26,47,31,10,84,30.31 Steady ,23,6,CALM,0
Mon Feb  1 11:09:25 2010," US and USA, NC and North Carolina, Charlotte, 28201",Clear,25,25,47,31,10,88,30.31 Steady ,22,6,N,1
Mon Feb  1 11:52:52 2010," US and USA, NC and North Carolina, Charlotte, 28201",Mostly Clear,26,26,47,31,10,83,30.30 Steady ,22,5,CALM,0
Mon Feb  1 12:36:15 2010," US and USA, NC and North Carolina, Charlotte, 28201",Mostly Clear,23,23,47,31,10,88,30.30 Steady ,21,5,CALM,0
Mon Feb  1 13:19:46 2010," US and USA, NC and North Carolina, Charlotte, 28201",Partly Cloudy,24,24,47,31,10,90,30.32 Rising Rapidly ,22,6,E,1
Mon Feb  1 14:03:40 2010," US and USA, NC and North Carolina, Charlotte, 28201",Partly Cloudy,23,23,47,31,10,92,30.32 Steady ,22,5,ESE,1
Mon Feb  1 14:48:43 2010," US and USA, NC and North Carolina, Charlotte, 28201",Partly Cloudy,23,23,47,31,10,85,30.35 Steady ,20,5,NNE,3
Mon Feb  1 15:32:28 2010," US and USA, NC and North Carolina, Charlotte, 28201",Partly Cloudy,34,34,47,31,10,92,30.36 Steady ,32,6,CALM,0
Mon Feb  1 16:17:11 2010," US and USA, NC and North Carolina, Charlotte, 28201",Partly Cloudy,37,37,47,31,10,91,30.36 Steady ,34,6,CALM,0
Mon Feb  1 17:01:58 2010," US and USA, NC and North Carolina, Charlotte, 28201",Partly Cloudy,35,35,47,31,10,82,30.37 Steady ,30,9,ENE,1
Mon Feb  1 17:45:46 2010," US and USA, NC and North Carolina, Charlotte, 28201",Partly Cloudy,39,39,46,31,10,71,30.36 Steady ,30,9,SSW,3
Mon Feb  1 18:29:16 2010," US and USA, NC and North Carolina, Charlotte, 28201",Partly Cloudy,42,42,46,31,10,61,30.35 Falling ,29,10,SSW,2
Mon Feb  1 19:13:02 2010," US and USA, NC and North Carolina, Charlotte, 28201",Partly Cloudy,43,43,46,31,10,51,30.33 Falling Rapidly ,26,10,SW,3
Mon Feb  1 19:57:52 2010," US and USA, NC and North Carolina, Charlotte, 28201",Partly Cloudy,43,40,46,31,10,48,30.33 Steady ,25,10,NNW,5
Mon Feb  1 20:44:17 2010," US and USA, NC and North Carolina, Charlotte, 28201",Partly Cloudy,45,45,46,31,10,46,30.30 Steady ,25,9,NNE,2
Mon Feb  1 21:29:17 2010," US and USA, NC and North Carolina, Charlotte, 28201",Mostly Sunny,45,45,46,31,10,43,30.26 Falling Rapidly ,24,8,SE,4
Mon Feb  1 22:12:38 2010," US and USA, NC and North Carolina, Charlotte, 28201",Mostly Sunny,49,49,46,30,50,32,30.25 Falling ,20,9,SW,1
Mon Feb  1 22:55:57 2010," US and USA, NC and North Carolina, Charlotte, 28201",Mostly Sunny,49,49,46,29,30,33,30.25 Steady ,21,7,WNW,1
Mon Feb  1 23:42:04 2010," US and USA, NC and North Carolina, Charlotte, 28201",Mostly Sunny,43,41,46,29,30,45,30.25 Steady ,23,7,SSE,4
Tue Feb  2 00:28:58 2010," US and USA, NC and North Carolina, Charlotte, 28201",Mostly Clear,42,42,46,29,30,49,30.26 Rising ,24,9,SE,3
Tue Feb  2 01:14:34 2010," US and USA, NC and North Carolina, Charlotte, 28201",Mostly Clear,41,38,46,29,30,49,30.26 Steady ,23,9,SE,5
Tue Feb  2 01:57:41 2010," US and USA, NC and North Carolina, Charlotte, 28201",Mostly Clear,31,27,46,29,30,69,30.26 Steady ,24,6,SE,5
Tue Feb  2 02:41:44 2010," US and USA, NC and North Carolina, Charlotte, 28201",Mostly Clear,36,36,46,29,30,59,30.27 Steady ,23,9,SSE,3
Tue Feb  2 03:25:16 2010," US and USA, NC and North Carolina, Charlotte, 28201",Clear,40,37,46,29,30,50,30.24 Falling Rapidly ,23,10,ENE,4
Tue Feb  2 04:09:03 2010," US and USA, NC and North Carolina, Charlotte, 28201",Mostly Clear,31,26,46,29,30,64,30.24 Steady ,22,9,ENE,5
Tue Feb  2 04:52:36 2010," US and USA, NC and North Carolina, Charlotte, 28201",Mostly Clear,34,34,46,29,30,68,30.23 Steady ,24,10,ESE,3
Tue Feb  2 05:35:58 2010," US and USA, NC and North Carolina, Charlotte, 28201",Partly Cloudy,35,35,46,29,30,66,30.22 Steady ,24,9,ESE,4
Tue Feb  2 06:19:17 2010," US and USA, NC and North Carolina, Charlotte, 28201",Partly Cloudy,34,34,46,29,90,69,30.22 Steady ,25,8,ESE,4
Tue Feb  2 07:06:25 2010," US and USA, NC and North Carolina, Charlotte, 28201",Cloudy,36,36,46,29,90,65,30.22 Steady ,25,9,CALM,0
Tue Feb  2 07:49:24 2010," US and USA, NC and North Carolina, Charlotte, 28201",Cloudy,36,36,46,29,90,72,30.20 Steady ,28,9,ENE,3
Tue Feb  2 08:32:36 2010," US and USA, NC and North Carolina, Charlotte, 28201",Cloudy,36,36,46,29,90,74,30.21 Steady ,28,9,N,4
Tue Feb  2 09:16:06 2010," US and USA, NC and North Carolina, Charlotte, 28201",Cloudy,36,32,46,29,90,72,30.18 Falling Rapidly ,27,9,NNE,4
Tue Feb  2 09:59:37 2010," US and USA, NC and North Carolina, Charlotte, 28201",Cloudy,36,32,39,30,90,74,30.18 Steady ,28,9,NNE,4
Tue Feb  2 10:43:11 2010," US and USA, NC and North Carolina, Charlotte, 28201",Cloudy,35,30,39,30,90,75,30.16 Steady ,28,9,NNE,6
Tue Feb  2 11:27:19 2010," US and USA, NC and North Carolina, Charlotte, 28201",Cloudy,38,33,39,30,90,56,30.14 Falling Rapidly ,23,10,NE,7
Tue Feb  2 12:11:20 2010," US and USA, NC and North Carolina, Charlotte, 28201",Cloudy,37,31,39,30,90,58,30.12 Falling ,23,10,ENE,7
Tue Feb  2 12:55:13 2010," US and USA, NC and North Carolina, Charlotte, 28201",Cloudy,37,30,39,30,90,62,30.10 Falling Rapidly ,25,10,ENE,9
Tue Feb  2 13:38:34 2010," US and USA, NC and North Carolina, Charlotte, 28201",Showers,36,31,39,30,90,66,30.10 Steady ,26,7,NNE,7
Tue Feb  2 14:22:13 2010," US and USA, NC and North Carolina, Charlotte, 28201",Showers,35,30,39,30,90,82,30.10 Steady ,30,6,N,6
Tue Feb  2 15:06:34 2010," US and USA, NC and North Carolina, Charlotte, 28201",Showers,35,30,39,30,90,89,30.10 Steady ,32,3,N,7
Tue Feb  2 15:52:58 2010," US and USA, NC and North Carolina, Charlotte, 28201",Showers,35,28,39,30,90,87,30.12 Steady ,31,7,N,9
Tue Feb  2 16:45:28 2010," US and USA, NC and North Carolina, Charlotte, 28201",Showers,34,27,39,30,90,90,30.10 Falling ,32,6,N,9
Tue Feb  2 17:33:57 2010," US and USA, NC and North Carolina, Charlotte, 28201",Showers,36,29,39,30,90,89,30.08 Steady ,33,7,N,11
Tue Feb  2 18:18:32 2010," US and USA, NC and North Carolina, Charlotte, 28201",Cloudy,35,27,39,30,90,92,30.06 Falling ,33,5,NNE,10
Tue Feb  2 19:02:43 2010," US and USA, NC and North Carolina, Charlotte, 28201",Fog,36,28,39,30,90,92,30.03 Falling Rapidly ,33,1.5,NNE,11
Tue Feb  2 19:52:07 2010," US and USA, NC and North Carolina, Charlotte, 28201",Cloudy,36,29,39,30,90,89,30.00 Steady ,33,5,NNE,11
Tue Feb  2 20:43:17 2010," US and USA, NC and North Carolina, Charlotte, 28201",Cloudy,36,29,39,30,90,92,29.98 Steady ,34,5,NNE,10
Tue Feb  2 21:30:08 2010," US and USA, NC and North Carolina, Charlotte, 28201",Cloudy,36,29,39,28,90,94,29.96 Falling Rapidly ,35,5,N,10
Tue Feb  2 22:18:30 2010," US and USA, NC and North Carolina, Charlotte, 28201",Cloudy,37,30,39,28,50,90,29.97 Rising ,34,5,N,11
Tue Feb  2 23:02:48 2010," US and USA, NC and North Carolina, Charlotte, 28201",Showers,38,32,39,28,50,90,29.98 Rising ,35,3,N,8
Tue Feb  2 23:48:06 2010," US and USA, NC and North Carolina, Charlotte, 28201",Showers,37,31,39,28,30,91,29.99 Steady ,35,3,NNW,8
Wed Feb  3 00:32:32 2010," US and USA, NC and North Carolina, Charlotte, 28201",Showers,37,31,39,28,30,92,29.98 Steady ,35,3,NNE,8
Wed Feb  3 01:19:42 2010," US and USA, NC and North Carolina, Charlotte, 28201",Showers,38,35,39,28,30,90,29.98 Steady ,35,3,NE,4
Wed Feb  3 02:04:55 2010," US and USA, NC and North Carolina, Charlotte, 28201",Cloudy,38,35,39,28,30,91,29.98 Steady ,36,5,ENE,4
Wed Feb  3 02:53:13 2010," US and USA, NC and North Carolina, Charlotte, 28201",Fog,37,34,39,28,30,94,29.99 Steady ,35,1.5,N,4
Wed Feb  3 03:40:01 2010," US and USA, NC and North Carolina, Charlotte, 28201",Cloudy,36,36,39,28,30,97,29.99 Steady ,35,5,N,4
Wed Feb  3 04:28:10 2010," US and USA, NC and North Carolina, Charlotte, 28201",Fog,35,35,39,28,30,100,30.00 Rising ,35,1.5,NE,1
Wed Feb  3 05:15:01 2010," US and USA, NC and North Carolina, Charlotte, 28201",Cloudy,38,38,39,28,30,92,30.02 Rising ,36,5,WNW,2
Wed Feb  3 06:02:49 2010," US and USA, NC and North Carolina, Charlotte, 28201",Cloudy,38,34,39,28,0,92,30.02 Steady ,36,5,WNW,5
Thu Feb  4 06:05:18 2010," US and USA, NC and North Carolina, Charlotte, 28201",Clear,41,34,52,27,10,60,30.27 Steady ,28,10,NNE,11
Thu Feb  4 06:48:23 2010," US and USA, NC and North Carolina, Charlotte, 28201",Mostly Clear,38,31,52,27,10,63,30.28 Steady ,26,10,NE,10
Thu Feb  4 07:32:00 2010," US and USA, NC and North Carolina, Charlotte, 28201",Mostly Clear,36,29,52,27,10,65,30.28 Steady ,26,10,NE,10
Thu Feb  4 08:14:32 2010," US and USA, NC and North Carolina, Charlotte, 28201",Mostly Clear,36,29,52,27,10,64,30.28 Steady ,25,10,NE,10
Thu Feb  4 08:58:12 2010," US and USA, NC and North Carolina, Charlotte, 28201",Partly Cloudy,37,31,52,27,10,63,30.28 Steady ,25,10,NNE,8
Thu Feb  4 09:42:08 2010," US and USA, NC and North Carolina, Charlotte, 28201",Partly Cloudy,36,30,47,35,10,64,30.30 Steady ,25,10,NNE,8
Thu Feb  4 10:25:47 2010," US and USA, NC and North Carolina, Charlotte, 28201",Mostly Cloudy,35,31,47,35,10,66,30.30 Steady ,24,10,NE,5
Thu Feb  4 11:11:43 2010," US and USA, NC and North Carolina, Charlotte, 28201",Mostly Cloudy,33,29,47,35,10,73,30.31 Rising ,25,10,NE,4
Thu Feb  4 11:55:14 2010," US and USA, NC and North Carolina, Charlotte, 28201",Mostly Cloudy,34,29,47,35,10,70,30.31 Steady ,25,10,NE,5
Thu Feb  4 12:38:20 2010," US and USA, NC and North Carolina, Charlotte, 28201",Cloudy,33,27,47,35,10,70,30.34 Rising ,24,10,NE,7
Thu Feb  4 13:22:24 2010," US and USA, NC and North Carolina, Charlotte, 28201",Mostly Cloudy,34,28,47,35,10,68,30.36 Rising Rapidly ,24,10,NE,7
Thu Feb  4 14:07:13 2010," US and USA, NC and North Carolina, Charlotte, 28201",Mostly Cloudy,35,28,47,35,10,63,30.36 Steady ,24,10,NE,10
Wed Feb  3 06:49:33 2010," US and USA, NC and North Carolina, Charlotte, 28201",Cloudy,38,38,39,28,0,92,30.03 Falling ,36,5,NNW,2
Wed Feb  3 07:34:16 2010," US and USA, NV and Nevada, Las Vegas, 89101",Partly Cloudy,47,47,59,43,20,65,29.82 Steady ,35,10,NNW,4
Wed Feb  3 09:03:54 2010," US and USA, NV and Nevada, Las Vegas, 89101",Mostly Cloudy,46,46,59,43,20,71,29.82 Steady ,38,10,NNW,3
Wed Feb  3 09:47:43 2010," US and USA, NV and Nevada, Las Vegas, 89101",Mostly Cloudy,46,44,59,43,20,66,29.81 Steady ,35,10,NNW,4
Wed Feb  3 10:31:08 2010," US and USA, NV and Nevada, Las Vegas, 89101",Cloudy,46,44,59,43,20,66,29.80 Falling ,35,10,NW,5
Wed Feb  3 11:18:00 2010," US and USA, NV and Nevada, Las Vegas, 89101",Mostly Cloudy,45,45,61,40,20,68,29.80 Steady ,35,10,WNW,3
Wed Feb  3 12:02:44 2010," US and USA, NV and Nevada, Las Vegas, 89101",Mostly Cloudy,44,44,61,40,20,74,29.80 Steady ,36,9,WNW,3
Wed Feb  3 12:45:56 2010," US and USA, NV and Nevada, Las Vegas, 89101",Partly Cloudy,45,41,61,40,20,69,29.78 Steady ,35,9,NW,5
Wed Feb  3 13:29:39 2010," US and USA, NV and Nevada, Las Vegas, 89101",Partly Cloudy,42,38,61,40,20,73,29.77 Falling ,34,10,NNW,6
Wed Feb  3 14:15:47 2010," US and USA, NV and Nevada, Las Vegas, 89101",Clear,44,40,61,40,20,63,29.78 Rising ,32,10,NNW,7
Wed Feb  3 15:01:47 2010," US and USA, NV and Nevada, Las Vegas, 89101",Clear,43,39,61,40,20,66,29.78 Steady ,32,9,NNW,7
Wed Feb  3 15:46:35 2010," US and USA, NV and Nevada, Las Vegas, 89101",Sunny,42,38,61,40,20,71,29.78 Steady ,33,10,NW,6
Wed Feb  3 16:32:28 2010," US and USA, NV and Nevada, Las Vegas, 89101",Sunny,43,39,61,40,20,65,29.79 Rising ,32,10,N,6
Wed Feb  3 17:19:38 2010," US and USA, NV and Nevada, Las Vegas, 89101",Sunny,44,39,61,40,20,63,29.79 Steady ,32,10,NNW,8
Wed Feb  3 18:07:56 2010," US and USA, NV and Nevada, Las Vegas, 89101",Sunny,49,46,61,40,20,52,29.79 Steady ,32,10,NNW,6
Wed Feb  3 18:51:04 2010," US and USA, NV and Nevada, Las Vegas, 89101",Sunny,52,52,62,40,20,51,29.78 Steady ,34,10,N,4
Wed Feb  3 19:35:19 2010," US and USA, NV and Nevada, Las Vegas, 89101",Sunny,55,55,63,40,20,45,29.78 Steady ,34,10,NNW,10
Wed Feb  3 20:19:24 2010," US and USA, NV and Nevada, Las Vegas, 89101",Sunny,56,56,63,40,20,42,29.77 Falling ,33,10,NNE,5
Wed Feb  3 21:03:43 2010," US and USA, NV and Nevada, Las Vegas, 89101",Sunny,57,57,63,40,20,42,29.77 Steady ,34,10,ENE,6
Wed Feb  3 21:51:48 2010," US and USA, NV and Nevada, Las Vegas, 89101",Sunny,60,60,60,40,20,37,29.76 Steady ,33,10,N,12to25
Wed Feb  3 22:37:20 2010," US and USA, NV and Nevada, Las Vegas, 89101",Sunny,61,61,61,40,20,33,29.73 Steady ,32,9,N,18
Wed Feb  3 23:28:15 2010," US and USA, NV and Nevada, Las Vegas, 89101",Sunny,61,61,61,40,10,34,29.71 Falling Rapidly ,32,10,ESE,6
Thu Feb  4 00:13:12 2010," US and USA, NV and Nevada, Las Vegas, 89101",Sunny,61,61,61,40,10,34,29.70 Falling ,32,10,SSE,7
Thu Feb  4 00:57:14 2010," US and USA, NV and Nevada, Las Vegas, 89101",Sunny,60,60,61,40,10,38,29.70 Steady ,34,8,SSE,5
Thu Feb  4 01:40:32 2010," US and USA, NV and Nevada, Las Vegas, 89101",Sunny,60,60,61,40,10,33,29.71 Steady ,31,9,CALM,0
Thu Feb  4 02:28:16 2010," US and USA, NV and Nevada, Las Vegas, 89101",Sunny,59,59,61,40,10,38,29.71 Steady ,33,10,SSE,6
Thu Feb  4 03:11:28 2010," US and USA, NV and Nevada, Las Vegas, 89101",Clear,54,54,61,40,10,47,29.71 Steady ,34,7,SSE,8
Thu Feb  4 03:55:55 2010," US and USA, NV and Nevada, Las Vegas, 89101",Clear,51,51,61,40,10,57,29.73 Steady ,37,6,NNE,6
Thu Feb  4 04:39:11 2010," US and USA, NV and Nevada, Las Vegas, 89101",Clear,51,51,61,40,10,60,29.75 Steady ,37,7,WNW,6
Thu Feb  4 05:22:33 2010," US and USA, NV and Nevada, Las Vegas, 89101",Clear,50,50,61,40,10,59,29.76 Rising ,36,10,NW,7
Thu Feb  4 15:00:08 2010," US and USA, NV and Nevada, Las Vegas, 89101",Clear,44,39,60,43,10,52,29.83 Steady ,27,10,NNE,8
Thu Jan 28 15:39:47 2010," US and USA, NV and Nevada, Las Vegas, 89101",Sunny,46,39,57,38,0,57,30.03 Steady ,32,10,N,18to27
Thu Jan 28 16:00:36 2010," US and USA, NV and Nevada, Las Vegas, 89101",Sunny,46,39,57,38,0,57,30.03 Steady ,32,10,N,18to27
Thu Jan 28 16:49:55 2010," US and USA, NV and Nevada, Las Vegas, 89101",Sunny,46,40,57,38,0,55,30.05 Steady ,31,10,N,15to26
Thu Jan 28 17:14:09 2010," US and USA, NV and Nevada, Las Vegas, 89101",Sunny,47,41,57,38,0,54,30.06 Rising ,31,10,N,15to28
Thu Jan 28 17:30:09 2010," US and USA, NV and Nevada, Las Vegas, 89101",Sunny,47,41,57,38,0,54,30.06 Rising ,31,10,N,15to28
Fri Jan 29 08:42:22 2010," US and USA, NV and Nevada, Las Vegas, 89101",Clear,45,41,56,39,0,60,30.10 Steady ,32,10,N,7
Fri Jan 29 09:26:17 2010," US and USA, NV and Nevada, Las Vegas, 89101",Clear,46,43,56,40,0,58,30.10 Steady ,32,10,SSE,6
Fri Jan 29 11:58:19 2010," US and USA, NV and Nevada, Las Vegas, 89101",Mostly Clear,43,38,58,40,0,62,30.09 Steady ,31,9,NNW,10
Fri Jan 29 12:43:02 2010," US and USA, NV and Nevada, Las Vegas, 89101",Partly Cloudy,42,38,58,40,0,68,30.09 Steady ,32,10,NW,6
Fri Jan 29 13:30:45 2010," US and USA, NV and Nevada, Las Vegas, 89101",Partly Cloudy,42,42,58,40,0,65,30.09 Steady ,31,10,W,3
Fri Jan 29 14:18:34 2010," US and USA, NV and Nevada, Las Vegas, 89101",Partly Cloudy,43,38,58,40,0,60,30.09 Steady ,30,10,NW,8
Fri Jan 29 15:03:22 2010," US and USA, NV and Nevada, Las Vegas, 89101",Partly Cloudy,43,38,58,40,0,62,30.09 Steady ,31,10,NW,7
Fri Jan 29 15:48:55 2010," US and USA, NV and Nevada, Las Vegas, 89101",Partly Cloudy,41,41,58,40,0,71,30.09 Steady ,32,10,NW,3
Fri Jan 29 16:36:44 2010," US and USA, NV and Nevada, Las Vegas, 89101",Partly Cloudy,42,42,58,40,0,65,30.10 Rising ,31,10,CALM,0
Fri Jan 29 17:21:08 2010," US and USA, NV and Nevada, Las Vegas, 89101",Partly Cloudy,41,41,58,40,0,70,30.11 Rising ,32,10,NW,3
Fri Jan 29 18:09:37 2010," US and USA, NV and Nevada, Las Vegas, 89101",Partly Cloudy,45,45,58,40,0,63,30.11 Steady ,33,10,CALM,0
Fri Jan 29 18:54:36 2010," US and USA, NV and Nevada, Las Vegas, 89101",Mostly Sunny,47,47,57,40,0,58,30.12 Steady ,33,10,CALM,0
Fri Jan 29 19:46:35 2010," US and USA, NV and Nevada, Las Vegas, 89101",Partly Cloudy,49,49,56,43,0,49,30.13 Steady ,31,10,CALM,0
Fri Jan 29 20:44:24 2010," US and USA, NV and Nevada, Las Vegas, 89101",Mostly Sunny,51,51,56,43,0,47,30.11 Steady ,31,10,CALM,0
Fri Jan 29 21:29:01 2010," US and USA, NV and Nevada, Las Vegas, 89101",Sunny,52,52,55,43,0,43,30.09 Falling Rapidly ,30,10,CALM,0
Fri Jan 29 22:15:38 2010," US and USA, NV and Nevada, Las Vegas, 89101",Sunny,53,53,55,43,0,41,30.06 Falling Rapidly ,30,10,CALM,0
Fri Jan 29 23:00:32 2010," US and USA, NV and Nevada, Las Vegas, 89101",Sunny,53,53,55,43,0,43,30.06 Steady ,32,9,ESE,1
Fri Jan 29 23:44:48 2010," US and USA, NV and Nevada, Las Vegas, 89101",Sunny,53,53,55,43,10,45,30.05 Steady ,32,9,SE,3
Sat Jan 30 00:28:54 2010," US and USA, NV and Nevada, Las Vegas, 89101",Sunny,55,55,55,43,10,42,30.04 Falling ,32,10,ESE,7
Sat Jan 30 01:13:02 2010," US and USA, NV and Nevada, Las Vegas, 89101",Sunny,54,54,55,43,10,47,30.04 Steady ,34,8,SE,5
Sat Jan 30 01:57:00 2010," US and USA, NV and Nevada, Las Vegas, 89101",Sunny,53,53,55,43,10,46,30.03 Steady ,33,8,S,5
Sat Jan 30 02:41:18 2010," US and USA, NV and Nevada, Las Vegas, 89101",Mostly Clear,52,52,55,43,10,53,30.03 Steady ,35,8,E,5
Sat Jan 30 03:24:48 2010," US and USA, NV and Nevada, Las Vegas, 89101",Partly Cloudy,51,51,55,43,10,54,30.04 Rising ,35,10,ENE,5
Sat Jan 30 04:08:44 2010," US and USA, NV and Nevada, Las Vegas, 89101",Partly Cloudy,49,47,55,43,10,62,30.04 Steady ,37,7,NE,6
Sat Jan 30 04:52:30 2010," US and USA, NV and Nevada, Las Vegas, 89101",Partly Cloudy,48,48,55,43,10,66,30.04 Steady ,38,9,NNW,1
Sat Jan 30 05:36:16 2010," US and USA, NV and Nevada, Las Vegas, 89101",Mostly Cloudy,50,50,55,43,10,58,30.04 Steady ,35,10,CALM,0
Sat Jan 30 06:20:21 2010," US and USA, NV and Nevada, Las Vegas, 89101",Mostly Cloudy,50,50,55,43,10,58,30.04 Steady ,35,10,CALM,0
Sat Jan 30 07:06:19 2010," US and USA, NV and Nevada, Las Vegas, 89101",Mostly Cloudy,48,48,55,43,10,60,30.04 Steady ,35,10,CALM,0
Sat Jan 30 07:49:00 2010," US and USA, NV and Nevada, Las Vegas, 89101",Mostly Cloudy,47,47,55,43,10,66,30.04 Steady ,36,10,CALM,0
Sat Jan 30 08:32:15 2010," US and USA, NV and Nevada, Las Vegas, 89101",Mostly Cloudy,47,45,55,43,10,69,30.03 Steady ,37,10,WSW,5
Sat Jan 30 11:14:01 2010," US and USA, NV and Nevada, Las Vegas, 89101",Partly Cloudy,46,46,59,40,10,66,30.01 Falling ,35,10,CALM,0
Sat Jan 30 12:01:51 2010," US and USA, NV and Nevada, Las Vegas, 89101",Partly Cloudy,45,45,59,40,10,66,30.01 Steady ,35,10,CALM,0
Sat Jan 30 12:45:28 2010," US and USA, NV and Nevada, Las Vegas, 89101",Mostly Clear,42,42,59,40,10,75,30.00 Steady ,35,10,W,4
Sat Jan 30 13:28:41 2010," US and USA, NV and Nevada, Las Vegas, 89101",Clear,42,42,59,40,10,76,30.00 Steady ,35,10,WSW,3
Sat Jan 30 14:12:52 2010," US and USA, NV and Nevada, Las Vegas, 89101",Clear,42,42,59,40,10,75,30.00 Steady ,34,10,WSW,4
Sat Jan 30 14:57:09 2010," US and USA, NV and Nevada, Las Vegas, 89101",Clear,39,39,59,40,10,82,29.99 Steady ,35,10,CALM,0
Sat Jan 30 15:42:47 2010," US and USA, NV and Nevada, Las Vegas, 89101",Sunny,42,42,59,40,10,75,30.00 Steady ,35,10,SSE,3
Sat Jan 30 16:27:45 2010," US and USA, NV and Nevada, Las Vegas, 89101",Sunny,43,43,59,40,10,75,30.00 Steady ,35,10,SSE,3
Sat Jan 30 17:12:11 2010," US and USA, NV and Nevada, Las Vegas, 89101",Sunny,41,41,59,40,10,78,30.01 Steady ,34,10,N,3
Sat Jan 30 17:55:22 2010," US and USA, NV and Nevada, Las Vegas, 89101",Sunny,44,44,59,40,10,69,30.02 Steady ,35,10,CALM,0
Sat Jan 30 18:39:22 2010," US and USA, NV and Nevada, Las Vegas, 89101",Sunny,48,46,58,40,10,65,30.01 Steady ,37,10,SSE,5
Sat Jan 30 19:22:39 2010," US and USA, NV and Nevada, Las Vegas, 89101",Sunny,48,45,58,42,10,63,30.01 Steady ,36,10,SSE,7
Sat Jan 30 20:06:55 2010," US and USA, NV and Nevada, Las Vegas, 89101",Sunny,49,46,58,42,10,59,30.01 Steady ,36,10,SSE,7
Sat Jan 30 20:50:00 2010," US and USA, NV and Nevada, Las Vegas, 89101",Sunny,51,51,58,42,10,60,29.99 Steady ,37,10,SE,7
Sat Jan 30 21:33:47 2010," US and USA, NV and Nevada, Las Vegas, 89101",Mostly Sunny,53,53,57,42,10,54,29.95 Steady ,37,10,ESE,6
Sat Jan 30 22:17:18 2010," US and USA, NV and Nevada, Las Vegas, 89101",Sunny,54,54,57,42,10,53,29.92 Falling Rapidly ,37,10,SE,8
Sat Jan 30 23:02:44 2010," US and USA, NV and Nevada, Las Vegas, 89101",Sunny,54,54,57,42,10,52,29.92 Steady ,37,10,SSE,7
Sat Jan 30 23:47:38 2010," US and USA, NV and Nevada, Las Vegas, 89101",Sunny,55,55,57,42,20,53,29.90 Steady ,38,10,SSE,5
Sun Jan 31 00:31:37 2010," US and USA, NV and Nevada, Las Vegas, 89101",Partly Cloudy,56,56,57,42,20,49,29.90 Steady ,37,10,E,6
Sun Jan 31 01:22:04 2010," US and USA, NV and Nevada, Las Vegas, 89101",Partly Cloudy,57,57,57,42,20,49,29.90 Steady ,38,10,NE,7
Sun Jan 31 02:06:04 2010," US and USA, NV and Nevada, Las Vegas, 89101",Mostly Sunny,55,55,57,42,20,54,29.90 Steady ,38,8,NNE,6
Sun Jan 31 02:49:28 2010," US and USA, NV and Nevada, Las Vegas, 89101",Partly Cloudy,54,54,57,42,20,54,29.91 Steady ,38,9,N,5
Sun Jan 31 03:33:23 2010," US and USA, NV and Nevada, Las Vegas, 89101",Mostly Clear,51,51,57,42,20,61,29.91 Steady ,38,9,WNW,1
Sun Jan 31 04:17:11 2010," US and USA, NV and Nevada, Las Vegas, 89101",Mostly Cloudy,50,50,57,42,20,68,29.92 Rising ,40,10,NW,5
Sun Jan 31 05:01:27 2010," US and USA, NV and Nevada, Las Vegas, 89101",Mostly Cloudy,48,47,57,42,20,70,29.92 Steady ,39,9,NW,5
Sun Jan 31 05:47:50 2010," US and USA, NV and Nevada, Las Vegas, 89101",Mostly Clear,48,46,57,42,20,71,29.92 Steady ,39,10,NNW,5
Sun Jan 31 06:32:41 2010," US and USA, NV and Nevada, Las Vegas, 89101",Mostly Clear,47,45,57,42,20,72,29.92 Steady ,38,10,NNW,5
Sun Jan 31 07:15:34 2010," US and USA, NV and Nevada, Las Vegas, 89101",Clear,45,42,57,42,20,76,29.94 Rising ,38,10,NW,6
Sun Jan 31 08:02:17 2010," US and USA, NV and Nevada, Las Vegas, 89101",Clear,44,41,57,42,20,77,29.94 Steady ,37,10,NW,6
Sun Jan 31 08:46:57 2010," US and USA, NV and Nevada, Las Vegas, 89101",Clear,45,45,57,42,20,73,29.94 Steady ,37,10,WNW,4
Sun Jan 31 09:30:12 2010," US and USA, NV and Nevada, Las Vegas, 89101",Clear,44,44,57,40,20,73,29.94 Steady ,36,10,CALM,0
Sun Jan 31 10:13:23 2010," US and USA, NV and Nevada, Las Vegas, 89101",Clear,43,39,57,40,20,76,29.94 Steady ,36,10,WNW,6
Sun Jan 31 10:57:10 2010," US and USA, NV and Nevada, Las Vegas, 89101",Clear,42,39,57,40,20,75,29.94 Steady ,35,10,WNW,6
Sun Jan 31 11:40:42 2010," US and USA, NV and Nevada, Las Vegas, 89101",Clear,45,41,58,40,20,67,29.93 Steady ,35,10,NNW,9
Sun Jan 31 12:24:17 2010," US and USA, NV and Nevada, Las Vegas, 89101",Clear,46,41,58,40,20,63,29.94 Rising ,34,10,NNW,12
Sun Jan 31 13:07:40 2010," US and USA, NV and Nevada, Las Vegas, 89101",Clear,45,40,58,40,20,61,29.94 Steady ,33,10,NNW,12
Sun Jan 31 13:51:17 2010," US and USA, NV and Nevada, Las Vegas, 89101",Clear,45,40,58,40,20,63,29.94 Steady ,33,10,NNW,10
Sun Jan 31 14:34:04 2010," US and USA, NV and Nevada, Las Vegas, 89101",Clear,44,44,58,40,20,67,29.94 Steady ,33,10,NNW,4
Sun Jan 31 15:18:11 2010," US and USA, NV and Nevada, Las Vegas, 89101",Clear,43,43,58,40,20,71,29.96 Rising Rapidly ,34,10,WNW,3
Sun Jan 31 16:01:43 2010," US and USA, NV and Nevada, Las Vegas, 89101",Sunny,43,43,58,40,20,70,29.96 Steady ,34,10,WNW,4
Sun Jan 31 16:51:30 2010," US and USA, NV and Nevada, Las Vegas, 89101",Partly Cloudy,42,42,58,40,20,70,29.97 Rising ,33,10,W,3
Sun Jan 31 17:35:08 2010," US and USA, NV and Nevada, Las Vegas, 89101",Sunny,49,49,57,40,10,55,29.99 Steady ,34,10,NNE,4
Sun Jan 31 18:20:08 2010," US and USA, NV and Nevada, Las Vegas, 89101",Sunny,50,50,57,40,10,54,30.00 Rising ,34,10,N,5
Sun Jan 31 19:03:56 2010," US and USA, NV and Nevada, Las Vegas, 89101",Sunny,53,53,57,40,10,49,30.00 Steady ,34,10,N,3
Sun Jan 31 19:49:25 2010," US and USA, NV and Nevada, Las Vegas, 89101",Sunny,52,52,56,40,10,52,30.01 Steady ,36,10,N,5
Sun Jan 31 20:32:14 2010," US and USA, NV and Nevada, Las Vegas, 89101",Sunny,54,54,56,40,10,52,30.00 Steady ,36,10,S,5
Sun Jan 31 21:16:53 2010," US and USA, NV and Nevada, Las Vegas, 89101",Sunny,54,54,56,40,10,49,29.98 Falling Rapidly ,35,10,CALM,0
Sun Jan 31 21:59:40 2010," US and USA, NV and Nevada, Las Vegas, 89101",Sunny,55,55,56,40,10,48,29.98 Steady ,35,10,CALM,0
Sun Jan 31 22:44:30 2010," US and USA, NV and Nevada, Las Vegas, 89101",Mostly Sunny,56,56,57,40,10,43,29.95 Steady ,34,10,CALM,0
Sun Jan 31 23:27:50 2010," US and USA, NV and Nevada, Las Vegas, 89101",Partly Cloudy,57,57,57,40,10,39,29.93 Falling Rapidly ,32,10,CALM,0
Mon Feb  1 00:11:47 2010," US and USA, NV and Nevada, Las Vegas, 89101",Mostly Sunny,56,56,57,40,10,41,29.93 Steady ,33,9,CALM,0
Mon Feb  1 00:54:43 2010," US and USA, NV and Nevada, Las Vegas, 89101",Mostly Sunny,57,57,57,40,10,40,29.93 Steady ,32,8,CALM,0
Mon Feb  1 01:41:00 2010," US and USA, NV and Nevada, Las Vegas, 89101",Partly Cloudy,56,56,57,40,10,36,29.93 Rising ,29,8,CALM,0
Mon Feb  1 02:25:00 2010," US and USA, NV and Nevada, Las Vegas, 89101",Partly Cloudy,56,56,57,40,10,36,29.94 Rising ,29,10,CALM,0
Mon Feb  1 03:08:40 2010," US and USA, NV and Nevada, Las Vegas, 89101",Partly Cloudy,55,55,57,40,10,36,29.94 Steady ,28,9,CALM,0
Mon Feb  1 03:53:21 2010," US and USA, NV and Nevada, Las Vegas, 89101",Partly Cloudy,52,52,57,40,10,46,29.95 Steady ,32,10,NW,1
Mon Feb  1 04:38:09 2010," US and USA, NV and Nevada, Las Vegas, 89101",Clear,50,50,57,40,10,52,29.96 Steady ,33,7,NW,1
Mon Feb  1 05:21:18 2010," US and USA, NV and Nevada, Las Vegas, 89101",Clear,49,49,57,40,10,56,29.97 Rising ,34,10,WNW,3
Mon Feb  1 06:06:12 2010," US and USA, NV and Nevada, Las Vegas, 89101",Clear,48,46,57,40,10,59,29.97 Steady ,34,9,WNW,4
Mon Feb  1 06:49:21 2010," US and USA, NV and Nevada, Las Vegas, 89101",Clear,45,42,57,40,10,68,29.98 Steady ,35,10,NW,6
Mon Feb  1 07:33:11 2010," US and USA, NV and Nevada, Las Vegas, 89101",Clear,44,42,57,40,10,72,29.99 Steady ,36,10,WNW,4
Mon Feb  1 08:16:36 2010," US and USA, NV and Nevada, Las Vegas, 89101",Clear,44,42,57,40,10,72,29.99 Steady ,35,10,WNW,4
Mon Feb  1 09:00:04 2010," US and USA, NV and Nevada, Las Vegas, 89101",Clear,42,39,57,40,20,76,29.99 Steady ,35,10,NW,4
Mon Feb  1 09:43:01 2010," US and USA, NV and Nevada, Las Vegas, 89101",Clear,43,39,57,39,20,69,29.98 Steady ,34,10,NW,7
Mon Feb  1 10:26:34 2010," US and USA, NV and Nevada, Las Vegas, 89101",Clear,43,43,57,39,20,68,29.99 Rising ,33,10,NW,3
Mon Feb  1 11:09:31 2010," US and USA, NV and Nevada, Las Vegas, 89101",Clear,42,42,57,39,20,69,29.99 Steady ,33,10,NW,3
Mon Feb  1 11:52:58 2010," US and USA, NV and Nevada, Las Vegas, 89101",Clear,40,40,59,42,20,75,29.99 Steady ,33,10,CALM,0
Mon Feb  1 12:36:21 2010," US and USA, NV and Nevada, Las Vegas, 89101",Clear,40,40,60,42,20,74,29.99 Steady ,33,10,CALM,0
Mon Feb  1 13:19:52 2010," US and USA, NV and Nevada, Las Vegas, 89101",Clear,39,39,60,42,20,76,29.99 Steady ,32,10,NNW,3
Mon Feb  1 14:03:46 2010," US and USA, NV and Nevada, Las Vegas, 89101",Clear,38,38,60,42,20,77,29.99 Steady ,32,10,NNW,3
Mon Feb  1 14:48:49 2010," US and USA, NV and Nevada, Las Vegas, 89101",Clear,38,34,60,42,20,79,29.99 Steady ,32,10,NW,5
Mon Feb  1 15:32:34 2010," US and USA, NV and Nevada, Las Vegas, 89101",Sunny,37,37,60,42,20,80,30.01 Steady ,31,10,W,3
Mon Feb  1 16:17:17 2010," US and USA, NV and Nevada, Las Vegas, 89101",Sunny,37,37,60,42,20,80,30.01 Steady ,31,10,W,3
Mon Feb  1 17:02:04 2010," US and USA, NV and Nevada, Las Vegas, 89101",Sunny,40,40,60,42,20,71,30.02 Steady ,31,10,CALM,0
Mon Feb  1 17:45:52 2010," US and USA, NV and Nevada, Las Vegas, 89101",Sunny,44,44,59,42,20,58,30.03 Steady ,30,10,CALM,0
Mon Feb  1 18:29:22 2010," US and USA, NV and Nevada, Las Vegas, 89101",Sunny,47,47,58,42,20,54,30.04 Rising ,31,10,CALM,0
Mon Feb  1 19:13:08 2010," US and USA, NV and Nevada, Las Vegas, 89101",Sunny,51,51,58,42,20,46,30.04 Steady ,31,10,CALM,0
Mon Feb  1 19:57:58 2010," US and USA, NV and Nevada, Las Vegas, 89101",Sunny,51,51,58,41,20,55,30.04 Steady ,35,10,SSE,2
Mon Feb  1 20:44:23 2010," US and USA, NV and Nevada, Las Vegas, 89101",Sunny,53,53,58,41,20,47,30.03 Steady ,33,10,CALM,0
Mon Feb  1 21:29:23 2010," US and USA, NV and Nevada, Las Vegas, 89101",Sunny,54,54,57,41,20,38,30.00 Falling Rapidly ,29,10,E,5
Mon Feb  1 22:12:44 2010," US and USA, NV and Nevada, Las Vegas, 89101",Sunny,55,55,57,41,20,36,30.00 Steady ,28,10,ENE,4
Mon Feb  1 22:56:03 2010," US and USA, NV and Nevada, Las Vegas, 89101",Sunny,55,55,56,41,20,36,29.97 Steady ,28,10,SE,3
Mon Feb  1 23:42:10 2010," US and USA, NV and Nevada, Las Vegas, 89101",Mostly Sunny,56,56,56,41,10,34,29.95 Steady ,28,9,SE,7
Tue Feb  2 00:29:04 2010," US and USA, NV and Nevada, Las Vegas, 89101",Partly Cloudy,57,57,56,41,10,32,29.94 Falling ,27,10,E,7
Tue Feb  2 01:14:40 2010," US and USA, NV and Nevada, Las Vegas, 89101",Partly Cloudy,56,56,56,41,10,34,29.95 Rising ,28,10,ESE,6
Tue Feb  2 01:57:47 2010," US and USA, NV and Nevada, Las Vegas, 89101",Partly Cloudy,53,53,56,41,10,42,29.95 Steady ,31,7,E,6
Tue Feb  2 02:41:50 2010," US and USA, NV and Nevada, Las Vegas, 89101",Partly Cloudy,54,54,56,41,10,37,29.95 Steady ,28,9,ESE,4
Tue Feb  2 03:25:22 2010," US and USA, NV and Nevada, Las Vegas, 89101",Mostly Cloudy,54,54,56,41,10,40,29.95 Steady ,30,10,ENE,3
Tue Feb  2 04:09:09 2010," US and USA, NV and Nevada, Las Vegas, 89101",Mostly Cloudy,50,48,56,41,10,56,29.95 Steady ,35,6,N,5
Tue Feb  2 04:52:42 2010," US and USA, NV and Nevada, Las Vegas, 89101",Mostly Cloudy,52,52,56,41,10,47,29.95 Steady ,32,7,WNW,1
Tue Feb  2 05:36:04 2010," US and USA, NV and Nevada, Las Vegas, 89101",Mostly Cloudy,51,51,56,41,10,51,29.96 Steady ,33,9,SSE,5
Tue Feb  2 06:19:23 2010," US and USA, NV and Nevada, Las Vegas, 89101",Mostly Cloudy,51,51,56,41,10,51,29.96 Steady ,34,9,SSE,4
Tue Feb  2 07:06:31 2010," US and USA, NV and Nevada, Las Vegas, 89101",Mostly Cloudy,51,51,56,41,10,45,29.95 Steady ,30,10,WSW,3
Tue Feb  2 07:49:30 2010," US and USA, NV and Nevada, Las Vegas, 89101",Mostly Cloudy,51,51,56,41,10,41,29.95 Steady ,28,10,CALM,0
Tue Feb  2 08:32:42 2010," US and USA, NV and Nevada, Las Vegas, 89101",Mostly Cloudy,49,49,56,41,10,48,29.95 Steady ,30,10,CALM,0
Tue Feb  2 09:16:12 2010," US and USA, NV and Nevada, Las Vegas, 89101",Mostly Cloudy,49,49,56,41,20,50,29.95 Steady ,31,10,CALM,0
Tue Feb  2 09:59:43 2010," US and USA, NV and Nevada, Las Vegas, 89101",Mostly Cloudy,49,49,56,40,20,50,29.95 Steady ,31,10,CALM,0
Tue Feb  2 10:43:17 2010," US and USA, NV and Nevada, Las Vegas, 89101",Mostly Cloudy,46,46,56,40,20,59,29.94 Steady ,33,10,CALM,0
Tue Feb  2 11:27:25 2010," US and USA, NV and Nevada, Las Vegas, 89101",Mostly Cloudy,45,45,59,42,20,65,29.94 Steady ,34,10,N,3
Tue Feb  2 12:11:26 2010," US and USA, NV and Nevada, Las Vegas, 89101",Mostly Cloudy,44,44,59,42,20,67,29.94 Steady ,34,10,N,3
Tue Feb  2 12:55:18 2010," US and USA, NV and Nevada, Las Vegas, 89101",Partly Cloudy,43,43,59,42,20,68,29.92 Steady ,33,10,NNW,3
Tue Feb  2 13:38:39 2010," US and USA, NV and Nevada, Las Vegas, 89101",Partly Cloudy,44,41,59,42,20,70,29.92 Steady ,34,10,NW,4
Tue Feb  2 14:22:18 2010," US and USA, NV and Nevada, Las Vegas, 89101",Mostly Cloudy,44,44,59,42,20,68,29.92 Steady ,34,10,N,3
Tue Feb  2 15:06:40 2010," US and USA, NV and Nevada, Las Vegas, 89101",Mostly Cloudy,44,44,59,42,20,69,29.92 Steady ,34,10,NNE,3
Tue Feb  2 15:53:04 2010," US and USA, NV and Nevada, Las Vegas, 89101",Cloudy,44,44,59,42,20,67,29.92 Steady ,33,10,WNW,4
Tue Feb  2 16:45:34 2010," US and USA, NV and Nevada, Las Vegas, 89101",Partly Cloudy,44,44,59,42,20,69,29.93 Steady ,35,10,WNW,3
Tue Feb  2 17:34:03 2010," US and USA, NV and Nevada, Las Vegas, 89101",Partly Cloudy,47,47,59,42,20,61,29.93 Steady ,34,10,NNE,2
Tue Feb  2 18:18:38 2010," US and USA, NV and Nevada, Las Vegas, 89101",Partly Cloudy,49,49,58,42,20,56,29.94 Rising ,34,10,CALM,0
Tue Feb  2 19:02:49 2010," US and USA, NV and Nevada, Las Vegas, 89101",Partly Cloudy,52,52,58,42,20,49,29.94 Steady ,33,10,CALM,0
Tue Feb  2 19:52:13 2010," US and USA, NV and Nevada, Las Vegas, 89101",Partly Cloudy,53,53,58,43,20,45,29.94 Steady ,32,10,CALM,0
Tue Feb  2 20:43:23 2010," US and USA, NV and Nevada, Las Vegas, 89101",Sunny,54,54,58,43,20,40,29.92 Steady ,30,10,CALM,0
Tue Feb  2 21:30:13 2010," US and USA, NV and Nevada, Las Vegas, 89101",Sunny,55,55,58,43,20,37,29.89 Falling Rapidly ,29,10,E,6
Tue Feb  2 22:18:36 2010," US and USA, NV and Nevada, Las Vegas, 89101",Partly Cloudy,57,57,59,43,20,34,29.85 Falling Rapidly ,29,10,ESE,10
Tue Feb  2 23:02:54 2010," US and USA, NV and Nevada, Las Vegas, 89101",Partly Cloudy,57,57,59,43,20,35,29.85 Steady ,29,10,SE,9
Tue Feb  2 23:48:13 2010," US and USA, NV and Nevada, Las Vegas, 89101",Partly Cloudy,57,57,59,43,20,36,29.84 Steady ,30,9,ESE,4
Wed Feb  3 00:32:38 2010," US and USA, NV and Nevada, Las Vegas, 89101",Partly Cloudy,57,57,59,43,20,41,29.83 Steady ,33,8,E,6
Wed Feb  3 01:19:48 2010," US and USA, NV and Nevada, Las Vegas, 89101",Sunny,57,57,59,43,20,37,29.83 Steady ,31,10,ENE,6
Wed Feb  3 02:05:01 2010," US and USA, NV and Nevada, Las Vegas, 89101",Sunny,56,56,59,43,20,38,29.83 Steady ,30,9,NE,6
Wed Feb  3 02:53:18 2010," US and USA, NV and Nevada, Las Vegas, 89101",Partly Cloudy,54,54,59,43,20,43,29.83 Steady ,31,9,ENE,4
Wed Feb  3 03:40:07 2010," US and USA, NV and Nevada, Las Vegas, 89101",Partly Cloudy,53,53,59,43,20,47,29.83 Steady ,33,10,CALM,0
Wed Feb  3 04:28:16 2010," US and USA, NV and Nevada, Las Vegas, 89101",Partly Cloudy,53,53,59,43,20,45,29.83 Steady ,32,10,CALM,0
Wed Feb  3 05:15:07 2010," US and USA, NV and Nevada, Las Vegas, 89101",Partly Cloudy,51,51,59,43,20,52,29.83 Steady ,34,10,CALM,0
Wed Feb  3 06:02:55 2010," US and USA, NV and Nevada, Las Vegas, 89101",Partly Cloudy,50,50,59,43,20,54,29.83 Steady ,34,9,CALM,0
Thu Feb  4 06:05:24 2010," US and USA, NV and Nevada, Las Vegas, 89101",Clear,49,46,61,40,10,58,29.76 Steady ,35,10,NW,8
Thu Feb  4 06:48:28 2010," US and USA, NV and Nevada, Las Vegas, 89101",Clear,49,49,61,40,10,57,29.77 Steady ,34,10,WNW,3
Thu Feb  4 07:32:06 2010," US and USA, NV and Nevada, Las Vegas, 89101",Clear,51,51,61,40,10,43,29.77 Steady ,29,10,N,9
Thu Feb  4 08:14:38 2010," US and USA, NV and Nevada, Las Vegas, 89101",Clear,50,50,61,40,10,43,29.77 Steady ,28,10,NNW,10
Thu Feb  4 08:58:18 2010," US and USA, NV and Nevada, Las Vegas, 89101",Mostly Clear,50,46,61,40,10,43,29.78 Steady ,28,10,NW,10
Thu Feb  4 09:42:14 2010," US and USA, NV and Nevada, Las Vegas, 89101",Mostly Clear,49,47,61,41,10,44,29.78 Steady ,28,10,NNW,6
Thu Feb  4 10:25:53 2010," US and USA, NV and Nevada, Las Vegas, 89101",Partly Cloudy,48,43,61,41,10,46,29.79 Rising ,28,10,NW,13
Thu Feb  4 11:11:49 2010," US and USA, NV and Nevada, Las Vegas, 89101",Partly Cloudy,47,42,61,41,10,46,29.79 Steady ,27,10,NW,12
Thu Feb  4 11:55:20 2010," US and USA, NV and Nevada, Las Vegas, 89101",Clear,46,42,60,43,10,49,29.80 Steady ,28,10,NW,9
Thu Feb  4 12:38:25 2010," US and USA, NV and Nevada, Las Vegas, 89101",Clear,44,39,60,43,10,53,29.81 Steady ,28,10,WNW,9
Thu Feb  4 13:22:30 2010," US and USA, NV and Nevada, Las Vegas, 89101",Clear,46,42,60,43,10,46,29.82 Rising ,26,10,NNW,7
Thu Feb  4 14:07:19 2010," US and USA, NV and Nevada, Las Vegas, 89101",Clear,45,42,60,43,10,47,29.82 Steady ,26,10,NNW,6
Wed Feb  3 06:49:39 2010," US and USA, NV and Nevada, Las Vegas, 89101",Partly Cloudy,48,48,59,43,20,60,29.83 Steady ,35,10,N,4
Wed Feb  3 07:34:14 2010," US and USA, NY and New York, New York, 10001",Snow Showers,28,21,34,29,60,89,30.08 Steady ,26,0.8,NE,7
Wed Feb  3 09:03:52 2010," US and USA, NY and New York, New York, 10001",Snow Showers,28,21,34,29,60,88,30.07 Steady ,26,2.5,NNE,7
Wed Feb  3 09:47:42 2010," US and USA, NY and New York, New York, 10001",Snow Showers,28,21,39,26,60,88,30.06 Steady ,26,2.9,NE,8
Wed Feb  3 10:31:07 2010," US and USA, NY and New York, New York, 10001",Snow Showers,29,23,39,26,70,86,30.05 Steady ,26,0.8,NE,6
Wed Feb  3 11:17:58 2010," US and USA, NY and New York, New York, 10001",Snow Showers,29,23,39,26,70,88,30.05 Steady ,26,3,NE,6
Wed Feb  3 12:02:42 2010," US and USA, NY and New York, New York, 10001",Cloudy,29,24,39,26,70,87,30.05 Steady ,26,5,NNE,5
Wed Feb  3 12:45:54 2010," US and USA, NY and New York, New York, 10001",Cloudy,29,24,39,26,70,88,30.06 Steady ,26,5,N,4
Wed Feb  3 13:29:37 2010," US and USA, NY and New York, New York, 10001",Cloudy,29,29,39,26,70,86,30.06 Rising ,26,5,NNE,4
Wed Feb  3 14:15:45 2010," US and USA, NY and New York, New York, 10001",Cloudy,29,29,39,26,100,84,30.07 Rising ,26,5,NNE,2
Wed Feb  3 15:01:45 2010," US and USA, NY and New York, New York, 10001",Cloudy,29,29,39,26,100,84,30.07 Steady ,26,5,NE,2
Wed Feb  3 15:46:34 2010," US and USA, NY and New York, New York, 10001",Cloudy,31,31,38,26,100,83,30.08 Steady ,27,6,NE,2
Wed Feb  3 16:32:26 2010," US and USA, NY and New York, New York, 10001",Cloudy,32,32,38,26,30,80,30.08 Steady ,27,6,ENE,2
Wed Feb  3 17:19:37 2010," US and USA, NY and New York, New York, 10001",Cloudy,34,29,38,26,30,79,30.06 Falling Rapidly ,28,7,W,5
Wed Feb  3 18:07:54 2010," US and USA, NY and New York, New York, 10001",Cloudy,35,28,38,26,30,76,30.06 Steady ,28,8,W,8
Wed Feb  3 18:51:02 2010," US and USA, NY and New York, New York, 10001",Partly Cloudy,35,29,37,26,30,75,30.03 Steady ,28,9,WNW,7
Wed Feb  3 19:35:18 2010," US and USA, NY and New York, New York, 10001",Mostly Cloudy,36,32,37,26,20,71,30.01 Falling ,28,9,WNW,5
Wed Feb  3 20:19:22 2010," US and USA, NY and New York, New York, 10001",Mostly Cloudy,38,32,37,26,20,65,30.00 Falling ,27,10,WNW,10
Wed Feb  3 21:03:41 2010," US and USA, NY and New York, New York, 10001",Mostly Cloudy,38,30,37,26,20,67,30.00 Steady ,28,10,WNW,12
Wed Feb  3 21:51:46 2010," US and USA, NY and New York, New York, 10001",Cloudy,38,31,37,26,10,61,30.00 Steady ,25,10,NW,11
Wed Feb  3 22:37:19 2010," US and USA, NY and New York, New York, 10001",Mostly Cloudy,37,28,37,26,10,58,30.01 Rising ,23,9,WNW,15
Wed Feb  3 23:28:14 2010," US and USA, NY and New York, New York, 10001",Mostly Cloudy,37,28,37,26,10,57,30.03 Rising Rapidly ,23,10,NW,14
Thu Feb  4 00:13:10 2010," US and USA, NY and New York, New York, 10001",Cloudy,36,28,37,26,20,54,30.06 Rising Rapidly ,21,10,NW,13to20
Thu Feb  4 00:57:13 2010," US and USA, NY and New York, New York, 10001",Cloudy,36,28,37,26,20,52,30.06 Steady ,20,10,NW,13to22
Thu Feb  4 01:40:31 2010," US and USA, NY and New York, New York, 10001",Mostly Clear,35,26,37,26,20,54,30.09 Steady ,20,10,WNW,14to17
Thu Feb  4 02:28:15 2010," US and USA, NY and New York, New York, 10001",Clear,34,26,37,26,20,56,30.12 Rising Rapidly ,20,10,NW,13to18
Thu Feb  4 03:11:26 2010," US and USA, NY and New York, New York, 10001",Clear,34,25,37,26,20,57,30.13 Rising ,20,10,NW,13
Thu Feb  4 03:55:53 2010," US and USA, NY and New York, New York, 10001",Clear,34,25,37,26,20,57,30.13 Steady ,20,10,NW,12
Thu Feb  4 04:39:09 2010," US and USA, NY and New York, New York, 10001",Mostly Clear,33,25,37,26,20,58,30.14 Rising ,20,10,NW,12
Thu Feb  4 05:22:32 2010," US and USA, NY and New York, New York, 10001",Mostly Clear,32,22,37,26,0,58,30.16 Rising Rapidly ,19,10,NW,15to25
Thu Feb  4 15:00:07 2010," US and USA, NY and New York, New York, 10001",Mostly Sunny,30,18,36,24,0,37,30.33 Steady ,11,10,NW,17to31
Thu Jan 28 15:39:46 2010," US and USA, NY and New York, New York, 10001",Snow,31,24,40,17,30,93,30.05 Falling ,30,0.3,SSW,7
Thu Jan 28 16:00:34 2010," US and USA, NY and New York, New York, 10001",Snow,31,24,40,17,30,93,30.05 Falling ,30,0.3,SSW,7
Thu Jan 28 16:49:53 2010," US and USA, NY and New York, New York, 10001",Flurries,34,34,41,17,70,91,30.01 Falling Rapidly ,32,4,S,2
Thu Jan 28 17:14:07 2010," US and USA, NY and New York, New York, 10001",Cloudy,35,28,41,17,70,86,30.00 Steady ,31,8,SW,8
Thu Jan 28 17:30:08 2010," US and USA, NY and New York, New York, 10001",Cloudy,35,28,38,17,80,86,30.00 Steady ,31,8,SW,8
Fri Jan 29 08:42:20 2010," US and USA, NY and New York, New York, 10001",Clear,19,3,38,17,10,34,30.20 Steady ,-1,9,WNW,20to32
Fri Jan 29 09:26:15 2010," US and USA, NY and New York, New York, 10001",Clear,19,5,38,17,10,36,30.22 Rising Rapidly ,0,9,WNW,15to26
Fri Jan 29 11:58:18 2010," US and USA, NY and New York, New York, 10001",Clear,18,3,27,14,10,38,30.26 Steady ,0,9,WNW,14to24
Fri Jan 29 12:43:00 2010," US and USA, NY and New York, New York, 10001",Clear,18,2,27,14,10,39,30.27 Steady ,0,9,WNW,17to26
Fri Jan 29 13:30:43 2010," US and USA, NY and New York, New York, 10001",Mostly Sunny,17,-1,27,14,10,40,30.28 Rising ,0,9,WNW,21to32
Fri Jan 29 14:18:33 2010," US and USA, NY and New York, New York, 10001",Mostly Sunny,17,1,27,14,10,39,30.30 Rising Rapidly ,0,10,NW,19to28
Fri Jan 29 15:03:21 2010," US and USA, NY and New York, New York, 10001",Mostly Sunny,18,1,27,14,10,41,30.30 Steady ,2,9,NW,22
Fri Jan 29 15:48:53 2010," US and USA, NY and New York, New York, 10001",Partly Cloudy,18,1,27,14,10,37,30.30 Steady ,0,9,WNW,22to26
Fri Jan 29 16:36:42 2010," US and USA, NY and New York, New York, 10001",Partly Cloudy,19,3,27,14,10,32,30.31 Rising ,-1,10,NW,21to32
Fri Jan 29 17:21:07 2010," US and USA, NY and New York, New York, 10001",Partly Cloudy,20,4,27,14,10,31,30.29 Falling Rapidly ,-1,10,NW,20to30
Fri Jan 29 18:09:35 2010," US and USA, NY and New York, New York, 10001",Partly Cloudy,21,5,25,14,10,30,30.29 Steady ,-1,10,NW,22to29
Fri Jan 29 18:54:34 2010," US and USA, NY and New York, New York, 10001",Mostly Cloudy,21,6,25,14,10,29,30.26 Steady ,-2,10,WNW,19to27
Fri Jan 29 19:46:33 2010," US and USA, NY and New York, New York, 10001",Partly Cloudy,22,7,25,14,10,28,30.24 Steady ,-2,10,WNW,19to26
Fri Jan 29 20:44:23 2010," US and USA, NY and New York, New York, 10001",Partly Cloudy,23,8,25,14,10,29,30.22 Steady ,0,9,WNW,22to28
Fri Jan 29 21:28:59 2010," US and USA, NY and New York, New York, 10001",Partly Cloudy,24,9,25,14,10,29,30.23 Rising ,0,9,WNW,21to29
Fri Jan 29 22:15:36 2010," US and USA, NY and New York, New York, 10001",Mostly Sunny,24,10,25,14,10,28,30.24 Rising ,0,9,NW,17to29
Fri Jan 29 23:00:31 2010," US and USA, NY and New York, New York, 10001",Mostly Sunny,23,9,25,14,10,30,30.24 Steady ,0,8,NW,17to32
Fri Jan 29 23:44:47 2010," US and USA, NY and New York, New York, 10001",Mostly Clear,22,8,25,14,10,33,30.25 Steady ,2,8,NW,18to24
Sat Jan 30 00:28:52 2010," US and USA, NY and New York, New York, 10001",Mostly Clear,22,9,25,14,10,33,30.26 Rising ,2,9,NW,15
Sat Jan 30 01:13:01 2010," US and USA, NY and New York, New York, 10001",Mostly Clear,21,9,25,14,10,36,30.27 Rising ,2,9,WNW,13to18
Sat Jan 30 01:56:58 2010," US and USA, NY and New York, New York, 10001",Mostly Clear,21,8,25,14,10,40,30.27 Steady ,3,8,NW,13to23
Sat Jan 30 02:41:16 2010," US and USA, NY and New York, New York, 10001",Clear,20,7,25,14,10,37,30.28 Steady ,2,9,NW,14to24
Sat Jan 30 03:24:47 2010," US and USA, NY and New York, New York, 10001",Clear,19,6,25,14,10,42,30.29 Rising ,3,9,WNW,13to26
Sat Jan 30 04:08:43 2010," US and USA, NY and New York, New York, 10001",Clear,19,6,25,14,10,45,30.29 Steady ,4,8,WNW,13to26
Sat Jan 30 04:52:29 2010," US and USA, NY and New York, New York, 10001",Clear,18,3,25,14,10,42,30.30 Steady ,2,9,WNW,17to30
Sat Jan 30 05:36:13 2010," US and USA, NY and New York, New York, 10001",Mostly Clear,18,3,25,14,10,42,30.30 Steady ,2,9,NW,15to29
Sat Jan 30 06:20:19 2010," US and USA, NY and New York, New York, 10001",Mostly Clear,18,3,25,14,10,42,30.30 Steady ,2,9,NW,15to29
Sat Jan 30 07:06:18 2010," US and USA, NY and New York, New York, 10001",Partly Cloudy,17,4,25,14,10,41,30.30 Steady ,0,9,NW,12
Sat Jan 30 07:48:59 2010," US and USA, NY and New York, New York, 10001",Mostly Clear,16,1,25,14,10,40,30.30 Steady ,-1,9,WNW,15to29
Sat Jan 30 08:32:13 2010," US and USA, NY and New York, New York, 10001",Mostly Cloudy,16,2,25,14,10,42,30.31 Steady ,0,9,NW,14to27
Sat Jan 30 11:14:00 2010," US and USA, NY and New York, New York, 10001",Mostly Cloudy,16,1,25,16,10,41,30.29 Falling ,-1,10,NW,14to20
Sat Jan 30 12:01:49 2010," US and USA, NY and New York, New York, 10001",Mostly Cloudy,15,1,25,16,10,42,30.29 Steady ,-1,9,NW,14to22
Sat Jan 30 12:45:26 2010," US and USA, NY and New York, New York, 10001",Mostly Cloudy,15,1,25,16,10,38,30.29 Steady ,-3,10,NW,13to23
Sat Jan 30 13:28:39 2010," US and USA, NY and New York, New York, 10001",Mostly Cloudy,14,0,25,16,10,37,30.29 Steady ,-4,10,NW,12
Sat Jan 30 14:12:51 2010," US and USA, NY and New York, New York, 10001",Mostly Cloudy,14,1,25,16,10,34,30.30 Rising ,-5,10,NW,11
Sat Jan 30 14:57:07 2010," US and USA, NY and New York, New York, 10001",Mostly Cloudy,15,1,25,16,10,33,30.30 Steady ,-6,10,NW,11
Sat Jan 30 15:42:45 2010," US and USA, NY and New York, New York, 10001",Mostly Cloudy,15,1,25,16,10,31,30.29 Steady ,-6,10,NNW,13
Sat Jan 30 16:27:43 2010," US and USA, NY and New York, New York, 10001",Mostly Cloudy,15,1,25,16,10,31,30.29 Steady ,-6,10,NNW,14
Sat Jan 30 17:12:10 2010," US and USA, NY and New York, New York, 10001",Mostly Cloudy,17,6,25,16,10,30,30.25 Falling Rapidly ,-4,10,N,9
Sat Jan 30 17:55:21 2010," US and USA, NY and New York, New York, 10001",Mostly Cloudy,18,6,24,16,10,30,30.25 Steady ,-4,10,N,9
Sat Jan 30 18:39:20 2010," US and USA, NY and New York, New York, 10001",Cloudy,18,7,24,16,10,33,30.21 Steady ,-2,10,N,9
Sat Jan 30 19:22:38 2010," US and USA, NY and New York, New York, 10001",Cloudy,18,8,24,16,10,34,30.18 Falling Rapidly ,-1,10,N,8
Sat Jan 30 20:06:54 2010," US and USA, NY and New York, New York, 10001",Cloudy,18,7,24,16,10,35,30.18 Steady ,-1,10,N,10
Sat Jan 30 20:49:59 2010," US and USA, NY and New York, New York, 10001",Cloudy,19,8,24,16,10,33,30.17 Steady ,-1,10,NNW,9
Sat Jan 30 21:33:45 2010," US and USA, NY and New York, New York, 10001",Cloudy,20,9,24,16,20,34,30.15 Steady ,0,10,N,9
Sat Jan 30 22:17:17 2010," US and USA, NY and New York, New York, 10001",Cloudy,20,9,24,16,20,34,30.15 Steady ,0,10,N,10
Sat Jan 30 23:02:43 2010," US and USA, NY and New York, New York, 10001",Cloudy,20,8,24,16,20,35,30.14 Steady ,0,9,N,11
Sat Jan 30 23:47:37 2010," US and USA, NY and New York, New York, 10001",Cloudy,19,6,24,16,20,37,30.12 Steady ,1,10,NNE,13to18
Sun Jan 31 00:31:36 2010," US and USA, NY and New York, New York, 10001",Cloudy,20,7,24,16,20,36,30.12 Steady ,1,10,NNE,12
Sun Jan 31 01:22:02 2010," US and USA, NY and New York, New York, 10001",Cloudy,19,6,24,16,20,35,30.09 Falling Rapidly ,0,10,N,14
Sun Jan 31 02:06:02 2010," US and USA, NY and New York, New York, 10001",Cloudy,19,6,24,16,20,34,30.09 Steady ,-1,10,N,15
Sun Jan 31 02:49:26 2010," US and USA, NY and New York, New York, 10001",Cloudy,19,6,24,16,20,38,30.06 Steady ,1,10,NNE,14
Sun Jan 31 03:33:22 2010," US and USA, NY and New York, New York, 10001",Cloudy,19,6,24,16,20,38,30.04 Steady ,1,10,N,13
Sun Jan 31 04:17:09 2010," US and USA, NY and New York, New York, 10001",Cloudy,19,7,24,16,20,39,30.03 Falling ,2,10,N,12to21
Sun Jan 31 05:01:25 2010," US and USA, NY and New York, New York, 10001",Cloudy,19,6,24,16,20,39,30.03 Steady ,1,10,N,13to19
Sun Jan 31 05:47:49 2010," US and USA, NY and New York, New York, 10001",Cloudy,19,5,24,16,20,39,30.01 Steady ,2,10,N,15to18
Sun Jan 31 06:32:40 2010," US and USA, NY and New York, New York, 10001",Cloudy,19,6,24,16,0,39,30.00 Falling ,1,10,N,12
Sun Jan 31 07:15:32 2010," US and USA, NY and New York, New York, 10001",Cloudy,18,6,24,16,0,39,30.00 Steady ,1,10,N,11to16
Sun Jan 31 08:02:15 2010," US and USA, NY and New York, New York, 10001",Cloudy,18,6,24,16,0,39,30.00 Steady ,1,10,N,11to18
Sun Jan 31 08:46:56 2010," US and USA, NY and New York, New York, 10001",Mostly Cloudy,18,5,24,16,0,40,30.00 Steady ,1,10,N,12to17
Sun Jan 31 09:30:11 2010," US and USA, NY and New York, New York, 10001",Mostly Cloudy,17,4,32,22,0,40,30.01 Rising ,1,10,N,12
Sun Jan 31 10:13:22 2010," US and USA, NY and New York, New York, 10001",Partly Cloudy,17,5,32,22,10,41,30.03 Rising Rapidly ,1,10,N,11
Sun Jan 31 10:57:09 2010," US and USA, NY and New York, New York, 10001",Partly Cloudy,17,5,32,22,10,40,30.03 Steady ,0,10,N,11
Sun Jan 31 11:40:41 2010," US and USA, NY and New York, New York, 10001",Partly Cloudy,16,3,32,22,10,40,30.05 Rising Rapidly ,0,10,N,12to19
Sun Jan 31 12:24:15 2010," US and USA, NY and New York, New York, 10001",Partly Cloudy,15,2,32,22,10,41,30.07 Rising Rapidly ,-1,10,N,12
Sun Jan 31 13:07:39 2010," US and USA, NY and New York, New York, 10001",Partly Cloudy,15,1,32,22,10,41,30.07 Steady ,-1,10,N,12
Sun Jan 31 13:51:15 2010," US and USA, NY and New York, New York, 10001",Partly Cloudy,15,3,32,22,10,43,30.08 Steady ,-1,10,NNW,9to18
Sun Jan 31 14:34:03 2010," US and USA, NY and New York, New York, 10001",Partly Cloudy,16,5,32,22,10,40,30.12 Steady ,-1,10,NNW,9
Sun Jan 31 15:18:09 2010," US and USA, NY and New York, New York, 10001",Partly Cloudy,17,7,32,22,10,38,30.12 Steady ,-1,10,NNW,8
Sun Jan 31 16:01:41 2010," US and USA, NY and New York, New York, 10001",Partly Cloudy,18,8,32,22,10,37,30.12 Steady ,-1,10,NNW,8
Sun Jan 31 16:51:29 2010," US and USA, NY and New York, New York, 10001",Mostly Sunny,21,8,31,22,10,34,30.13 Steady ,0,10,NNW,12
Sun Jan 31 17:35:06 2010," US and USA, NY and New York, New York, 10001",Mostly Sunny,23,15,31,22,10,30,30.13 Steady ,1,10,NNW,7
Sun Jan 31 18:20:06 2010," US and USA, NY and New York, New York, 10001",Sunny,24,18,31,22,10,29,30.13 Steady ,1,10,NNW,5
Sun Jan 31 19:03:54 2010," US and USA, NY and New York, New York, 10001",Sunny,25,19,30,22,10,28,30.13 Steady ,1,10,NNW,4
Sun Jan 31 19:49:23 2010," US and USA, NY and New York, New York, 10001",Sunny,27,20,30,22,10,28,30.10 Steady ,3,10,WNW,5
Sun Jan 31 20:32:13 2010," US and USA, NY and New York, New York, 10001",Sunny,28,21,30,22,10,25,30.09 Steady ,2,9,WSW,7
Sun Jan 31 21:16:51 2010," US and USA, NY and New York, New York, 10001",Sunny,30,21,30,22,0,23,30.08 Falling ,2,9,W,9
Sun Jan 31 21:59:39 2010," US and USA, NY and New York, New York, 10001",Sunny,30,21,30,22,0,24,30.08 Steady ,3,8,W,10
Sun Jan 31 22:44:28 2010," US and USA, NY and New York, New York, 10001",Sunny,29,21,30,22,0,26,30.08 Steady ,4,7,W,9
Sun Jan 31 23:27:48 2010," US and USA, NY and New York, New York, 10001",Sunny,29,19,30,22,0,25,30.08 Steady ,3,8,WSW,11
Mon Feb  1 00:11:46 2010," US and USA, NY and New York, New York, 10001",Clear,28,18,30,22,0,26,30.10 Rising Rapidly ,3,8,WSW,11
Mon Feb  1 00:54:41 2010," US and USA, NY and New York, New York, 10001",Clear,28,18,30,22,0,29,30.10 Steady ,4,7,WSW,11
Mon Feb  1 01:40:58 2010," US and USA, NY and New York, New York, 10001",Clear,28,19,30,22,0,24,30.10 Steady ,2,9,WSW,10
Mon Feb  1 02:24:59 2010," US and USA, NY and New York, New York, 10001",Clear,29,18,30,22,0,23,30.11 Rising ,1,10,WSW,13to16
Mon Feb  1 03:08:39 2010," US and USA, NY and New York, New York, 10001",Clear,28,17,30,22,0,24,30.11 Steady ,1,9,WSW,14to18
Mon Feb  1 03:53:19 2010," US and USA, NY and New York, New York, 10001",Clear,28,18,30,22,0,26,30.12 Steady ,2,10,W,10
Mon Feb  1 04:38:08 2010," US and USA, NY and New York, New York, 10001",Partly Cloudy,27,18,30,22,0,28,30.11 Falling ,3,10,WSW,10
Mon Feb  1 05:21:17 2010," US and USA, NY and New York, New York, 10001",Mostly Clear,26,16,30,22,0,30,30.12 Rising ,4,9,SW,10
Mon Feb  1 06:06:10 2010," US and USA, NY and New York, New York, 10001",Mostly Clear,26,16,30,22,0,30,30.12 Steady ,4,9,SW,11
Mon Feb  1 06:49:20 2010," US and USA, NY and New York, New York, 10001",Partly Cloudy,26,16,30,22,0,31,30.12 Steady ,4,10,WSW,11
Mon Feb  1 07:33:10 2010," US and USA, NY and New York, New York, 10001",Clear,26,15,30,22,0,33,30.13 Steady ,5,10,WSW,13to16
Mon Feb  1 08:16:34 2010," US and USA, NY and New York, New York, 10001",Clear,27,16,30,22,0,30,30.13 Steady ,5,10,WSW,13to17
Mon Feb  1 09:00:02 2010," US and USA, NY and New York, New York, 10001",Clear,25,14,30,22,0,33,30.14 Steady ,4,10,W,11to19
Mon Feb  1 09:42:59 2010," US and USA, NY and New York, New York, 10001",Clear,25,13,37,24,10,38,30.16 Steady ,6,9,W,12
Mon Feb  1 10:26:33 2010," US and USA, NY and New York, New York, 10001",Clear,24,13,37,24,10,37,30.17 Rising ,6,9,W,12
Mon Feb  1 11:09:29 2010," US and USA, NY and New York, New York, 10001",Clear,25,14,37,24,10,37,30.17 Steady ,6,9,W,12
Mon Feb  1 11:52:57 2010," US and USA, NY and New York, New York, 10001",Clear,25,13,37,24,10,35,30.20 Steady ,6,10,W,14
Mon Feb  1 12:36:19 2010," US and USA, NY and New York, New York, 10001",Clear,25,13,36,24,10,41,30.21 Rising ,8,10,W,13
Mon Feb  1 13:19:50 2010," US and USA, NY and New York, New York, 10001",Sunny,25,14,36,24,10,37,30.21 Steady ,7,10,W,14
Mon Feb  1 14:03:45 2010," US and USA, NY and New York, New York, 10001",Sunny,26,16,36,24,10,38,30.24 Steady ,8,10,W,12
Mon Feb  1 14:48:48 2010," US and USA, NY and New York, New York, 10001",Sunny,28,17,36,24,10,39,30.27 Steady ,10,10,WSW,13to21
Mon Feb  1 15:32:32 2010," US and USA, NY and New York, New York, 10001",Mostly Sunny,29,19,36,24,10,35,30.29 Steady ,9,10,W,12to17
Mon Feb  1 16:17:15 2010," US and USA, NY and New York, New York, 10001",Mostly Sunny,30,20,36,24,10,32,30.29 Steady ,9,10,W,13to17
Mon Feb  1 17:02:03 2010," US and USA, NY and New York, New York, 10001",Partly Cloudy,30,19,36,24,10,34,30.30 Steady ,10,10,W,16
Mon Feb  1 17:45:50 2010," US and USA, NY and New York, New York, 10001",Sunny,31,21,35,24,10,33,30.28 Steady ,10,10,WNW,15
Mon Feb  1 18:29:20 2010," US and USA, NY and New York, New York, 10001",Mostly Sunny,33,23,35,24,10,40,30.25 Falling Rapidly ,11,10,WNW,13to17
Mon Feb  1 19:13:07 2010," US and USA, NY and New York, New York, 10001",Partly Cloudy,34,25,35,24,10,37,30.24 Falling ,9,10,W,11
Mon Feb  1 19:57:56 2010," US and USA, NY and New York, New York, 10001",Partly Cloudy,34,25,35,24,10,37,30.24 Steady ,10,10,W,11
Mon Feb  1 20:44:21 2010," US and USA, NY and New York, New York, 10001",Partly Cloudy,34,27,35,24,10,37,30.21 Steady ,10,10,W,10
Mon Feb  1 21:29:21 2010," US and USA, NY and New York, New York, 10001",Partly Cloudy,35,26,35,24,20,35,30.22 Rising ,10,10,WSW,14to20
Mon Feb  1 22:12:42 2010," US and USA, NY and New York, New York, 10001",Partly Cloudy,35,27,35,24,20,35,30.22 Steady ,10,9,W,12
Mon Feb  1 22:56:02 2010," US and USA, NY and New York, New York, 10001",Partly Cloudy,34,25,35,24,20,38,30.22 Steady ,11,7,W,12
Mon Feb  1 23:42:08 2010," US and USA, NY and New York, New York, 10001",Partly Cloudy,33,25,35,24,20,41,30.22 Steady ,12,7,WSW,10
Tue Feb  2 00:29:03 2010," US and USA, NY and New York, New York, 10001",Partly Cloudy,33,26,35,24,20,40,30.23 Rising ,11,9,W,9
Tue Feb  2 01:14:39 2010," US and USA, NY and New York, New York, 10001",Partly Cloudy,32,24,35,24,20,44,30.23 Steady ,12,7,W,9
Tue Feb  2 01:57:46 2010," US and USA, NY and New York, New York, 10001",Mostly Cloudy,33,27,35,24,20,40,30.23 Steady ,11,9,W,8
Tue Feb  2 02:41:49 2010," US and USA, NY and New York, New York, 10001",Partly Cloudy,32,24,35,24,20,43,30.24 Steady ,12,9,WSW,10to19
Tue Feb  2 03:25:20 2010," US and USA, NY and New York, New York, 10001",Mostly Cloudy,32,23,35,24,20,35,30.23 Falling ,11,9,WSW,10
Tue Feb  2 04:09:08 2010," US and USA, NY and New York, New York, 10001",Mostly Cloudy,31,23,35,24,20,34,30.23 Steady ,11,9,W,9
Tue Feb  2 04:52:40 2010," US and USA, NY and New York, New York, 10001",Mostly Cloudy,31,23,35,24,20,37,30.24 Steady ,12,10,WSW,10
Tue Feb  2 05:36:02 2010," US and USA, NY and New York, New York, 10001",Mostly Cloudy,31,22,35,24,20,39,30.24 Steady ,12,10,WSW,9
Tue Feb  2 06:19:22 2010," US and USA, NY and New York, New York, 10001",Mostly Cloudy,31,22,35,24,20,36,30.24 Steady ,11,10,W,9
Tue Feb  2 07:06:29 2010," US and USA, NY and New York, New York, 10001",Partly Cloudy,31,23,35,24,20,37,30.26 Steady ,11,10,W,9
Tue Feb  2 07:49:28 2010," US and USA, NY and New York, New York, 10001",Partly Cloudy,29,21,35,24,20,40,30.25 Steady ,12,10,W,8
Tue Feb  2 08:32:40 2010," US and USA, NY and New York, New York, 10001",Partly Cloudy,30,22,35,24,20,38,30.27 Steady ,11,10,WNW,8
Tue Feb  2 09:16:10 2010," US and USA, NY and New York, New York, 10001",Partly Cloudy,30,22,35,24,20,37,30.27 Steady ,10,10,WNW,7
Tue Feb  2 09:59:42 2010," US and USA, NY and New York, New York, 10001",Mostly Clear,29,21,35,29,30,43,30.27 Steady ,12,9,WNW,7
Tue Feb  2 10:43:16 2010," US and USA, NY and New York, New York, 10001",Clear,28,22,35,29,30,44,30.26 Steady ,12,9,NW,6
Tue Feb  2 11:27:23 2010," US and USA, NY and New York, New York, 10001",Partly Cloudy,28,21,35,29,30,41,30.27 Rising ,11,10,NNW,7
Tue Feb  2 12:11:24 2010," US and USA, NY and New York, New York, 10001",Partly Cloudy,27,19,35,29,30,46,30.27 Steady ,12,8,NNW,8
Tue Feb  2 12:55:17 2010," US and USA, NY and New York, New York, 10001",Mostly Sunny,26,17,35,29,30,45,30.28 Steady ,11,8,N,9
Tue Feb  2 13:38:38 2010," US and USA, NY and New York, New York, 10001",Partly Cloudy,27,27,35,29,30,41,30.29 Steady ,10,9,N,3
Tue Feb  2 14:22:17 2010," US and USA, NY and New York, New York, 10001",Mostly Cloudy,28,28,35,29,30,37,30.29 Steady ,10,10,NNW,3
Tue Feb  2 15:06:39 2010," US and USA, NY and New York, New York, 10001",Mostly Cloudy,30,30,35,29,30,37,30.29 Steady ,11,10,NNW,3
Tue Feb  2 15:53:03 2010," US and USA, NY and New York, New York, 10001",Cloudy,31,26,34,29,30,32,30.30 Steady ,9,10,NNE,5
Tue Feb  2 16:45:33 2010," US and USA, NY and New York, New York, 10001",Cloudy,29,25,34,29,30,37,30.29 Falling ,11,10,NE,4
Tue Feb  2 17:34:01 2010," US and USA, NY and New York, New York, 10001",Cloudy,32,26,34,29,30,32,30.27 Steady ,10,10,E,7
Tue Feb  2 18:18:37 2010," US and USA, NY and New York, New York, 10001",Cloudy,33,27,34,29,30,39,30.27 Steady ,10,10,E,6
Tue Feb  2 19:02:47 2010," US and USA, NY and New York, New York, 10001",Cloudy,33,29,34,29,30,42,30.24 Steady ,12,10,ENE,4
Tue Feb  2 19:52:12 2010," US and USA, NY and New York, New York, 10001",Cloudy,33,33,34,29,30,39,30.23 Steady ,11,10,ESE,4
Tue Feb  2 20:43:21 2010," US and USA, NY and New York, New York, 10001",Cloudy,34,29,34,29,30,42,30.21 Steady ,13,10,SE,5
Tue Feb  2 21:30:12 2010," US and USA, NY and New York, New York, 10001",Cloudy,33,27,34,29,30,46,30.22 Rising ,14,10,S,7
Tue Feb  2 22:18:35 2010," US and USA, NY and New York, New York, 10001",Cloudy,33,29,34,29,100,48,30.21 Falling ,16,10,SSE,5
Tue Feb  2 23:02:53 2010," US and USA, NY and New York, New York, 10001",Cloudy,33,28,34,29,100,55,30.21 Steady ,18,7,SE,5
Tue Feb  2 23:48:11 2010," US and USA, NY and New York, New York, 10001",Cloudy,32,27,34,29,100,60,30.19 Steady ,20,8,ESE,6
Wed Feb  3 00:32:36 2010," US and USA, NY and New York, New York, 10001",Cloudy,33,28,34,29,100,60,30.18 Steady ,21,8,ESE,5
Wed Feb  3 01:19:47 2010," US and USA, NY and New York, New York, 10001",Cloudy,32,26,34,29,100,58,30.17 Falling ,21,9,E,6
Wed Feb  3 02:04:59 2010," US and USA, NY and New York, New York, 10001",Cloudy,32,28,34,29,100,62,30.17 Steady ,22,6,ESE,4
Wed Feb  3 02:53:17 2010," US and USA, NY and New York, New York, 10001",Cloudy,31,25,34,29,100,63,30.17 Steady ,22,5,ESE,7
Wed Feb  3 03:40:06 2010," US and USA, NY and New York, New York, 10001",Snow Showers,30,25,34,29,100,75,30.16 Steady ,24,2.6,ENE,5
Wed Feb  3 04:28:15 2010," US and USA, NY and New York, New York, 10001",Snow Showers,30,25,34,29,100,77,30.14 Falling Rapidly ,25,0.8,NE,5
Wed Feb  3 05:15:05 2010," US and USA, NY and New York, New York, 10001",Snow Showers,30,24,34,29,100,79,30.14 Steady ,25,0.8,NE,5
Wed Feb  3 06:02:53 2010," US and USA, NY and New York, New York, 10001",Snow,29,23,34,29,60,84,30.12 Falling ,25,0.3,NE,5
Thu Feb  4 06:05:23 2010," US and USA, NY and New York, New York, 10001",Mostly Clear,32,22,37,26,0,59,30.16 Steady ,19,10,NW,14to25
Thu Feb  4 06:48:27 2010," US and USA, NY and New York, New York, 10001",Clear,32,23,37,26,0,54,30.16 Steady ,19,10,WNW,11
Thu Feb  4 07:32:05 2010," US and USA, NY and New York, New York, 10001",Clear,31,23,37,26,0,57,30.17 Steady ,20,10,WNW,10
Thu Feb  4 08:14:36 2010," US and USA, NY and New York, New York, 10001",Clear,31,23,37,26,0,57,30.17 Steady ,20,10,WNW,10
Thu Feb  4 08:58:16 2010," US and USA, NY and New York, New York, 10001",Clear,31,21,37,26,0,53,30.18 Steady ,19,10,W,13to17
Thu Feb  4 09:42:13 2010," US and USA, NY and New York, New York, 10001",Clear,31,21,36,24,0,50,30.20 Rising Rapidly ,18,10,WNW,13to18
Thu Feb  4 10:25:51 2010," US and USA, NY and New York, New York, 10001",Partly Cloudy,31,21,36,24,0,50,30.20 Steady ,18,10,WNW,14
Thu Feb  4 11:11:47 2010," US and USA, NY and New York, New York, 10001",Mostly Clear,31,19,36,24,0,46,30.22 Rising Rapidly ,16,10,NW,17to21
Thu Feb  4 11:55:19 2010," US and USA, NY and New York, New York, 10001",Mostly Clear,31,19,36,24,0,46,30.22 Steady ,16,10,NW,17to21
Thu Feb  4 12:38:24 2010," US and USA, NY and New York, New York, 10001",Clear,30,19,36,24,0,46,30.27 Rising Rapidly ,15,10,WNW,15to23
Thu Feb  4 13:22:28 2010," US and USA, NY and New York, New York, 10001",Sunny,29,18,36,24,0,45,30.30 Rising Rapidly ,13,10,WNW,13to17
Thu Feb  4 14:07:18 2010," US and USA, NY and New York, New York, 10001",Sunny,28,18,36,24,0,47,30.30 Steady ,14,9,NW,13to21
Wed Feb  3 06:49:38 2010," US and USA, NY and New York, New York, 10001",Snow Showers,29,24,34,29,60,86,30.10 Steady ,26,0.8,NNE,5
Wed Feb  3 07:34:26 2010," US and USA, OH and Ohio, Columbus, 43085",Cloudy,33,25,37,28,10,79,30.03 Steady ,27,6,WNW,12
Wed Feb  3 08:17:33 2010," US and USA, OH and Ohio, Columbus, 43085",Cloudy,33,24,37,28,10,81,30.03 Steady ,28,6,WNW,12to16
Wed Feb  3 09:04:04 2010," US and USA, OH and Ohio, Columbus, 43085",Cloudy,33,24,37,28,10,78,30.05 Steady ,27,5,W,12
Wed Feb  3 09:47:53 2010," US and USA, OH and Ohio, Columbus, 43085",Cloudy,33,24,32,23,10,83,30.06 Steady ,28,5,WNW,12
Wed Feb  3 10:31:18 2010," US and USA, OH and Ohio, Columbus, 43085",Cloudy,34,26,32,23,30,81,30.08 Steady ,28,5,WNW,10
Wed Feb  3 11:18:10 2010," US and USA, OH and Ohio, Columbus, 43085",Snow Showers,32,23,32,23,30,88,30.11 Rising ,29,3,W,12
Wed Feb  3 12:02:54 2010," US and USA, OH and Ohio, Columbus, 43085",Cloudy,32,23,32,23,30,87,30.11 Steady ,29,5,WNW,11
Wed Feb  3 12:46:05 2010," US and USA, OH and Ohio, Columbus, 43085",Cloudy,32,24,32,23,30,86,30.13 Steady ,29,5,WNW,10
Wed Feb  3 13:29:49 2010," US and USA, OH and Ohio, Columbus, 43085",Cloudy,32,25,32,23,30,88,30.14 Rising ,29,4,W,8
Wed Feb  3 14:15:57 2010," US and USA, OH and Ohio, Columbus, 43085",Cloudy,31,22,32,23,30,87,30.15 Rising ,28,3,WNW,10
Wed Feb  3 15:01:57 2010," US and USA, OH and Ohio, Columbus, 43085",Cloudy,30,23,32,23,20,83,30.16 Rising ,26,5,WNW,8
Wed Feb  3 15:46:45 2010," US and USA, OH and Ohio, Columbus, 43085",Cloudy,32,25,33,23,20,79,30.18 Rising ,26,5,WNW,9
Wed Feb  3 16:32:38 2010," US and USA, OH and Ohio, Columbus, 43085",Mostly Cloudy,33,25,33,23,10,75,30.20 Rising Rapidly ,26,4,W,10
Wed Feb  3 17:19:49 2010," US and USA, OH and Ohio, Columbus, 43085",Cloudy,33,25,33,23,10,75,30.22 Rising Rapidly ,26,4,WNW,10
Wed Feb  3 18:08:07 2010," US and USA, OH and Ohio, Columbus, 43085",Cloudy,35,26,33,23,10,70,30.22 Steady ,26,5,WNW,12
Wed Feb  3 18:51:14 2010," US and USA, OH and Ohio, Columbus, 43085",Cloudy,35,25,34,23,10,68,30.22 Steady ,25,5,WNW,14
Wed Feb  3 19:35:29 2010," US and USA, OH and Ohio, Columbus, 43085",Cloudy,35,26,34,23,10,65,30.21 Steady ,24,7,W,12
Wed Feb  3 20:19:34 2010," US and USA, OH and Ohio, Columbus, 43085",Cloudy,34,25,34,23,10,70,30.22 Rising ,25,7,W,13
Wed Feb  3 21:03:53 2010," US and USA, OH and Ohio, Columbus, 43085",Cloudy,33,24,34,23,10,71,30.22 Steady ,25,7,W,14
Wed Feb  3 21:51:58 2010," US and USA, OH and Ohio, Columbus, 43085",Cloudy,34,26,34,23,10,69,30.22 Steady ,25,7,W,11
Wed Feb  3 22:37:31 2010," US and USA, OH and Ohio, Columbus, 43085",Cloudy,34,26,34,23,10,70,30.24 Rising ,25,6,W,10
Wed Feb  3 23:28:27 2010," US and USA, OH and Ohio, Columbus, 43085",Cloudy,32,25,34,23,10,75,30.25 Rising ,25,4,WNW,8
Thu Feb  4 00:13:22 2010," US and USA, OH and Ohio, Columbus, 43085",Cloudy,32,25,34,23,10,75,30.28 Rising Rapidly ,25,4,W,8
Thu Feb  4 00:57:24 2010," US and USA, OH and Ohio, Columbus, 43085",Cloudy,32,25,34,23,10,75,30.29 Rising ,25,5,WNW,8
Thu Feb  4 01:40:42 2010," US and USA, OH and Ohio, Columbus, 43085",Cloudy,31,25,34,23,10,74,30.30 Steady ,25,5,WNW,6
Thu Feb  4 02:28:26 2010," US and USA, OH and Ohio, Columbus, 43085",Cloudy,31,24,34,23,10,71,30.33 Rising Rapidly ,24,5,NNW,7
Thu Feb  4 03:11:38 2010," US and USA, OH and Ohio, Columbus, 43085",Cloudy,30,24,34,23,10,75,30.34 Steady ,24,5,NNW,6
Thu Feb  4 03:56:05 2010," US and USA, OH and Ohio, Columbus, 43085",Cloudy,31,26,34,23,10,74,30.34 Steady ,25,5,NNW,5
Thu Feb  4 04:39:21 2010," US and USA, OH and Ohio, Columbus, 43085",Cloudy,30,30,34,23,10,77,30.36 Steady ,25,5,NNW,3
Thu Feb  4 05:22:44 2010," US and USA, OH and Ohio, Columbus, 43085",Partly Cloudy,28,23,34,23,10,82,30.36 Steady ,24,3,NNW,5
Thu Feb  4 15:00:20 2010," US and USA, OH and Ohio, Columbus, 43085",Fog,21,21,37,29,0,100,30.41 Rising ,21,1,CALM,0
Thu Jan 28 15:39:58 2010," US and USA, OH and Ohio, Columbus, 43085",Sunny,21,5,22,12,30,63,30.19 Steady ,12,8,WNW,22to27
Thu Jan 28 16:00:47 2010," US and USA, OH and Ohio, Columbus, 43085",Sunny,21,5,22,12,30,63,30.19 Steady ,12,8,WNW,22to27
Thu Jan 28 16:50:05 2010," US and USA, OH and Ohio, Columbus, 43085",Mostly Cloudy,20,2,20,12,30,55,30.23 Steady ,9,10,WNW,26to33
Thu Jan 28 17:14:19 2010," US and USA, OH and Ohio, Columbus, 43085",Mostly Cloudy,19,4,20,12,30,62,30.27 Rising Rapidly ,10,10,WNW,16
Thu Jan 28 17:30:20 2010," US and USA, OH and Ohio, Columbus, 43085",Mostly Cloudy,19,4,20,12,30,62,30.27 Rising Rapidly ,10,10,WNW,16
Fri Jan 29 08:42:32 2010," US and USA, OH and Ohio, Columbus, 43085",Mostly Clear,10,-1,19,6,10,63,30.42 Steady ,1,10,N,7
Fri Jan 29 09:26:28 2010," US and USA, OH and Ohio, Columbus, 43085",Clear,8,-1,20,15,10,68,30.43 Rising ,1,10,N,5
Fri Jan 29 11:58:30 2010," US and USA, OH and Ohio, Columbus, 43085",Clear,8,-2,20,10,10,59,30.44 Steady ,-1,10,N,6
Fri Jan 29 12:43:12 2010," US and USA, OH and Ohio, Columbus, 43085",Partly Cloudy,9,-1,20,10,10,60,30.44 Steady ,0,10,NNW,6
Fri Jan 29 13:30:56 2010," US and USA, OH and Ohio, Columbus, 43085",Partly Cloudy,9,0,20,10,10,62,30.46 Steady ,0,10,NNW,5
Fri Jan 29 14:18:45 2010," US and USA, OH and Ohio, Columbus, 43085",Mostly Cloudy,9,-2,20,10,10,58,30.46 Steady ,-1,10,N,7
Fri Jan 29 15:03:33 2010," US and USA, OH and Ohio, Columbus, 43085",Cloudy,10,-1,20,10,10,54,30.46 Steady ,-1,10,N,8
Fri Jan 29 15:49:05 2010," US and USA, OH and Ohio, Columbus, 43085",Partly Cloudy,11,-1,20,10,10,45,30.46 Steady ,-3,10,NNE,8
Fri Jan 29 16:36:54 2010," US and USA, OH and Ohio, Columbus, 43085",Mostly Cloudy,11,1,20,10,10,52,30.46 Steady ,-1,10,NNE,6
Fri Jan 29 17:21:19 2010," US and USA, OH and Ohio, Columbus, 43085",Mostly Cloudy,12,0,20,10,10,49,30.49 Rising Rapidly ,-1,10,NNE,8
Fri Jan 29 18:09:48 2010," US and USA, OH and Ohio, Columbus, 43085",Mostly Cloudy,14,4,18,10,10,41,30.49 Steady ,-2,10,NE,7
Fri Jan 29 18:54:46 2010," US and USA, OH and Ohio, Columbus, 43085",Mostly Cloudy,15,2,18,10,10,46,30.49 Steady ,1,10,N,11
Fri Jan 29 19:46:45 2010," US and USA, OH and Ohio, Columbus, 43085",Partly Cloudy,15,4,17,12,10,46,30.45 Steady ,1,10,NNE,7
Fri Jan 29 20:44:35 2010," US and USA, OH and Ohio, Columbus, 43085",Partly Cloudy,16,16,17,12,10,46,30.43 Steady ,1,10,CALM,0
Fri Jan 29 21:29:11 2010," US and USA, OH and Ohio, Columbus, 43085",Partly Cloudy,16,5,17,12,10,47,30.41 Falling Rapidly ,2,10,NE,8
Fri Jan 29 22:15:48 2010," US and USA, OH and Ohio, Columbus, 43085",Partly Cloudy,15,6,17,12,10,49,30.38 Falling Rapidly ,2,10,NNE,6
Fri Jan 29 23:00:43 2010," US and USA, OH and Ohio, Columbus, 43085",Partly Cloudy,15,5,17,12,10,51,30.38 Steady ,2,10,NNE,7
Fri Jan 29 23:44:58 2010," US and USA, OH and Ohio, Columbus, 43085",Sunny,13,2,17,12,10,59,30.37 Steady ,4,9,N,8
Sat Jan 30 00:29:04 2010," US and USA, OH and Ohio, Columbus, 43085",Partly Cloudy,14,4,17,12,10,55,30.37 Steady ,3,10,NNE,7
Sat Jan 30 01:13:13 2010," US and USA, OH and Ohio, Columbus, 43085",Partly Cloudy,13,3,17,12,10,58,30.36 Falling ,3,10,NNE,7
Sat Jan 30 01:57:11 2010," US and USA, OH and Ohio, Columbus, 43085",Partly Cloudy,13,3,17,12,10,60,30.36 Steady ,3,10,NNE,7
Sat Jan 30 02:41:28 2010," US and USA, OH and Ohio, Columbus, 43085",Mostly Cloudy,13,3,17,12,10,62,30.36 Steady ,4,10,NNE,7
Sat Jan 30 03:24:59 2010," US and USA, OH and Ohio, Columbus, 43085",Clear,13,3,17,12,10,61,30.33 Falling Rapidly ,4,10,NNE,7
Sat Jan 30 04:08:55 2010," US and USA, OH and Ohio, Columbus, 43085",Clear,13,3,17,12,10,62,30.33 Steady ,4,10,NE,7
Sat Jan 30 04:52:41 2010," US and USA, OH and Ohio, Columbus, 43085",Mostly Cloudy,14,3,17,12,10,58,30.32 Steady ,4,10,NE,8
Sat Jan 30 05:36:27 2010," US and USA, OH and Ohio, Columbus, 43085",Mostly Cloudy,14,2,17,12,10,58,30.31 Steady ,4,10,ENE,10
Sat Jan 30 06:20:31 2010," US and USA, OH and Ohio, Columbus, 43085",Mostly Cloudy,14,2,17,12,10,58,30.31 Steady ,4,10,ENE,10
Sat Jan 30 07:06:30 2010," US and USA, OH and Ohio, Columbus, 43085",Mostly Cloudy,14,1,17,12,10,55,30.30 Steady ,3,10,ENE,12
Sat Jan 30 07:49:11 2010," US and USA, OH and Ohio, Columbus, 43085",Mostly Cloudy,14,0,17,12,10,54,30.27 Steady ,3,10,ENE,12
Sat Jan 30 08:32:25 2010," US and USA, OH and Ohio, Columbus, 43085",Mostly Cloudy,14,3,17,12,10,57,30.26 Steady ,4,10,ENE,8
Sat Jan 30 11:14:11 2010," US and USA, OH and Ohio, Columbus, 43085",Cloudy,15,0,23,14,10,52,30.17 Falling Rapidly ,3,10,ENE,14
Sat Jan 30 12:02:01 2010," US and USA, OH and Ohio, Columbus, 43085",Cloudy,15,0,23,14,10,51,30.17 Steady ,3,10,ENE,15to19
Sat Jan 30 12:45:38 2010," US and USA, OH and Ohio, Columbus, 43085",Cloudy,15,0,22,14,10,53,30.17 Steady ,4,10,ENE,16
Sat Jan 30 13:28:51 2010," US and USA, OH and Ohio, Columbus, 43085",Cloudy,15,1,22,14,10,58,30.13 Falling Rapidly ,5,10,ENE,13to18
Sat Jan 30 14:13:03 2010," US and USA, OH and Ohio, Columbus, 43085",Mostly Cloudy,15,2,22,14,10,61,30.14 Rising ,6,10,ENE,12
Sat Jan 30 14:57:19 2010," US and USA, OH and Ohio, Columbus, 43085",Cloudy,15,2,22,14,10,59,30.14 Steady ,6,10,ENE,12
Sat Jan 30 15:42:57 2010," US and USA, OH and Ohio, Columbus, 43085",Mostly Cloudy,15,1,23,14,10,59,30.14 Steady ,6,10,NE,14
Sat Jan 30 16:27:55 2010," US and USA, OH and Ohio, Columbus, 43085",Mostly Cloudy,16,1,23,14,10,57,30.14 Steady ,5,10,NE,15
Sat Jan 30 17:12:22 2010," US and USA, OH and Ohio, Columbus, 43085",Mostly Cloudy,18,5,23,14,10,55,30.14 Steady ,7,10,ENE,13
Sat Jan 30 17:55:32 2010," US and USA, OH and Ohio, Columbus, 43085",Mostly Cloudy,19,6,23,14,10,53,30.14 Steady ,7,10,NE,13
Sat Jan 30 18:39:32 2010," US and USA, OH and Ohio, Columbus, 43085",Mostly Sunny,20,5,22,14,10,51,30.14 Steady ,7,10,NE,17
Sat Jan 30 19:22:50 2010," US and USA, OH and Ohio, Columbus, 43085",Partly Cloudy,20,7,22,12,10,50,30.11 Falling Rapidly ,7,10,NE,13
Sat Jan 30 20:07:05 2010," US and USA, OH and Ohio, Columbus, 43085",Mostly Sunny,21,9,22,12,10,50,30.11 Steady ,8,10,NE,12
Sat Jan 30 20:50:10 2010," US and USA, OH and Ohio, Columbus, 43085",Mostly Sunny,22,10,22,12,10,45,30.08 Steady ,7,10,NE,14
Sat Jan 30 21:33:57 2010," US and USA, OH and Ohio, Columbus, 43085",Mostly Sunny,23,12,22,12,0,42,30.07 Steady ,7,10,ENE,11
Sat Jan 30 22:17:28 2010," US and USA, OH and Ohio, Columbus, 43085",Partly Cloudy,23,12,22,12,0,45,30.06 Falling ,8,10,N,10
Sat Jan 30 23:02:54 2010," US and USA, OH and Ohio, Columbus, 43085",Partly Cloudy,22,11,22,12,0,50,30.06 Steady ,9,9,N,11
Sat Jan 30 23:47:48 2010," US and USA, OH and Ohio, Columbus, 43085",Partly Cloudy,21,8,22,12,0,47,30.07 Steady ,7,9,N,14
Sun Jan 31 00:31:47 2010," US and USA, OH and Ohio, Columbus, 43085",Partly Cloudy,19,6,22,12,0,53,30.09 Steady ,8,9,N,13
Sun Jan 31 01:22:14 2010," US and USA, OH and Ohio, Columbus, 43085",Partly Cloudy,18,6,22,12,0,55,30.09 Steady ,7,10,N,10
Sun Jan 31 02:06:14 2010," US and USA, OH and Ohio, Columbus, 43085",Mostly Clear,17,5,22,12,0,61,30.09 Steady ,7,9,N,10
Sun Jan 31 02:49:38 2010," US and USA, OH and Ohio, Columbus, 43085",Mostly Clear,16,5,22,12,0,64,30.11 Steady ,8,9,N,9
Sun Jan 31 03:33:33 2010," US and USA, OH and Ohio, Columbus, 43085",Clear,15,3,22,12,0,68,30.11 Steady ,8,10,N,11
Sun Jan 31 04:17:21 2010," US and USA, OH and Ohio, Columbus, 43085",Clear,13,4,22,12,0,77,30.12 Rising ,8,10,N,6
Sun Jan 31 05:01:37 2010," US and USA, OH and Ohio, Columbus, 43085",Clear,12,3,22,12,0,80,30.12 Steady ,8,10,N,6
Sun Jan 31 05:48:00 2010," US and USA, OH and Ohio, Columbus, 43085",Clear,11,4,22,11,0,78,30.13 Steady ,7,10,N,4
Sun Jan 31 06:32:51 2010," US and USA, OH and Ohio, Columbus, 43085",Clear,11,11,22,11,10,81,30.14 Rising ,7,10,NNW,3
Sun Jan 31 07:15:43 2010," US and USA, OH and Ohio, Columbus, 43085",Partly Cloudy,12,12,22,11,10,76,30.13 Falling ,7,10,CALM,0
Sun Jan 31 08:02:27 2010," US and USA, OH and Ohio, Columbus, 43085",Mostly Clear,11,11,22,11,10,78,30.13 Steady ,7,10,CALM,0
Sun Jan 31 08:47:08 2010," US and USA, OH and Ohio, Columbus, 43085",Mostly Clear,10,3,22,11,10,82,30.15 Steady ,7,10,WNW,4
Sun Jan 31 09:30:22 2010," US and USA, OH and Ohio, Columbus, 43085",Partly Cloudy,11,11,26,16,0,81,30.16 Rising ,7,10,CALM,0
Sun Jan 31 10:13:34 2010," US and USA, OH and Ohio, Columbus, 43085",Clear,9,9,26,16,0,85,30.16 Steady ,6,10,W,3
Sun Jan 31 10:57:21 2010," US and USA, OH and Ohio, Columbus, 43085",Clear,9,9,26,16,0,84,30.16 Steady ,6,10,WSW,2
Sun Jan 31 11:40:52 2010," US and USA, OH and Ohio, Columbus, 43085",Clear,9,9,25,16,0,90,30.16 Steady ,7,10,W,3
Sun Jan 31 12:24:27 2010," US and USA, OH and Ohio, Columbus, 43085",Clear,9,9,26,16,0,85,30.17 Rising ,6,10,CALM,0
Sun Jan 31 13:07:50 2010," US and USA, OH and Ohio, Columbus, 43085",Clear,9,9,26,16,0,86,30.17 Steady ,6,10,WSW,1
Sun Jan 31 13:51:27 2010," US and USA, OH and Ohio, Columbus, 43085",Sunny,6,6,26,16,0,90,30.19 Steady ,4,10,SW,2
Sun Jan 31 14:34:15 2010," US and USA, OH and Ohio, Columbus, 43085",Partly Cloudy,10,10,26,16,0,81,30.22 Steady ,6,10,WSW,1
Sun Jan 31 15:18:21 2010," US and USA, OH and Ohio, Columbus, 43085",Mostly Cloudy,11,11,26,16,0,86,30.23 Rising ,8,10,CALM,0
Sun Jan 31 16:01:53 2010," US and USA, OH and Ohio, Columbus, 43085",Mostly Cloudy,13,13,26,16,0,82,30.23 Steady ,9,10,SSW,1
Sun Jan 31 16:51:41 2010," US and USA, OH and Ohio, Columbus, 43085",Mostly Sunny,18,7,25,16,0,67,30.23 Steady ,11,10,WSW,9
Sun Jan 31 17:35:18 2010," US and USA, OH and Ohio, Columbus, 43085",Mostly Sunny,21,10,25,16,0,60,30.24 Steady ,11,10,WSW,10
Sun Jan 31 18:20:18 2010," US and USA, OH and Ohio, Columbus, 43085",Partly Cloudy,21,9,24,16,0,65,30.22 Falling Rapidly ,13,10,WSW,12
Sun Jan 31 19:04:06 2010," US and USA, OH and Ohio, Columbus, 43085",Mostly Sunny,22,10,24,16,0,62,30.22 Steady ,13,10,WSW,12
Sun Jan 31 19:49:35 2010," US and USA, OH and Ohio, Columbus, 43085",Sunny,24,13,25,16,0,54,30.19 Steady ,12,10,WSW,12
Sun Jan 31 20:32:25 2010," US and USA, OH and Ohio, Columbus, 43085",Sunny,25,14,25,16,0,49,30.18 Steady ,12,10,SW,13to20
Sun Jan 31 21:17:03 2010," US and USA, OH and Ohio, Columbus, 43085",Mostly Sunny,26,15,25,16,0,50,30.17 Falling ,13,10,W,13
Sun Jan 31 21:59:51 2010," US and USA, OH and Ohio, Columbus, 43085",Sunny,26,15,25,16,10,50,30.17 Steady ,13,10,W,13
Sun Jan 31 22:44:39 2010," US and USA, OH and Ohio, Columbus, 43085",Sunny,27,15,25,16,10,46,30.17 Steady ,12,9,WSW,16
Sun Jan 31 23:28:00 2010," US and USA, OH and Ohio, Columbus, 43085",Sunny,28,17,25,9,10,41,30.18 Rising ,11,10,WSW,13
Mon Feb  1 00:11:58 2010," US and USA, OH and Ohio, Columbus, 43085",Clear,26,16,25,9,10,50,30.19 Rising ,13,10,WSW,10
Mon Feb  1 00:54:53 2010," US and USA, OH and Ohio, Columbus, 43085",Clear,25,15,25,9,10,55,30.19 Steady ,13,9,WSW,10
Mon Feb  1 01:41:10 2010," US and USA, OH and Ohio, Columbus, 43085",Clear,24,15,25,9,10,55,30.21 Steady ,13,10,WSW,9
Mon Feb  1 02:25:10 2010," US and USA, OH and Ohio, Columbus, 43085",Mostly Clear,23,15,25,9,10,59,30.23 Rising Rapidly ,13,10,W,7
Mon Feb  1 03:08:50 2010," US and USA, OH and Ohio, Columbus, 43085",Clear,22,13,25,9,10,59,30.23 Steady ,12,10,W,8
Mon Feb  1 03:53:31 2010," US and USA, OH and Ohio, Columbus, 43085",Clear,21,12,25,9,10,63,30.23 Steady ,13,10,W,8
Mon Feb  1 04:38:19 2010," US and USA, OH and Ohio, Columbus, 43085",Clear,19,12,25,9,10,66,30.26 Steady ,12,10,W,5
Mon Feb  1 05:21:28 2010," US and USA, OH and Ohio, Columbus, 43085",Clear,18,10,25,9,10,77,30.27 Rising ,13,10,W,6
Mon Feb  1 06:06:22 2010," US and USA, OH and Ohio, Columbus, 43085",Clear,18,9,25,9,20,77,30.27 Steady ,13,10,W,6
Mon Feb  1 06:49:31 2010," US and USA, OH and Ohio, Columbus, 43085",Clear,17,7,25,9,20,78,30.28 Steady ,12,10,WNW,7
Mon Feb  1 07:33:21 2010," US and USA, OH and Ohio, Columbus, 43085",Mostly Clear,19,19,25,9,20,74,30.28 Steady ,13,10,W,3
Mon Feb  1 08:16:46 2010," US and USA, OH and Ohio, Columbus, 43085",Mostly Clear,18,18,25,9,20,75,30.28 Steady ,13,10,W,3
Mon Feb  1 09:00:14 2010," US and USA, OH and Ohio, Columbus, 43085",Mostly Clear,16,10,25,9,20,74,30.30 Steady ,11,10,W,4
Mon Feb  1 09:43:11 2010," US and USA, OH and Ohio, Columbus, 43085",Clear,16,16,31,24,20,78,30.31 Steady ,12,9,WSW,4
Mon Feb  1 10:26:44 2010," US and USA, OH and Ohio, Columbus, 43085",Partly Cloudy,16,16,31,24,20,81,30.31 Steady ,12,8,CALM,0
Mon Feb  1 11:09:41 2010," US and USA, OH and Ohio, Columbus, 43085",Mostly Clear,15,15,31,24,20,81,30.31 Steady ,11,8,NNW,1
Mon Feb  1 11:53:08 2010," US and USA, OH and Ohio, Columbus, 43085",Mostly Clear,17,17,32,24,20,77,30.32 Steady ,12,8,N,1
Mon Feb  1 12:36:31 2010," US and USA, OH and Ohio, Columbus, 43085",Mostly Clear,15,15,32,24,20,80,30.32 Steady ,11,7,CALM,0
Mon Feb  1 13:20:02 2010," US and USA, OH and Ohio, Columbus, 43085",Partly Cloudy,13,13,32,24,20,90,30.30 Falling Rapidly ,11,9,CALM,0
Mon Feb  1 14:03:56 2010," US and USA, OH and Ohio, Columbus, 43085",Mostly Sunny,13,13,32,24,20,89,30.30 Steady ,11,9,CALM,0
Mon Feb  1 14:48:59 2010," US and USA, OH and Ohio, Columbus, 43085",Mostly Sunny,15,15,32,24,20,82,30.31 Steady ,11,6,CALM,0
Mon Feb  1 15:32:44 2010," US and USA, OH and Ohio, Columbus, 43085",Sunny,21,21,31,24,20,74,30.34 Steady ,15,7,SSE,1
Mon Feb  1 16:17:27 2010," US and USA, OH and Ohio, Columbus, 43085",Sunny,22,22,31,24,20,69,30.34 Steady ,15,8,SSE,1
Mon Feb  1 17:02:14 2010," US and USA, OH and Ohio, Columbus, 43085",Partly Cloudy,22,16,31,24,20,69,30.34 Steady ,15,7,SSE,5
Mon Feb  1 17:46:02 2010," US and USA, OH and Ohio, Columbus, 43085",Partly Cloudy,26,20,30,24,20,59,30.33 Steady ,16,7,S,5
Mon Feb  1 18:29:32 2010," US and USA, OH and Ohio, Columbus, 43085",Partly Cloudy,27,22,31,24,20,57,30.33 Steady ,16,7,S,5
Mon Feb  1 19:13:18 2010," US and USA, OH and Ohio, Columbus, 43085",Sunny,29,23,31,25,20,54,30.31 Falling Rapidly ,17,8,SSW,5
Mon Feb  1 19:58:08 2010," US and USA, OH and Ohio, Columbus, 43085",Sunny,30,30,31,25,20,53,30.31 Steady ,18,8,S,4
Mon Feb  1 20:44:33 2010," US and USA, OH and Ohio, Columbus, 43085",Partly Cloudy,32,32,31,25,20,50,30.27 Steady ,15,10,CALM,0
Mon Feb  1 21:29:33 2010," US and USA, OH and Ohio, Columbus, 43085",Sunny,32,32,31,25,30,52,30.25 Falling Rapidly ,16,10,CALM,0
Mon Feb  1 22:12:54 2010," US and USA, OH and Ohio, Columbus, 43085",Partly Cloudy,32,32,31,25,30,52,30.24 Falling ,16,10,CALM,0
Mon Feb  1 22:56:14 2010," US and USA, OH and Ohio, Columbus, 43085",Partly Cloudy,31,31,31,25,30,54,30.24 Steady ,19,7,NE,1
Mon Feb  1 23:42:20 2010," US and USA, OH and Ohio, Columbus, 43085",Partly Cloudy,32,32,31,25,30,46,30.24 Steady ,16,9,CALM,0
Tue Feb  2 00:29:15 2010," US and USA, OH and Ohio, Columbus, 43085",Partly Cloudy,32,32,31,25,30,52,30.23 Falling ,16,10,CALM,0
Tue Feb  2 01:14:51 2010," US and USA, OH and Ohio, Columbus, 43085",Partly Cloudy,30,30,31,25,30,48,30.22 Falling ,16,10,CALM,0
Tue Feb  2 01:57:58 2010," US and USA, OH and Ohio, Columbus, 43085",Partly Cloudy,27,27,31,25,30,60,30.22 Steady ,17,7,CALM,0
Tue Feb  2 02:42:01 2010," US and USA, OH and Ohio, Columbus, 43085",Mostly Clear,26,26,31,24,30,60,30.21 Steady ,16,8,E,4
Tue Feb  2 03:25:32 2010," US and USA, OH and Ohio, Columbus, 43085",Clear,26,26,31,24,30,63,30.19 Falling Rapidly ,17,9,ENE,3
Tue Feb  2 04:09:19 2010," US and USA, OH and Ohio, Columbus, 43085",Clear,24,18,31,24,30,72,30.19 Steady ,17,7,NE,4
Tue Feb  2 04:52:53 2010," US and USA, OH and Ohio, Columbus, 43085",Partly Cloudy,23,23,31,24,30,73,30.19 Steady ,17,7,CALM,0
Tue Feb  2 05:36:16 2010," US and USA, OH and Ohio, Columbus, 43085",Clear,24,24,31,24,30,69,30.18 Steady ,17,8,E,4
Tue Feb  2 06:19:33 2010," US and USA, OH and Ohio, Columbus, 43085",Clear,23,18,31,24,30,71,30.18 Steady ,17,7,E,4
Tue Feb  2 07:06:41 2010," US and USA, OH and Ohio, Columbus, 43085",Cloudy,25,25,31,24,30,67,30.17 Steady ,18,9,ENE,4
Tue Feb  2 07:49:40 2010," US and USA, OH and Ohio, Columbus, 43085",Cloudy,26,26,31,25,30,67,30.16 Steady ,19,9,ESE,4
Tue Feb  2 08:32:52 2010," US and USA, OH and Ohio, Columbus, 43085",Cloudy,27,22,31,25,30,64,30.15 Steady ,19,10,SE,5
Tue Feb  2 09:16:22 2010," US and USA, OH and Ohio, Columbus, 43085",Cloudy,28,28,37,28,40,70,30.15 Steady ,21,9,E,3
Tue Feb  2 09:59:53 2010," US and USA, OH and Ohio, Columbus, 43085",Snow Showers,27,22,37,28,40,73,30.15 Steady ,21,0.5,ESE,4
Tue Feb  2 10:43:28 2010," US and USA, OH and Ohio, Columbus, 43085",Cloudy,28,28,37,28,40,68,30.14 Steady ,21,8,S,1
Tue Feb  2 11:27:35 2010," US and USA, OH and Ohio, Columbus, 43085",Snow Showers,28,28,37,28,40,69,30.12 Falling Rapidly ,21,1.3,SE,3
Tue Feb  2 12:11:36 2010," US and USA, OH and Ohio, Columbus, 43085",Snow Showers,27,27,37,28,40,90,30.12 Steady ,25,0.8,CALM,0
Tue Feb  2 12:55:28 2010," US and USA, OH and Ohio, Columbus, 43085",Snow Showers,27,27,37,28,40,91,30.11 Falling ,25,1,CALM,0
Tue Feb  2 13:38:50 2010," US and USA, OH and Ohio, Columbus, 43085",Snow Showers,27,27,37,28,40,100,30.10 Falling ,27,2,ENE,3
Tue Feb  2 14:22:29 2010," US and USA, OH and Ohio, Columbus, 43085",Fog,28,23,37,28,40,91,30.09 Falling ,27,1.5,E,5
Tue Feb  2 15:06:51 2010," US and USA, OH and Ohio, Columbus, 43085",Fog,28,23,37,28,40,91,30.08 Falling ,27,2,ENE,5
Tue Feb  2 15:53:15 2010," US and USA, OH and Ohio, Columbus, 43085",Cloudy,29,29,37,28,40,89,30.08 Steady ,26,5,CALM,0
Tue Feb  2 16:45:44 2010," US and USA, OH and Ohio, Columbus, 43085",Cloudy,32,26,37,28,40,74,30.08 Steady ,26,6,E,6
Tue Feb  2 17:34:13 2010," US and USA, OH and Ohio, Columbus, 43085",Cloudy,33,28,36,28,40,70,30.08 Steady ,24,8,E,5
Tue Feb  2 19:02:59 2010," US and USA, OH and Ohio, Columbus, 43085",Cloudy,34,28,36,28,40,60,30.05 Steady ,21,10,E,6
Tue Feb  2 19:52:24 2010," US and USA, OH and Ohio, Columbus, 43085",Cloudy,36,31,37,28,40,55,30.01 Steady ,21,10,SSE,5
Tue Feb  2 20:43:33 2010," US and USA, OH and Ohio, Columbus, 43085",Mostly Cloudy,38,38,37,28,40,52,29.98 Steady ,22,10,ESE,4
Tue Feb  2 21:30:24 2010," US and USA, OH and Ohio, Columbus, 43085",Cloudy,40,40,37,28,30,49,29.96 Falling Rapidly ,22,10,ESE,3
Tue Feb  2 22:18:47 2010," US and USA, OH and Ohio, Columbus, 43085",Cloudy,41,38,37,28,30,45,29.95 Falling ,21,10,S,5
Tue Feb  2 23:03:04 2010," US and USA, OH and Ohio, Columbus, 43085",Cloudy,40,37,37,28,30,47,29.95 Steady ,21,9,SSE,5
Tue Feb  2 23:48:23 2010," US and USA, OH and Ohio, Columbus, 43085",Cloudy,38,34,37,28,30,56,29.96 Steady ,23,8,SW,4
Wed Feb  3 00:32:48 2010," US and USA, OH and Ohio, Columbus, 43085",Cloudy,35,35,37,28,30,65,29.97 Steady ,24,8,NNW,1
Wed Feb  3 01:19:58 2010," US and USA, OH and Ohio, Columbus, 43085",Cloudy,38,38,37,28,30,48,29.98 Rising ,20,10,CALM,0
Wed Feb  3 02:05:11 2010," US and USA, OH and Ohio, Columbus, 43085",Cloudy,38,38,37,28,20,47,29.98 Steady ,19,9,NE,1
Wed Feb  3 02:53:28 2010," US and USA, OH and Ohio, Columbus, 43085",Cloudy,36,36,37,28,20,59,29.98 Steady ,23,10,NNW,4
Wed Feb  3 03:40:17 2010," US and USA, OH and Ohio, Columbus, 43085",Cloudy,35,31,37,28,20,64,29.99 Steady ,24,10,NNW,6
Wed Feb  3 04:28:26 2010," US and USA, OH and Ohio, Columbus, 43085",Cloudy,34,34,37,28,20,73,30.00 Rising ,26,10,WNW,3
Wed Feb  3 05:15:17 2010," US and USA, OH and Ohio, Columbus, 43085",Cloudy,35,29,37,28,20,72,30.01 Rising ,27,9,W,7
Wed Feb  3 06:03:05 2010," US and USA, OH and Ohio, Columbus, 43085",Cloudy,34,28,37,28,10,76,30.01 Steady ,27,8,W,7
Thu Feb  4 06:05:35 2010," US and USA, OH and Ohio, Columbus, 43085",Partly Cloudy,28,22,34,23,0,83,30.36 Steady ,24,5,NNW,5
Thu Feb  4 06:48:38 2010," US and USA, OH and Ohio, Columbus, 43085",Fog,27,27,34,23,0,91,30.36 Falling ,25,2.5,CALM,0
Thu Feb  4 07:32:16 2010," US and USA, OH and Ohio, Columbus, 43085",Fog,25,25,34,23,0,92,30.36 Steady ,23,1.5,CALM,0
Thu Feb  4 08:14:48 2010," US and USA, OH and Ohio, Columbus, 43085",Fog,25,25,34,23,0,91,30.36 Steady ,23,1.5,CALM,0
Thu Feb  4 08:58:28 2010," US and USA, OH and Ohio, Columbus, 43085",Fog,25,25,34,23,0,83,30.35 Steady ,21,0.5,CALM,0
Thu Feb  4 09:42:24 2010," US and USA, OH and Ohio, Columbus, 43085",Fog,23,23,37,29,0,91,30.36 Rising ,21,0.8,CALM,0
Thu Feb  4 10:26:04 2010," US and USA, OH and Ohio, Columbus, 43085",Fog,23,23,37,29,0,95,30.38 Rising Rapidly ,22,0.5,CALM,0
Thu Feb  4 11:11:59 2010," US and USA, OH and Ohio, Columbus, 43085",Fog,23,23,37,29,0,90,30.38 Rising ,21,1.8,CALM,0
Thu Feb  4 11:55:30 2010," US and USA, OH and Ohio, Columbus, 43085",Fog,23,23,36,29,0,89,30.38 Steady ,21,1.5,CALM,0
Thu Feb  4 12:38:36 2010," US and USA, OH and Ohio, Columbus, 43085",Fog,21,21,37,29,0,94,30.37 Steady ,20,1.5,N,1
Thu Feb  4 13:22:40 2010," US and USA, OH and Ohio, Columbus, 43085",Fog,21,21,37,29,0,91,30.38 Rising ,19,0.3,CALM,0
Thu Feb  4 14:07:29 2010," US and USA, OH and Ohio, Columbus, 43085",Fog,21,21,37,29,0,91,30.40 Rising ,19,1.3,CALM,0
Wed Feb  3 06:49:49 2010," US and USA, OH and Ohio, Columbus, 43085",Cloudy,33,25,37,28,10,81,30.02 Steady ,28,9,W,10
Wed Feb  3 07:34:18 2010," US and USA, OK and Oklahoma, Oklahoma City, 73101",Fog,32,27,44,29,20,93,30.20 Steady ,30,0.3,S,5
Wed Feb  3 08:17:26 2010," US and USA, OK and Oklahoma, Oklahoma City, 73101",Fog,32,25,44,29,20,93,30.20 Steady ,30,0.3,SSW,6
Wed Feb  3 09:03:57 2010," US and USA, OK and Oklahoma, Oklahoma City, 73101",Fog,31,24,44,29,20,93,30.20 Steady ,29,0.6,SSW,7
Wed Feb  3 09:47:46 2010," US and USA, OK and Oklahoma, Oklahoma City, 73101",Fog,31,24,48,35,20,93,30.19 Falling ,29,0.7,S,7
Wed Feb  3 10:31:11 2010," US and USA, OK and Oklahoma, Oklahoma City, 73101",Fog,30,30,48,35,30,95,30.17 Falling Rapidly ,29,0.5,SSW,4
Wed Feb  3 11:18:02 2010," US and USA, OK and Oklahoma, Oklahoma City, 73101",Fog,30,25,48,35,30,93,30.19 Rising ,28,0.4,SSW,4
Wed Feb  3 12:02:47 2010," US and USA, OK and Oklahoma, Oklahoma City, 73101",Fog,30,25,44,35,30,95,30.19 Steady ,29,0.3,S,5
Wed Feb  3 12:45:58 2010," US and USA, OK and Oklahoma, Oklahoma City, 73101",Fog,30,30,44,35,30,94,30.16 Steady ,28,0.3,CALM,0
Wed Feb  3 13:29:42 2010," US and USA, OK and Oklahoma, Oklahoma City, 73101",Fog,29,24,44,35,30,90,30.16 Steady ,27,0.3,ENE,6
Wed Feb  3 14:15:49 2010," US and USA, OK and Oklahoma, Oklahoma City, 73101",Fog,29,24,44,35,30,92,30.16 Rising ,28,0.4,E,4
Wed Feb  3 15:01:50 2010," US and USA, OK and Oklahoma, Oklahoma City, 73101",Fog,29,29,44,35,30,93,30.17 Rising ,28,0.3,E,3
Wed Feb  3 15:46:38 2010," US and USA, OK and Oklahoma, Oklahoma City, 73101",Fog,30,25,44,35,30,93,30.18 Steady ,28,0.4,E,4
Wed Feb  3 16:32:31 2010," US and USA, OK and Oklahoma, Oklahoma City, 73101",Fog,31,26,44,35,30,90,30.18 Steady ,29,0.8,E,6
Wed Feb  3 17:19:41 2010," US and USA, OK and Oklahoma, Oklahoma City, 73101",Cloudy,32,26,43,35,30,94,30.19 Steady ,31,5,SE,6
Wed Feb  3 18:07:59 2010," US and USA, OK and Oklahoma, Oklahoma City, 73101",Fog,33,27,43,35,30,93,30.19 Steady ,31,1.5,SSE,7
Wed Feb  3 18:51:07 2010," US and USA, OK and Oklahoma, Oklahoma City, 73101",Cloudy,34,28,44,35,20,93,30.18 Falling ,32,5,SSE,6
Wed Feb  3 19:35:22 2010," US and USA, OK and Oklahoma, Oklahoma City, 73101",Cloudy,35,30,44,35,20,92,30.18 Steady ,33,5,SSE,6
Wed Feb  3 20:19:27 2010," US and USA, OK and Oklahoma, Oklahoma City, 73101",Cloudy,37,37,44,35,20,89,30.15 Falling Rapidly ,34,5,SSE,4
Wed Feb  3 21:03:46 2010," US and USA, OK and Oklahoma, Oklahoma City, 73101",Cloudy,37,34,44,35,20,89,30.15 Steady ,34,5,SSE,4
Wed Feb  3 21:51:51 2010," US and USA, OK and Oklahoma, Oklahoma City, 73101",Mostly Cloudy,38,38,44,34,70,87,30.12 Steady ,34,9,SSE,2
Wed Feb  3 22:37:23 2010," US and USA, OK and Oklahoma, Oklahoma City, 73101",Cloudy,37,32,44,34,70,89,30.12 Steady ,34,6,E,6
Wed Feb  3 23:28:19 2010," US and USA, OK and Oklahoma, Oklahoma City, 73101",Cloudy,38,32,44,34,70,87,30.09 Falling Rapidly ,34,6,ENE,8
Thu Feb  4 00:13:15 2010," US and USA, OK and Oklahoma, Oklahoma City, 73101",Cloudy,37,32,44,34,70,88,30.09 Steady ,34,10,ENE,7
Thu Feb  4 00:57:17 2010," US and USA, OK and Oklahoma, Oklahoma City, 73101",Cloudy,37,32,44,34,70,88,30.09 Steady ,34,10,E,6
Thu Feb  4 01:40:35 2010," US and USA, OK and Oklahoma, Oklahoma City, 73101",Cloudy,37,32,44,34,70,90,30.09 Steady ,34,10,E,6
Thu Feb  4 02:28:19 2010," US and USA, OK and Oklahoma, Oklahoma City, 73101",Cloudy,36,31,44,34,100,90,30.12 Rising Rapidly ,34,10,ENE,6
Thu Feb  4 03:11:30 2010," US and USA, OK and Oklahoma, Oklahoma City, 73101",Cloudy,37,31,44,34,100,91,30.12 Steady ,34,10,E,8
Thu Feb  4 03:55:58 2010," US and USA, OK and Oklahoma, Oklahoma City, 73101",Showers,37,31,44,34,100,91,30.12 Steady ,35,9,E,8
Thu Feb  4 04:39:14 2010," US and USA, OK and Oklahoma, Oklahoma City, 73101",Showers,37,33,44,34,100,92,30.12 Steady ,34,3,ENE,5
Thu Feb  4 05:22:36 2010," US and USA, OK and Oklahoma, Oklahoma City, 73101",Cloudy,36,29,44,34,100,94,30.10 Falling ,34,5,ENE,8
Thu Feb  4 15:00:12 2010," US and USA, OK and Oklahoma, Oklahoma City, 73101",Cloudy,36,30,37,33,80,91,30.01 Steady ,33,5,E,7
Thu Jan 28 15:39:50 2010," US and USA, OK and Oklahoma, Oklahoma City, 73101",Freezing Rain,30,18,31,22,100,56,30.32 Steady ,19,4,NE,18to29
Thu Jan 28 16:00:39 2010," US and USA, OK and Oklahoma, Oklahoma City, 73101",Freezing Rain,30,18,31,22,100,56,30.32 Steady ,19,4,NE,18to29
Thu Jan 28 16:49:58 2010," US and USA, OK and Oklahoma, Oklahoma City, 73101",Freezing Drizzle,30,18,30,22,100,53,30.33 Falling ,18,3,NNE,19to27
Thu Jan 28 17:14:12 2010," US and USA, OK and Oklahoma, Oklahoma City, 73101",Freezing Rain,29,16,30,22,100,63,30.33 Steady ,20,3,NE,19to27
Thu Jan 28 17:30:12 2010," US and USA, OK and Oklahoma, Oklahoma City, 73101",Freezing Rain,29,16,30,22,100,63,30.33 Steady ,20,3,NE,19to27
Fri Jan 29 08:42:25 2010," US and USA, OK and Oklahoma, Oklahoma City, 73101",Freezing Drizzle,28,19,30,21,70,89,30.16 Rising ,26,3,N,10
Fri Jan 29 09:26:20 2010," US and USA, OK and Oklahoma, Oklahoma City, 73101",Cloudy,28,18,30,21,70,86,30.14 Falling ,25,7,NNE,12
Fri Jan 29 11:58:23 2010," US and USA, OK and Oklahoma, Oklahoma City, 73101",Cloudy,25,16,28,19,70,86,30.12 Steady ,22,5,NNE,9
Fri Jan 29 12:43:05 2010," US and USA, OK and Oklahoma, Oklahoma City, 73101",Freezing Rain,25,13,26,19,70,89,30.12 Steady ,23,4,NNE,13to18
Fri Jan 29 13:30:48 2010," US and USA, OK and Oklahoma, Oklahoma City, 73101",Freezing Drizzle,25,15,26,19,70,88,30.10 Falling Rapidly ,22,3,N,10
Fri Jan 29 14:18:38 2010," US and USA, OK and Oklahoma, Oklahoma City, 73101",Freezing Rain,25,16,26,19,70,87,30.13 Rising Rapidly ,22,7,NNE,9
Fri Jan 29 15:03:25 2010," US and USA, OK and Oklahoma, Oklahoma City, 73101",Wintry Mix,25,15,26,19,70,87,30.12 Rising ,22,7,NNE,9
Fri Jan 29 15:48:58 2010," US and USA, OK and Oklahoma, Oklahoma City, 73101",Snow Showers,24,15,26,19,70,89,30.12 Steady ,22,1.2,NNE,8
Fri Jan 29 16:36:47 2010," US and USA, OK and Oklahoma, Oklahoma City, 73101",Snow,24,14,26,19,70,86,30.11 Steady ,21,0.3,N,10
Fri Jan 29 17:21:12 2010," US and USA, OK and Oklahoma, Oklahoma City, 73101",Snow,24,15,26,19,70,86,30.14 Rising Rapidly ,21,0.3,N,9
Fri Jan 29 18:09:40 2010," US and USA, OK and Oklahoma, Oklahoma City, 73101",Snow Showers,24,14,26,19,70,84,30.13 Falling ,21,0.8,N,10
Fri Jan 29 18:54:39 2010," US and USA, OK and Oklahoma, Oklahoma City, 73101",Snow,25,15,26,19,70,83,30.11 Falling ,21,0.3,N,10
Fri Jan 29 19:46:38 2010," US and USA, OK and Oklahoma, Oklahoma City, 73101",Snow,24,14,26,20,100,86,30.09 Steady ,21,0.3,N,10
Fri Jan 29 20:44:27 2010," US and USA, OK and Oklahoma, Oklahoma City, 73101",Snow,23,11,26,20,100,91,30.08 Falling ,21,0.3,N,12to18
Fri Jan 29 21:29:04 2010," US and USA, OK and Oklahoma, Oklahoma City, 73101",Snow,24,13,26,20,100,85,30.06 Falling ,20,0.3,N,11
Fri Jan 29 22:15:41 2010," US and USA, OK and Oklahoma, Oklahoma City, 73101",Snow,23,10,26,20,100,87,30.05 Steady ,20,0.3,N,14to19
Fri Jan 29 23:00:35 2010," US and USA, OK and Oklahoma, Oklahoma City, 73101",Snow,23,10,26,20,100,85,30.06 Steady ,20,0.3,N,13to18
Fri Jan 29 23:44:51 2010," US and USA, OK and Oklahoma, Oklahoma City, 73101",Snow,23,12,26,20,100,90,30.06 Steady ,21,0.3,N,10
Sat Jan 30 00:28:56 2010," US and USA, OK and Oklahoma, Oklahoma City, 73101",Snow,23,12,26,20,100,90,30.07 Rising ,21,0.3,NNW,12
Sat Jan 30 01:13:05 2010," US and USA, OK and Oklahoma, Oklahoma City, 73101",Cloudy,22,11,26,18,100,91,30.08 Rising ,21,5,N,11
Sat Jan 30 01:57:03 2010," US and USA, OK and Oklahoma, Oklahoma City, 73101",Cloudy,22,12,26,18,100,91,30.08 Steady ,21,5,N,10
Sat Jan 30 02:41:21 2010," US and USA, OK and Oklahoma, Oklahoma City, 73101",Cloudy,22,12,26,18,90,90,30.08 Steady ,20,7,N,10
Sat Jan 30 03:24:51 2010," US and USA, OK and Oklahoma, Oklahoma City, 73101",Cloudy,22,12,26,18,70,91,30.11 Rising Rapidly ,20,7,NNW,8
Sat Jan 30 04:08:47 2010," US and USA, OK and Oklahoma, Oklahoma City, 73101",Cloudy,22,12,26,18,70,88,30.11 Steady ,19,8,NNW,8
Sat Jan 30 04:52:33 2010," US and USA, OK and Oklahoma, Oklahoma City, 73101",Cloudy,21,13,26,18,60,83,30.12 Steady ,17,8,N,6
Sat Jan 30 05:36:19 2010," US and USA, OK and Oklahoma, Oklahoma City, 73101",Cloudy,21,11,26,18,60,85,30.12 Steady ,18,8,N,9
Sat Jan 30 06:20:24 2010," US and USA, OK and Oklahoma, Oklahoma City, 73101",Cloudy,21,11,26,18,20,85,30.12 Steady ,18,8,N,9
Sat Jan 30 07:06:22 2010," US and USA, OK and Oklahoma, Oklahoma City, 73101",Cloudy,20,8,26,18,10,87,30.12 Steady ,17,8,N,12
Sat Jan 30 07:49:03 2010," US and USA, OK and Oklahoma, Oklahoma City, 73101",Cloudy,21,10,26,18,10,81,30.12 Steady ,17,9,N,10
Sat Jan 30 08:32:17 2010," US and USA, OK and Oklahoma, Oklahoma City, 73101",Cloudy,20,11,26,18,10,85,30.13 Steady ,17,8,N,8
Sat Jan 30 11:14:04 2010," US and USA, OK and Oklahoma, Oklahoma City, 73101",Cloudy,19,10,27,15,10,85,30.14 Steady ,16,9,N,8
Sat Jan 30 12:01:53 2010," US and USA, OK and Oklahoma, Oklahoma City, 73101",Cloudy,20,10,27,15,10,84,30.14 Steady ,16,9,N,8
Sat Jan 30 12:45:31 2010," US and USA, OK and Oklahoma, Oklahoma City, 73101",Cloudy,20,10,28,15,10,83,30.16 Steady ,16,9,N,8
Sat Jan 30 13:28:44 2010," US and USA, OK and Oklahoma, Oklahoma City, 73101",Cloudy,20,11,28,15,10,84,30.17 Rising ,17,8,N,7
Sat Jan 30 14:12:55 2010," US and USA, OK and Oklahoma, Oklahoma City, 73101",Cloudy,20,11,28,15,20,85,30.18 Rising Rapidly ,17,7,N,7
Sat Jan 30 14:57:12 2010," US and USA, OK and Oklahoma, Oklahoma City, 73101",Cloudy,20,12,28,15,20,83,30.18 Steady ,17,7,N,7
Sat Jan 30 15:42:49 2010," US and USA, OK and Oklahoma, Oklahoma City, 73101",Cloudy,20,9,28,15,20,84,30.20 Steady ,17,6,N,9
Sat Jan 30 16:27:47 2010," US and USA, OK and Oklahoma, Oklahoma City, 73101",Cloudy,20,10,28,15,20,86,30.21 Rising ,17,5,N,9
Sat Jan 30 17:12:14 2010," US and USA, OK and Oklahoma, Oklahoma City, 73101",Cloudy,21,11,28,15,20,78,30.24 Steady ,16,5,N,8
Sat Jan 30 17:55:25 2010," US and USA, OK and Oklahoma, Oklahoma City, 73101",Cloudy,22,13,27,15,20,75,30.25 Steady ,16,5,N,7
Sat Jan 30 18:39:25 2010," US and USA, OK and Oklahoma, Oklahoma City, 73101",Cloudy,23,14,27,15,20,77,30.26 Steady ,18,6,NNW,7
Sat Jan 30 19:22:42 2010," US and USA, OK and Oklahoma, Oklahoma City, 73101",Mostly Cloudy,24,19,27,15,20,76,30.25 Falling ,19,6,NNW,4
Sat Jan 30 20:06:58 2010," US and USA, OK and Oklahoma, Oklahoma City, 73101",Cloudy,25,25,27,15,20,74,30.24 Falling ,19,7,N,3
Sat Jan 30 20:50:03 2010," US and USA, OK and Oklahoma, Oklahoma City, 73101",Cloudy,26,26,27,15,20,78,30.23 Steady ,21,6,NNW,2
Sat Jan 30 21:33:50 2010," US and USA, OK and Oklahoma, Oklahoma City, 73101",Cloudy,27,27,27,18,0,80,30.21 Steady ,22,6,NW,3
Sat Jan 30 22:17:21 2010," US and USA, OK and Oklahoma, Oklahoma City, 73101",Cloudy,27,27,27,18,0,79,30.20 Falling ,23,5,NW,3
Sat Jan 30 23:02:47 2010," US and USA, OK and Oklahoma, Oklahoma City, 73101",Cloudy,27,27,27,18,0,80,30.20 Steady ,23,5,N,4
Sat Jan 30 23:47:41 2010," US and USA, OK and Oklahoma, Oklahoma City, 73101",Cloudy,26,26,27,18,0,77,30.20 Steady ,21,5,CALM,0
Sun Jan 31 00:31:40 2010," US and USA, OK and Oklahoma, Oklahoma City, 73101",Cloudy,24,24,27,18,0,82,30.21 Steady ,21,5,WNW,1
Sun Jan 31 01:22:07 2010," US and USA, OK and Oklahoma, Oklahoma City, 73101",Cloudy,25,25,27,18,0,84,30.21 Steady ,22,5,WSW,2
Sun Jan 31 02:06:07 2010," US and USA, OK and Oklahoma, Oklahoma City, 73101",Cloudy,25,25,27,18,0,86,30.21 Steady ,22,5,SSW,2
Sun Jan 31 02:49:31 2010," US and USA, OK and Oklahoma, Oklahoma City, 73101",Cloudy,24,24,27,18,0,84,30.21 Steady ,21,7,S,2
Sun Jan 31 03:33:26 2010," US and USA, OK and Oklahoma, Oklahoma City, 73101",Cloudy,22,22,27,18,0,95,30.22 Steady ,21,7,SSE,3
Sun Jan 31 04:17:14 2010," US and USA, OK and Oklahoma, Oklahoma City, 73101",Cloudy,23,17,27,18,0,91,30.22 Steady ,21,6,S,4
Sun Jan 31 05:01:29 2010," US and USA, OK and Oklahoma, Oklahoma City, 73101",Cloudy,22,16,27,18,0,93,30.22 Steady ,21,6,SSW,5
Sun Jan 31 05:47:53 2010," US and USA, OK and Oklahoma, Oklahoma City, 73101",Cloudy,22,22,27,18,0,86,30.23 Steady ,19,5,S,2
Sun Jan 31 06:32:44 2010," US and USA, OK and Oklahoma, Oklahoma City, 73101",Cloudy,21,21,27,18,0,94,30.23 Steady ,20,5,S,3
Sun Jan 31 07:15:36 2010," US and USA, OK and Oklahoma, Oklahoma City, 73101",Cloudy,22,22,27,18,10,94,30.24 Steady ,21,5,SW,3
Sun Jan 31 08:02:20 2010," US and USA, OK and Oklahoma, Oklahoma City, 73101",Fog,22,22,27,18,10,94,30.24 Steady ,21,1.5,S,3
Sun Jan 31 08:47:00 2010," US and USA, OK and Oklahoma, Oklahoma City, 73101",Cloudy,22,22,27,18,10,92,30.24 Falling ,20,5,SSE,1
Sun Jan 31 09:30:15 2010," US and USA, OK and Oklahoma, Oklahoma City, 73101",Cloudy,22,22,42,32,10,90,30.25 Steady ,20,5,S,4
Sun Jan 31 10:13:26 2010," US and USA, OK and Oklahoma, Oklahoma City, 73101",Cloudy,23,23,42,32,10,92,30.24 Steady ,21,5,SSW,4
Sun Jan 31 10:57:13 2010," US and USA, OK and Oklahoma, Oklahoma City, 73101",Fog,22,22,38,32,10,94,30.24 Steady ,21,1.5,SSE,3
Sun Jan 31 11:40:45 2010," US and USA, OK and Oklahoma, Oklahoma City, 73101",Cloudy,22,17,38,32,10,89,30.23 Steady ,20,5,SSE,4
Sun Jan 31 12:24:20 2010," US and USA, OK and Oklahoma, Oklahoma City, 73101",Fog,22,22,38,32,10,93,30.22 Falling ,21,0.8,SSE,3
Sun Jan 31 13:07:43 2010," US and USA, OK and Oklahoma, Oklahoma City, 73101",Cloudy,22,22,38,32,10,92,30.22 Steady ,20,5,S,3
Sun Jan 31 13:51:20 2010," US and USA, OK and Oklahoma, Oklahoma City, 73101",Cloudy,22,14,38,32,10,90,30.23 Rising ,20,5,SSE,6
Sun Jan 31 14:34:08 2010," US and USA, OK and Oklahoma, Oklahoma City, 73101",Cloudy,21,15,38,32,10,91,30.23 Steady ,20,5,SSW,4
Sun Jan 31 15:18:14 2010," US and USA, OK and Oklahoma, Oklahoma City, 73101",Cloudy,22,15,38,32,10,95,30.25 Rising ,21,5,SSW,5
Sun Jan 31 16:01:46 2010," US and USA, OK and Oklahoma, Oklahoma City, 73101",Cloudy,23,16,38,32,10,91,30.25 Steady ,21,5,S,5
Sun Jan 31 16:51:33 2010," US and USA, OK and Oklahoma, Oklahoma City, 73101",Cloudy,23,17,38,32,10,94,30.26 Rising ,22,5,S,5
Sun Jan 31 17:35:11 2010," US and USA, OK and Oklahoma, Oklahoma City, 73101",Cloudy,26,20,37,32,10,89,30.27 Rising ,23,5,S,5
Sun Jan 31 18:20:11 2010," US and USA, OK and Oklahoma, Oklahoma City, 73101",Cloudy,26,21,37,32,10,90,30.27 Steady ,24,5,S,4
Sun Jan 31 19:03:59 2010," US and USA, OK and Oklahoma, Oklahoma City, 73101",Cloudy,27,21,37,32,10,87,30.27 Steady ,24,5,S,5
Sun Jan 31 19:49:28 2010," US and USA, OK and Oklahoma, Oklahoma City, 73101",Cloudy,27,22,37,30,10,87,30.26 Steady ,24,5,S,5
Sun Jan 31 20:32:17 2010," US and USA, OK and Oklahoma, Oklahoma City, 73101",Cloudy,28,22,37,30,10,84,30.23 Steady ,25,5,SSE,6
Sun Jan 31 21:16:55 2010," US and USA, OK and Oklahoma, Oklahoma City, 73101",Cloudy,28,22,37,30,10,87,30.20 Falling Rapidly ,25,5,SSE,6
Sun Jan 31 21:59:43 2010," US and USA, OK and Oklahoma, Oklahoma City, 73101",Cloudy,28,21,37,30,20,87,30.20 Steady ,25,5,SSE,7
Sun Jan 31 22:44:32 2010," US and USA, OK and Oklahoma, Oklahoma City, 73101",Cloudy,28,22,37,29,20,92,30.19 Steady ,26,5,S,5
Sun Jan 31 23:27:53 2010," US and USA, OK and Oklahoma, Oklahoma City, 73101",Cloudy,28,22,37,29,20,87,30.18 Falling ,26,5,SE,6
Mon Feb  1 00:11:50 2010," US and USA, OK and Oklahoma, Oklahoma City, 73101",Cloudy,28,22,37,29,20,87,30.17 Falling ,25,5,SE,6
Mon Feb  1 00:54:45 2010," US and USA, OK and Oklahoma, Oklahoma City, 73101",Cloudy,28,22,37,27,20,87,30.17 Steady ,25,5,SE,6
Mon Feb  1 01:41:03 2010," US and USA, OK and Oklahoma, Oklahoma City, 73101",Cloudy,28,21,37,27,20,89,30.17 Steady ,26,5,SSE,7
Mon Feb  1 02:25:03 2010," US and USA, OK and Oklahoma, Oklahoma City, 73101",Cloudy,28,21,37,26,20,93,30.18 Rising ,27,5,S,6
Mon Feb  1 03:08:43 2010," US and USA, OK and Oklahoma, Oklahoma City, 73101",Cloudy,25,18,37,26,20,91,30.17 Falling ,23,5,SSE,6
Mon Feb  1 03:53:24 2010," US and USA, OK and Oklahoma, Oklahoma City, 73101",Mostly Cloudy,29,22,37,27,20,92,30.16 Falling ,27,5,SSE,7
Mon Feb  1 04:38:12 2010," US and USA, OK and Oklahoma, Oklahoma City, 73101",Cloudy,29,23,37,27,20,93,30.43 Rising Rapidly ,28,5,SE,5
Mon Feb  1 05:21:21 2010," US and USA, OK and Oklahoma, Oklahoma City, 73101",Cloudy,28,22,37,27,20,97,30.43 Steady ,28,5,SSE,6
Mon Feb  1 06:06:15 2010," US and USA, OK and Oklahoma, Oklahoma City, 73101",Cloudy,29,22,37,27,20,97,30.42 Falling ,28,5,SSE,6
Mon Feb  1 06:49:24 2010," US and USA, OK and Oklahoma, Oklahoma City, 73101",Cloudy,27,22,37,27,20,94,30.14 Steady ,26,5,S,5
Mon Feb  1 07:33:14 2010," US and USA, OK and Oklahoma, Oklahoma City, 73101",Drizzle,28,21,37,27,20,95,30.14 Steady ,27,5,SSE,6
Mon Feb  1 08:16:39 2010," US and USA, OK and Oklahoma, Oklahoma City, 73101",Wintry Mix,27,21,37,27,20,95,30.14 Steady ,26,7,SSE,6
Mon Feb  1 09:00:07 2010," US and USA, OK and Oklahoma, Oklahoma City, 73101",Cloudy,28,21,37,27,20,94,30.14 Rising ,27,5,SSE,6
Mon Feb  1 09:43:04 2010," US and USA, OK and Oklahoma, Oklahoma City, 73101",Cloudy,27,20,40,30,20,97,30.14 Steady ,27,7,SSE,6
Mon Feb  1 10:26:37 2010," US and USA, OK and Oklahoma, Oklahoma City, 73101",Wintry Mix,28,28,40,28,20,95,30.13 Steady ,27,3,SSE,3
Mon Feb  1 11:09:34 2010," US and USA, OK and Oklahoma, Oklahoma City, 73101",Cloudy,28,28,40,28,20,95,30.13 Steady ,27,5,SE,4
Mon Feb  1 11:53:01 2010," US and USA, OK and Oklahoma, Oklahoma City, 73101",Cloudy,29,21,40,28,20,93,30.10 Falling ,27,5,SSE,8
Mon Feb  1 12:36:24 2010," US and USA, OK and Oklahoma, Oklahoma City, 73101",Cloudy,29,21,40,28,30,93,30.07 Steady ,28,5,SSE,8
Mon Feb  1 13:19:55 2010," US and USA, OK and Oklahoma, Oklahoma City, 73101",Cloudy,29,21,40,28,30,94,30.05 Falling Rapidly ,28,5,SSE,8
Mon Feb  1 14:03:49 2010," US and USA, OK and Oklahoma, Oklahoma City, 73101",Cloudy,29,21,40,28,30,94,30.05 Steady ,28,5,SSE,8
Mon Feb  1 14:48:52 2010," US and USA, OK and Oklahoma, Oklahoma City, 73101",Cloudy,29,20,40,28,20,94,30.04 Steady ,28,6,SSE,11
Mon Feb  1 15:32:37 2010," US and USA, OK and Oklahoma, Oklahoma City, 73101",Cloudy,29,21,40,28,20,91,30.06 Steady ,27,6,SSE,9
Mon Feb  1 16:17:20 2010," US and USA, OK and Oklahoma, Oklahoma City, 73101",Mostly Cloudy,29,21,40,28,20,90,30.06 Steady ,27,6,S,9
Mon Feb  1 17:02:07 2010," US and USA, OK and Oklahoma, Oklahoma City, 73101",Cloudy,31,23,40,28,20,88,30.06 Steady ,28,5,S,9
Mon Feb  1 17:45:55 2010," US and USA, OK and Oklahoma, Oklahoma City, 73101",Cloudy,31,25,40,28,20,89,30.05 Steady ,29,6,S,7
Mon Feb  1 18:29:25 2010," US and USA, OK and Oklahoma, Oklahoma City, 73101",Cloudy,32,25,40,28,20,90,30.06 Rising ,30,5,S,6
Mon Feb  1 19:13:11 2010," US and USA, OK and Oklahoma, Oklahoma City, 73101",Cloudy,32,25,40,28,20,92,30.05 Falling ,30,5,S,8
Mon Feb  1 19:58:01 2010," US and USA, OK and Oklahoma, Oklahoma City, 73101",Cloudy,32,24,40,28,20,93,30.05 Steady ,30,5,S,10
Mon Feb  1 20:44:26 2010," US and USA, OK and Oklahoma, Oklahoma City, 73101",Fog,33,23,40,28,20,91,30.02 Steady ,30,1.3,SSW,12
Mon Feb  1 21:29:26 2010," US and USA, OK and Oklahoma, Oklahoma City, 73101",Fog,33,24,40,28,20,90,30.01 Falling ,30,1.4,SSW,12
Mon Feb  1 22:12:46 2010," US and USA, OK and Oklahoma, Oklahoma City, 73101",Fog,32,25,40,28,20,90,29.99 Falling ,30,1.5,SW,8
Mon Feb  1 22:56:06 2010," US and USA, OK and Oklahoma, Oklahoma City, 73101",Fog,32,26,40,28,20,90,29.99 Steady ,30,1.5,SW,6
Mon Feb  1 23:42:13 2010," US and USA, OK and Oklahoma, Oklahoma City, 73101",Fog,33,28,40,28,20,91,30.00 Steady ,31,1.5,SW,5
Tue Feb  2 00:29:07 2010," US and USA, OK and Oklahoma, Oklahoma City, 73101",Fog,33,28,40,28,20,91,30.00 Steady ,30,1.5,WSW,5
Tue Feb  2 01:14:43 2010," US and USA, OK and Oklahoma, Oklahoma City, 73101",Fog,33,33,40,28,20,91,30.02 Rising ,30,1.5,SW,4
Tue Feb  2 01:57:51 2010," US and USA, OK and Oklahoma, Oklahoma City, 73101",Fog,33,33,40,28,20,93,30.02 Steady ,31,1.5,S,1
Tue Feb  2 02:41:54 2010," US and USA, OK and Oklahoma, Oklahoma City, 73101",Fog,32,32,40,28,20,95,30.03 Steady ,31,0.7,S,2
Tue Feb  2 03:25:25 2010," US and USA, OK and Oklahoma, Oklahoma City, 73101",Fog,32,32,40,28,20,92,30.04 Steady ,30,1.1,SW,4
Tue Feb  2 04:09:12 2010," US and USA, OK and Oklahoma, Oklahoma City, 73101",Fog,31,31,40,28,20,89,30.05 Rising ,29,0.8,WSW,3
Tue Feb  2 04:52:45 2010," US and USA, OK and Oklahoma, Oklahoma City, 73101",Fog,33,33,40,28,20,93,30.05 Steady ,31,1.5,WSW,2
Tue Feb  2 05:36:08 2010," US and USA, OK and Oklahoma, Oklahoma City, 73101",Cloudy,32,32,40,28,20,95,30.06 Steady ,31,5,CALM,0
Tue Feb  2 06:19:26 2010," US and USA, OK and Oklahoma, Oklahoma City, 73101",Cloudy,33,33,40,28,10,95,30.06 Steady ,31,5,CALM,0
Tue Feb  2 07:06:34 2010," US and USA, OK and Oklahoma, Oklahoma City, 73101",Cloudy,32,32,40,28,10,93,30.07 Steady ,30,5,WSW,1
Tue Feb  2 07:49:33 2010," US and USA, OK and Oklahoma, Oklahoma City, 73101",Cloudy,33,33,40,28,10,93,30.09 Steady ,31,5,SW,4
Tue Feb  2 08:32:45 2010," US and USA, OK and Oklahoma, Oklahoma City, 73101",Cloudy,33,33,40,28,10,94,30.09 Steady ,31,5,W,2
Tue Feb  2 09:16:15 2010," US and USA, OK and Oklahoma, Oklahoma City, 73101",Cloudy,33,33,40,28,10,94,30.09 Steady ,31,5,W,1
Tue Feb  2 09:59:46 2010," US and USA, OK and Oklahoma, Oklahoma City, 73101",Cloudy,33,33,45,29,10,94,30.09 Steady ,31,5,NW,2
Tue Feb  2 10:43:20 2010," US and USA, OK and Oklahoma, Oklahoma City, 73101",Cloudy,33,27,45,29,10,91,30.11 Steady ,31,5,NW,6
Tue Feb  2 11:27:28 2010," US and USA, OK and Oklahoma, Oklahoma City, 73101",Cloudy,33,33,45,29,10,92,30.12 Rising ,31,5,WNW,3
Tue Feb  2 12:11:29 2010," US and USA, OK and Oklahoma, Oklahoma City, 73101",Cloudy,31,27,45,29,10,90,30.12 Steady ,29,5,WNW,4
Tue Feb  2 12:55:21 2010," US and USA, OK and Oklahoma, Oklahoma City, 73101",Cloudy,31,24,44,29,10,91,30.14 Steady ,29,5,WNW,7
Tue Feb  2 13:38:43 2010," US and USA, OK and Oklahoma, Oklahoma City, 73101",Cloudy,34,29,44,29,10,89,30.16 Steady ,31,6,NW,6
Tue Feb  2 14:22:21 2010," US and USA, OK and Oklahoma, Oklahoma City, 73101",Cloudy,34,29,44,29,10,87,30.16 Steady ,31,9,NNW,6
Tue Feb  2 15:06:43 2010," US and USA, OK and Oklahoma, Oklahoma City, 73101",Cloudy,34,29,44,29,10,87,30.16 Steady ,31,9,NNW,5
Tue Feb  2 15:53:07 2010," US and USA, OK and Oklahoma, Oklahoma City, 73101",Cloudy,34,28,44,29,10,87,30.17 Steady ,31,8,NNW,7
Tue Feb  2 16:45:37 2010," US and USA, OK and Oklahoma, Oklahoma City, 73101",Cloudy,35,29,44,29,10,84,30.19 Steady ,30,8,N,6
Tue Feb  2 17:34:05 2010," US and USA, OK and Oklahoma, Oklahoma City, 73101",Cloudy,35,35,44,29,0,86,30.22 Steady ,31,8,NW,3
Tue Feb  2 18:18:41 2010," US and USA, OK and Oklahoma, Oklahoma City, 73101",Cloudy,35,35,44,29,0,85,30.23 Rising ,31,8,WSW,1
Tue Feb  2 19:02:51 2010," US and USA, OK and Oklahoma, Oklahoma City, 73101",Cloudy,36,36,44,29,0,83,30.23 Steady ,32,8,W,1
Tue Feb  2 19:52:16 2010," US and USA, OK and Oklahoma, Oklahoma City, 73101",Cloudy,37,37,44,29,0,84,30.22 Steady ,32,7,NNW,1
Tue Feb  2 20:43:26 2010," US and USA, OK and Oklahoma, Oklahoma City, 73101",Cloudy,38,38,44,29,0,81,30.19 Steady ,32,7,WNW,1
Tue Feb  2 21:30:16 2010," US and USA, OK and Oklahoma, Oklahoma City, 73101",Cloudy,36,36,44,29,0,83,30.19 Steady ,32,6,SSW,3
Tue Feb  2 22:18:39 2010," US and USA, OK and Oklahoma, Oklahoma City, 73101",Mostly Cloudy,37,37,44,29,0,85,30.17 Falling Rapidly ,33,6,SW,2
Tue Feb  2 23:02:57 2010," US and USA, OK and Oklahoma, Oklahoma City, 73101",Mostly Cloudy,37,37,44,29,0,86,30.17 Steady ,33,6,SSW,3
Tue Feb  2 23:48:16 2010," US and USA, OK and Oklahoma, Oklahoma City, 73101",Partly Cloudy,37,37,44,29,0,84,30.17 Steady ,32,6,CALM,0
Wed Feb  3 00:32:41 2010," US and USA, OK and Oklahoma, Oklahoma City, 73101",Partly Cloudy,35,31,44,29,0,87,30.19 Steady ,32,6,S,5
Wed Feb  3 01:19:51 2010," US and USA, OK and Oklahoma, Oklahoma City, 73101",Mostly Clear,34,28,44,29,0,88,30.18 Falling ,31,6,S,7
Wed Feb  3 02:05:04 2010," US and USA, OK and Oklahoma, Oklahoma City, 73101",Mostly Cloudy,34,34,44,29,0,92,30.18 Steady ,32,6,S,3
Wed Feb  3 02:53:21 2010," US and USA, OK and Oklahoma, Oklahoma City, 73101",Mostly Cloudy,30,26,44,29,0,90,30.20 Steady ,28,5,SSE,4
Wed Feb  3 03:40:10 2010," US and USA, OK and Oklahoma, Oklahoma City, 73101",Fog,33,33,44,29,0,92,30.21 Steady ,31,1.9,SE,2
Wed Feb  3 04:28:19 2010," US and USA, OK and Oklahoma, Oklahoma City, 73101",Fog,33,29,44,29,0,89,30.21 Steady ,30,1.1,SSE,5
Wed Feb  3 05:15:10 2010," US and USA, OK and Oklahoma, Oklahoma City, 73101",Fog,32,32,44,29,0,92,30.20 Steady ,30,0.4,SSE,4
Wed Feb  3 06:02:58 2010," US and USA, OK and Oklahoma, Oklahoma City, 73101",Fog,32,28,44,29,0,92,30.20 Steady ,30,0.3,S,4
Thu Feb  4 06:05:27 2010," US and USA, OK and Oklahoma, Oklahoma City, 73101",Showers,36,30,44,34,100,93,30.10 Steady ,35,7,ENE,8
Thu Feb  4 06:48:31 2010," US and USA, OK and Oklahoma, Oklahoma City, 73101",Showers,36,31,44,34,100,94,30.09 Steady ,34,6,ENE,6
Thu Feb  4 07:32:09 2010," US and USA, OK and Oklahoma, Oklahoma City, 73101",Showers,36,32,44,34,70,94,30.09 Steady ,34,8,NE,5
Thu Feb  4 08:14:41 2010," US and USA, OK and Oklahoma, Oklahoma City, 73101",Showers,36,31,44,34,70,94,30.09 Steady ,35,7,ENE,7
Thu Feb  4 08:58:21 2010," US and USA, OK and Oklahoma, Oklahoma City, 73101",Cloudy,37,30,44,34,70,91,30.08 Steady ,34,5,ENE,9
Thu Feb  4 09:42:17 2010," US and USA, OK and Oklahoma, Oklahoma City, 73101",Showers,36,31,37,33,70,91,30.06 Steady ,34,7,NNE,6
Thu Feb  4 10:25:56 2010," US and USA, OK and Oklahoma, Oklahoma City, 73101",Showers,35,30,37,33,80,92,30.06 Falling ,33,6,NE,7
Thu Feb  4 11:11:52 2010," US and USA, OK and Oklahoma, Oklahoma City, 73101",Cloudy,35,29,37,33,80,92,30.06 Steady ,33,6,NE,7
Thu Feb  4 11:55:23 2010," US and USA, OK and Oklahoma, Oklahoma City, 73101",Cloudy,35,28,37,33,80,92,30.03 Steady ,33,7,ENE,9
Thu Feb  4 12:38:28 2010," US and USA, OK and Oklahoma, Oklahoma City, 73101",Cloudy,35,28,37,33,80,91,30.01 Steady ,32,7,E,10
Thu Feb  4 13:22:33 2010," US and USA, OK and Oklahoma, Oklahoma City, 73101",Cloudy,35,29,37,33,80,91,30.00 Falling ,33,5,E,9
Thu Feb  4 14:07:22 2010," US and USA, OK and Oklahoma, Oklahoma City, 73101",Cloudy,35,28,37,33,80,91,30.01 Steady ,33,5,E,10
Wed Feb  3 06:49:42 2010," US and USA, OK and Oklahoma, Oklahoma City, 73101",Fog,32,25,44,29,0,95,30.21 Steady ,31,0.4,S,7
Wed Feb  3 07:34:21 2010," US and USA, OR and Oregon, Portland, 97201",Cloudy,46,41,53,44,70,87,29.75 Steady ,42,10,E,9
Wed Feb  3 08:17:29 2010," US and USA, OR and Oregon, Portland, 97201",Cloudy,46,41,53,44,70,86,29.75 Steady ,42,10,E,10
Wed Feb  3 09:04:00 2010," US and USA, OR and Oregon, Portland, 97201",Mostly Cloudy,45,40,53,44,70,82,29.74 Steady ,40,10,E,8
Wed Feb  3 09:47:49 2010," US and USA, OR and Oregon, Portland, 97201",Cloudy,44,44,53,44,70,88,29.73 Falling ,41,10,ENE,4
Wed Feb  3 10:31:14 2010," US and USA, OR and Oregon, Portland, 97201",Cloudy,44,44,53,44,70,90,29.71 Falling Rapidly ,41,10,NE,3
Wed Feb  3 11:18:05 2010," US and USA, OR and Oregon, Portland, 97201",Cloudy,44,44,53,44,70,90,29.71 Steady ,41,10,ESE,2
Wed Feb  3 12:02:50 2010," US and USA, OR and Oregon, Portland, 97201",Cloudy,43,43,50,43,70,89,29.71 Steady ,40,10,SE,3
Wed Feb  3 12:46:01 2010," US and USA, OR and Oregon, Portland, 97201",Cloudy,43,43,50,43,70,89,29.71 Steady ,40,10,ESE,3
Wed Feb  3 13:29:44 2010," US and USA, OR and Oregon, Portland, 97201",Cloudy,45,41,50,43,70,85,29.72 Rising ,40,10,SE,7
Wed Feb  3 14:15:52 2010," US and USA, OR and Oregon, Portland, 97201",Showers,45,40,50,43,70,84,29.73 Rising ,41,5,ESE,9
Wed Feb  3 15:01:53 2010," US and USA, OR and Oregon, Portland, 97201",Showers,45,40,50,43,70,84,29.73 Steady ,41,5,ESE,9
Wed Feb  3 15:46:41 2010," US and USA, OR and Oregon, Portland, 97201",Showers,45,40,50,43,70,89,29.73 Steady ,42,6,ESE,9
Wed Feb  3 16:32:34 2010," US and USA, OR and Oregon, Portland, 97201",Cloudy,44,40,50,43,70,91,29.74 Steady ,42,8,E,8
Wed Feb  3 17:19:44 2010," US and USA, OR and Oregon, Portland, 97201",Cloudy,45,41,50,43,70,88,29.74 Steady ,41,9,ESE,7
Wed Feb  3 18:08:02 2010," US and USA, OR and Oregon, Portland, 97201",Cloudy,45,41,50,43,70,85,29.74 Steady ,40,9,ESE,7
Wed Feb  3 18:51:10 2010," US and USA, OR and Oregon, Portland, 97201",Mostly Cloudy,46,42,50,43,70,82,29.74 Steady ,41,10,ESE,7
Wed Feb  3 19:35:25 2010," US and USA, OR and Oregon, Portland, 97201",Cloudy,48,44,52,44,70,79,29.74 Steady ,41,9,ESE,8
Wed Feb  3 20:19:30 2010," US and USA, OR and Oregon, Portland, 97201",Showers,47,42,52,44,70,80,29.74 Steady ,41,7,ESE,10
Wed Feb  3 21:03:49 2010," US and USA, OR and Oregon, Portland, 97201",Showers,47,43,52,44,70,82,29.74 Steady ,42,6,SE,9
Wed Feb  3 21:51:53 2010," US and USA, OR and Oregon, Portland, 97201",Rain,48,44,49,44,60,77,29.74 Steady ,41,2,ESE,9
Wed Feb  3 22:37:26 2010," US and USA, OR and Oregon, Portland, 97201",Cloudy,48,43,48,44,50,82,29.72 Steady ,42,9,ESE,10
Wed Feb  3 23:28:22 2010," US and USA, OR and Oregon, Portland, 97201",Cloudy,48,43,48,44,30,84,29.71 Falling ,43,9,ESE,11
Thu Feb  4 00:13:18 2010," US and USA, OR and Oregon, Portland, 97201",Cloudy,48,43,48,44,30,83,29.70 Falling ,43,10,ESE,13
Thu Feb  4 00:57:20 2010," US and USA, OR and Oregon, Portland, 97201",Cloudy,48,44,48,44,30,83,29.70 Steady ,43,10,SE,12
Thu Feb  4 01:40:38 2010," US and USA, OR and Oregon, Portland, 97201",Cloudy,48,43,48,44,30,82,29.71 Steady ,43,10,ESE,13
Thu Feb  4 02:28:22 2010," US and USA, OR and Oregon, Portland, 97201",Cloudy,47,42,48,44,30,86,29.71 Steady ,43,8,ESE,12
Thu Feb  4 03:11:33 2010," US and USA, OR and Oregon, Portland, 97201",Cloudy,47,41,48,44,30,85,29.71 Steady ,43,8,ESE,13to18
Thu Feb  4 03:56:01 2010," US and USA, OR and Oregon, Portland, 97201",Mostly Cloudy,46,42,48,44,30,86,29.73 Steady ,42,10,SE,8
Thu Feb  4 04:39:17 2010," US and USA, OR and Oregon, Portland, 97201",Cloudy,47,42,48,44,30,85,29.74 Steady ,42,10,SE,9
Thu Feb  4 05:22:39 2010," US and USA, OR and Oregon, Portland, 97201",Cloudy,47,42,48,44,30,84,29.74 Steady ,43,10,SE,10to19
Thu Feb  4 15:00:16 2010," US and USA, OR and Oregon, Portland, 97201",Cloudy,45,42,50,46,70,84,29.72 Steady ,41,10,ESE,7
Thu Jan 28 15:39:54 2010," US and USA, OR and Oregon, Portland, 97201",Mostly Cloudy,44,40,53,42,20,77,30.08 Steady ,37,9,ESE,6
Thu Jan 28 16:00:42 2010," US and USA, OR and Oregon, Portland, 97201",Mostly Cloudy,44,40,53,42,20,77,30.08 Steady ,37,9,ESE,6
Thu Jan 28 16:50:01 2010," US and USA, OR and Oregon, Portland, 97201",Cloudy,44,40,53,42,20,74,30.07 Steady ,36,9,E,7
Thu Jan 28 17:14:15 2010," US and USA, OR and Oregon, Portland, 97201",Cloudy,45,41,53,42,20,72,30.08 Rising ,36,9,ESE,7
Thu Jan 28 17:30:15 2010," US and USA, OR and Oregon, Portland, 97201",Cloudy,45,41,53,42,20,72,30.08 Rising ,36,9,ESE,7
Fri Jan 29 08:42:28 2010," US and USA, OR and Oregon, Portland, 97201",Cloudy,46,42,53,42,30,72,30.00 Steady ,37,9,E,7
Fri Jan 29 09:26:23 2010," US and USA, OR and Oregon, Portland, 97201",Cloudy,46,43,53,42,50,71,29.99 Falling ,37,10,E,6
Fri Jan 29 11:58:26 2010," US and USA, OR and Oregon, Portland, 97201",Cloudy,46,44,51,42,50,72,29.96 Steady ,38,10,ENE,5
Fri Jan 29 12:43:08 2010," US and USA, OR and Oregon, Portland, 97201",Cloudy,47,43,50,42,50,68,29.97 Steady ,37,10,ESE,7
Fri Jan 29 13:30:51 2010," US and USA, OR and Oregon, Portland, 97201",Cloudy,48,44,51,42,50,64,29.99 Rising Rapidly ,36,10,E,8
Fri Jan 29 14:18:41 2010," US and USA, OR and Oregon, Portland, 97201",Cloudy,46,41,51,42,50,73,29.99 Steady ,37,10,ESE,9
Fri Jan 29 15:03:28 2010," US and USA, OR and Oregon, Portland, 97201",Cloudy,45,41,51,42,50,76,29.99 Steady ,38,9,E,8
Fri Jan 29 15:49:01 2010," US and USA, OR and Oregon, Portland, 97201",Mostly Cloudy,46,43,50,42,50,74,29.98 Steady ,38,9,ESE,6
Fri Jan 29 16:36:50 2010," US and USA, OR and Oregon, Portland, 97201",Cloudy,47,44,50,42,50,68,29.97 Falling ,37,10,ESE,7
Fri Jan 29 17:21:15 2010," US and USA, OR and Oregon, Portland, 97201",Cloudy,46,43,50,42,50,71,29.97 Steady ,37,10,ESE,7
Fri Jan 29 18:09:43 2010," US and USA, OR and Oregon, Portland, 97201",Cloudy,47,43,50,42,50,71,29.97 Steady ,38,10,ESE,7
Fri Jan 29 18:54:42 2010," US and USA, OR and Oregon, Portland, 97201",Cloudy,47,44,50,42,50,71,29.98 Steady ,38,10,ESE,6
Fri Jan 29 19:46:41 2010," US and USA, OR and Oregon, Portland, 97201",Cloudy,48,43,51,43,50,69,29.98 Steady ,39,9,E,13
Fri Jan 29 20:44:30 2010," US and USA, OR and Oregon, Portland, 97201",Cloudy,50,50,51,43,50,68,29.99 Steady ,40,10,E,12
Fri Jan 29 21:29:07 2010," US and USA, OR and Oregon, Portland, 97201",Cloudy,52,52,52,43,50,62,29.97 Falling Rapidly ,39,10,E,11
Fri Jan 29 22:15:44 2010," US and USA, OR and Oregon, Portland, 97201",Cloudy,51,51,51,43,50,63,29.96 Falling ,39,10,E,14
Fri Jan 29 23:00:39 2010," US and USA, OR and Oregon, Portland, 97201",Cloudy,51,51,51,43,50,66,29.96 Steady ,40,9,E,14
Fri Jan 29 23:44:54 2010," US and USA, OR and Oregon, Portland, 97201",Cloudy,51,51,51,43,60,65,29.95 Steady ,40,10,ESE,10
Sat Jan 30 00:28:59 2010," US and USA, OR and Oregon, Portland, 97201",Cloudy,50,45,51,43,60,68,29.95 Steady ,39,10,ESE,12
Sat Jan 30 01:13:09 2010," US and USA, OR and Oregon, Portland, 97201",Cloudy,49,45,51,43,60,69,29.95 Steady ,40,10,ESE,11
Sat Jan 30 01:57:06 2010," US and USA, OR and Oregon, Portland, 97201",Cloudy,49,45,51,43,60,68,29.96 Steady ,39,9,E,11
Sat Jan 30 02:41:24 2010," US and USA, OR and Oregon, Portland, 97201",Showers,48,44,51,43,60,68,29.97 Steady ,38,6,ESE,9
Sat Jan 30 03:24:54 2010," US and USA, OR and Oregon, Portland, 97201",Cloudy,47,43,51,43,60,75,29.97 Steady ,40,10,E,9
Sat Jan 30 04:08:50 2010," US and USA, OR and Oregon, Portland, 97201",Cloudy,47,43,51,43,60,76,29.97 Steady ,40,10,E,8
Sat Jan 30 04:52:36 2010," US and USA, OR and Oregon, Portland, 97201",Cloudy,47,43,51,43,60,75,29.97 Steady ,39,10,E,7
Sat Jan 30 05:36:22 2010," US and USA, OR and Oregon, Portland, 97201",Cloudy,47,44,51,43,60,76,29.97 Steady ,40,10,E,5
Sat Jan 30 06:20:26 2010," US and USA, OR and Oregon, Portland, 97201",Cloudy,47,44,51,43,60,76,29.97 Steady ,40,10,E,5
Sat Jan 30 07:06:25 2010," US and USA, OR and Oregon, Portland, 97201",Cloudy,46,46,51,43,60,80,29.97 Steady ,40,10,ENE,1
Sat Jan 30 07:49:06 2010," US and USA, OR and Oregon, Portland, 97201",Cloudy,46,46,51,43,60,79,29.98 Steady ,40,10,ENE,3
Sat Jan 30 08:32:20 2010," US and USA, OR and Oregon, Portland, 97201",Showers,45,45,51,43,60,85,29.98 Steady ,41,7,ESE,2
Sat Jan 30 11:14:07 2010," US and USA, OR and Oregon, Portland, 97201",Cloudy,45,42,49,44,70,85,29.98 Steady ,40,10,E,5
Sat Jan 30 12:01:56 2010," US and USA, OR and Oregon, Portland, 97201",Cloudy,45,41,49,44,70,84,29.98 Steady ,40,10,E,6
Sat Jan 30 12:45:33 2010," US and USA, OR and Oregon, Portland, 97201",Cloudy,44,41,49,44,70,88,29.98 Steady ,40,10,ESE,5
Sat Jan 30 13:28:47 2010," US and USA, OR and Oregon, Portland, 97201",Cloudy,44,41,49,44,70,87,29.97 Falling ,40,10,ESE,5
Sat Jan 30 14:12:58 2010," US and USA, OR and Oregon, Portland, 97201",Cloudy,44,41,49,44,70,86,29.97 Steady ,40,10,ESE,5
Sat Jan 30 14:57:15 2010," US and USA, OR and Oregon, Portland, 97201",Cloudy,44,42,49,44,70,86,29.97 Steady ,40,10,ESE,4
Sat Jan 30 15:42:52 2010," US and USA, OR and Oregon, Portland, 97201",Mostly Cloudy,43,43,49,44,70,86,29.97 Steady ,39,10,E,3
Sat Jan 30 16:27:51 2010," US and USA, OR and Oregon, Portland, 97201",Mostly Cloudy,43,43,49,44,70,86,29.97 Steady ,40,10,ENE,2
Sat Jan 30 17:12:18 2010," US and USA, OR and Oregon, Portland, 97201",Showers,44,44,49,44,70,86,29.98 Steady ,40,7,E,4
Sat Jan 30 17:55:28 2010," US and USA, OR and Oregon, Portland, 97201",Showers,43,41,49,44,70,88,29.99 Steady ,40,7,E,4
Sat Jan 30 18:39:28 2010," US and USA, OR and Oregon, Portland, 97201",Showers,43,40,49,44,70,84,30.00 Steady ,39,7,E,6
Sat Jan 30 19:22:45 2010," US and USA, OR and Oregon, Portland, 97201",Cloudy,44,42,49,44,70,86,30.01 Rising ,40,10,E,4
Sat Jan 30 20:07:01 2010," US and USA, OR and Oregon, Portland, 97201",Cloudy,44,42,49,44,70,84,30.01 Steady ,40,10,E,4
Sat Jan 30 20:50:06 2010," US and USA, OR and Oregon, Portland, 97201",Cloudy,45,45,49,44,70,84,30.01 Steady ,40,10,E,4
Sat Jan 30 21:33:53 2010," US and USA, OR and Oregon, Portland, 97201",Cloudy,46,46,49,44,70,80,30.01 Steady ,40,10,E,4
Sat Jan 30 22:17:24 2010," US and USA, OR and Oregon, Portland, 97201",Cloudy,46,46,48,44,70,80,30.00 Falling ,40,10,ENE,2
Sat Jan 30 23:02:50 2010," US and USA, OR and Oregon, Portland, 97201",Cloudy,46,46,48,44,70,80,30.00 Steady ,41,10,ENE,2
Sat Jan 30 23:47:44 2010," US and USA, OR and Oregon, Portland, 97201",Cloudy,46,46,48,44,40,82,29.99 Steady ,41,9,E,3
Sun Jan 31 00:31:43 2010," US and USA, OR and Oregon, Portland, 97201",Cloudy,47,47,48,44,40,80,29.99 Steady ,41,10,NE,1
Sun Jan 31 01:22:10 2010," US and USA, OR and Oregon, Portland, 97201",Cloudy,47,47,48,44,40,80,29.99 Steady ,41,10,NE,1
Sun Jan 31 02:06:10 2010," US and USA, OR and Oregon, Portland, 97201",Cloudy,47,47,48,44,40,82,29.99 Steady ,42,9,CALM,0
Sun Jan 31 02:49:34 2010," US and USA, OR and Oregon, Portland, 97201",Cloudy,46,46,48,44,40,84,29.99 Steady ,42,9,CALM,0
Sun Jan 31 03:33:29 2010," US and USA, OR and Oregon, Portland, 97201",Cloudy,46,46,48,44,40,86,30.00 Steady ,42,10,SSE,1
Sun Jan 31 04:17:16 2010," US and USA, OR and Oregon, Portland, 97201",Cloudy,46,46,48,44,40,85,30.00 Steady ,42,9,CALM,0
Sun Jan 31 05:01:32 2010," US and USA, OR and Oregon, Portland, 97201",Cloudy,45,45,48,44,40,89,30.00 Steady ,42,8,SW,1
Sun Jan 31 05:47:56 2010," US and USA, OR and Oregon, Portland, 97201",Showers,45,45,48,44,40,89,30.00 Steady ,42,7,CALM,0
Sun Jan 31 06:32:47 2010," US and USA, OR and Oregon, Portland, 97201",Showers,45,45,48,44,40,90,30.00 Steady ,43,7,SSW,1
Sun Jan 31 07:15:39 2010," US and USA, OR and Oregon, Portland, 97201",Cloudy,45,45,48,44,40,91,30.01 Steady ,42,9,CALM,0
Sun Jan 31 08:02:23 2010," US and USA, OR and Oregon, Portland, 97201",Cloudy,45,45,48,43,40,91,30.01 Steady ,42,8,E,1
Sun Jan 31 08:47:03 2010," US and USA, OR and Oregon, Portland, 97201",Cloudy,45,45,48,43,40,91,30.01 Steady ,42,8,ENE,1
Sun Jan 31 09:30:18 2010," US and USA, OR and Oregon, Portland, 97201",Cloudy,45,45,48,44,30,93,30.01 Steady ,43,8,CALM,0
Sun Jan 31 10:13:29 2010," US and USA, OR and Oregon, Portland, 97201",Cloudy,45,45,48,44,30,93,30.01 Steady ,43,7,E,1
Sun Jan 31 10:57:16 2010," US and USA, OR and Oregon, Portland, 97201",Cloudy,45,45,48,44,30,94,30.01 Steady ,43,7,SSW,2
Sun Jan 31 11:40:48 2010," US and USA, OR and Oregon, Portland, 97201",Cloudy,44,44,51,41,30,96,30.01 Steady ,43,7,ESE,1
Sun Jan 31 12:24:23 2010," US and USA, OR and Oregon, Portland, 97201",Cloudy,45,45,51,41,30,96,30.01 Steady ,44,5,CALM,0
Sun Jan 31 13:07:46 2010," US and USA, OR and Oregon, Portland, 97201",Cloudy,45,45,51,41,30,97,30.01 Steady ,44,5,CALM,0
Sun Jan 31 13:51:23 2010," US and USA, OR and Oregon, Portland, 97201",Cloudy,45,45,51,41,30,96,30.00 Steady ,44,5,CALM,0
Sun Jan 31 14:34:11 2010," US and USA, OR and Oregon, Portland, 97201",Cloudy,46,46,51,41,30,94,30.01 Steady ,44,5,CALM,0
Sun Jan 31 15:18:17 2010," US and USA, OR and Oregon, Portland, 97201",Cloudy,45,45,51,41,30,94,30.01 Steady ,44,5,CALM,0
Sun Jan 31 16:01:49 2010," US and USA, OR and Oregon, Portland, 97201",Cloudy,46,46,51,41,30,94,30.01 Steady ,44,5,CALM,0
Sun Jan 31 16:51:36 2010," US and USA, OR and Oregon, Portland, 97201",Cloudy,45,45,51,41,30,96,30.01 Steady ,44,5,CALM,0
Sun Jan 31 17:35:14 2010," US and USA, OR and Oregon, Portland, 97201",Cloudy,46,46,51,41,30,94,30.02 Steady ,44,5,CALM,0
Sun Jan 31 18:20:13 2010," US and USA, OR and Oregon, Portland, 97201",Cloudy,47,47,51,41,30,93,30.02 Steady ,45,5,ENE,1
Sun Jan 31 19:04:01 2010," US and USA, OR and Oregon, Portland, 97201",Cloudy,47,47,51,41,30,92,30.02 Steady ,45,5,ESE,1
Sun Jan 31 19:49:31 2010," US and USA, OR and Oregon, Portland, 97201",Cloudy,48,48,51,42,30,91,30.04 Rising ,45,7,SSE,3
Sun Jan 31 20:32:20 2010," US and USA, OR and Oregon, Portland, 97201",Cloudy,50,50,51,42,30,82,30.03 Falling ,45,10,SSW,1
Sun Jan 31 21:16:58 2010," US and USA, OR and Oregon, Portland, 97201",Cloudy,51,51,52,42,30,79,30.02 Falling ,44,10,ENE,2
Sun Jan 31 21:59:46 2010," US and USA, OR and Oregon, Portland, 97201",Cloudy,51,51,52,42,20,78,30.02 Steady ,44,10,ENE,2
Sun Jan 31 22:44:35 2010," US and USA, OR and Oregon, Portland, 97201",Cloudy,52,52,52,42,20,74,30.00 Steady ,44,10,SW,2
Sun Jan 31 23:27:56 2010," US and USA, OR and Oregon, Portland, 97201",Cloudy,52,52,52,42,10,76,29.97 Falling Rapidly ,44,10,NE,3
Mon Feb  1 00:11:53 2010," US and USA, OR and Oregon, Portland, 97201",Cloudy,52,52,52,42,10,74,29.97 Steady ,44,10,NNE,4
Mon Feb  1 00:54:48 2010," US and USA, OR and Oregon, Portland, 97201",Cloudy,51,51,52,42,10,76,29.96 Steady ,44,10,ENE,2
Mon Feb  1 01:41:06 2010," US and USA, OR and Oregon, Portland, 97201",Partly Cloudy,51,51,52,42,10,78,29.96 Steady ,44,10,NW,2
Mon Feb  1 02:25:06 2010," US and USA, OR and Oregon, Portland, 97201",Cloudy,50,50,52,42,10,82,29.96 Steady ,44,10,WNW,1
Mon Feb  1 03:08:46 2010," US and USA, OR and Oregon, Portland, 97201",Cloudy,47,47,52,42,10,86,29.96 Steady ,43,9,N,2
Mon Feb  1 03:53:27 2010," US and USA, OR and Oregon, Portland, 97201",Mostly Cloudy,47,47,52,42,10,89,29.96 Steady ,44,10,CALM,0
Mon Feb  1 04:38:15 2010," US and USA, OR and Oregon, Portland, 97201",Mostly Clear,44,44,52,41,10,92,29.96 Steady ,42,9,CALM,0
Mon Feb  1 05:21:24 2010," US and USA, OR and Oregon, Portland, 97201",Partly Cloudy,44,44,52,41,10,92,29.96 Steady ,42,10,ESE,2
Mon Feb  1 06:06:18 2010," US and USA, OR and Oregon, Portland, 97201",Partly Cloudy,44,44,52,42,10,92,29.96 Steady ,42,10,ESE,2
Mon Feb  1 06:49:27 2010," US and USA, OR and Oregon, Portland, 97201",Partly Cloudy,41,41,52,42,10,93,29.96 Steady ,39,8,ESE,3
Mon Feb  1 07:33:17 2010," US and USA, OR and Oregon, Portland, 97201",Partly Cloudy,41,41,52,40,10,93,29.95 Steady ,40,7,ESE,3
Mon Feb  1 08:16:42 2010," US and USA, OR and Oregon, Portland, 97201",Partly Cloudy,42,42,52,40,10,92,29.95 Steady ,39,7,ESE,3
Mon Feb  1 09:00:10 2010," US and USA, OR and Oregon, Portland, 97201",Partly Cloudy,41,41,52,40,70,92,29.95 Steady ,39,7,ESE,3
Mon Feb  1 09:43:07 2010," US and USA, OR and Oregon, Portland, 97201",Partly Cloudy,39,39,52,39,80,94,29.94 Steady ,38,6,ESE,3
Mon Feb  1 10:26:40 2010," US and USA, OR and Oregon, Portland, 97201",Mostly Cloudy,39,39,52,39,80,94,29.94 Steady ,37,5,SE,1
Mon Feb  1 11:09:37 2010," US and USA, OR and Oregon, Portland, 97201",Partly Cloudy,38,38,52,39,80,91,29.94 Steady ,35,6,CALM,0
Mon Feb  1 11:53:04 2010," US and USA, OR and Oregon, Portland, 97201",Cloudy,38,38,48,44,80,95,29.93 Steady ,37,5,NNE,1
Mon Feb  1 12:36:27 2010," US and USA, OR and Oregon, Portland, 97201",Cloudy,39,39,48,44,80,95,29.91 Falling ,38,5,SE,1
Mon Feb  1 13:19:58 2010," US and USA, OR and Oregon, Portland, 97201",Cloudy,40,40,48,44,80,95,29.91 Steady ,38,5,N,3
Mon Feb  1 14:03:52 2010," US and USA, OR and Oregon, Portland, 97201",Cloudy,40,40,48,44,80,94,29.91 Steady ,38,5,E,1
Mon Feb  1 14:48:55 2010," US and USA, OR and Oregon, Portland, 97201",Rain,41,41,48,44,80,94,29.92 Rising ,39,3,CALM,0
Mon Feb  1 15:32:40 2010," US and USA, OR and Oregon, Portland, 97201",Cloudy,41,38,48,44,80,89,29.91 Steady ,38,9,ENE,5
Mon Feb  1 16:17:23 2010," US and USA, OR and Oregon, Portland, 97201",Cloudy,42,38,48,44,80,88,29.91 Steady ,38,8,E,6
Mon Feb  1 17:02:10 2010," US and USA, OR and Oregon, Portland, 97201",Cloudy,41,37,48,44,80,89,29.90 Steady ,38,9,E,7
Mon Feb  1 17:45:58 2010," US and USA, OR and Oregon, Portland, 97201",Cloudy,41,41,49,44,80,90,29.90 Steady ,39,9,SE,3
Mon Feb  1 18:29:27 2010," US and USA, OR and Oregon, Portland, 97201",Cloudy,42,42,48,44,80,86,29.90 Steady ,39,10,ESE,3
Mon Feb  1 19:13:14 2010," US and USA, OR and Oregon, Portland, 97201",Cloudy,42,42,48,44,80,90,29.90 Steady ,40,7,SSE,1
Mon Feb  1 19:58:04 2010," US and USA, OR and Oregon, Portland, 97201",Showers,44,44,47,44,80,90,29.89 Steady ,41,7,ENE,2
Mon Feb  1 20:44:29 2010," US and USA, OR and Oregon, Portland, 97201",Showers,44,44,47,44,80,87,29.90 Steady ,41,4,ENE,3
Mon Feb  1 21:29:29 2010," US and USA, OR and Oregon, Portland, 97201",Showers,44,44,47,44,80,84,29.89 Falling ,40,7,ENE,4
Mon Feb  1 22:12:49 2010," US and USA, OR and Oregon, Portland, 97201",Showers,44,41,47,44,80,88,29.89 Steady ,41,7,ESE,6
Mon Feb  1 22:56:10 2010," US and USA, OR and Oregon, Portland, 97201",Cloudy,45,42,46,44,80,89,29.87 Steady ,42,9,ESE,6
Mon Feb  1 23:42:16 2010," US and USA, OR and Oregon, Portland, 97201",Cloudy,45,42,46,44,80,89,29.86 Steady ,42,9,ESE,6
Tue Feb  2 00:29:10 2010," US and USA, OR and Oregon, Portland, 97201",Showers,46,43,46,44,80,89,29.86 Steady ,43,7,ESE,6
Tue Feb  2 01:14:46 2010," US and USA, OR and Oregon, Portland, 97201",Showers,45,42,46,44,80,89,29.86 Steady ,42,7,ESE,7
Tue Feb  2 01:57:53 2010," US and USA, OR and Oregon, Portland, 97201",Showers,45,42,46,44,80,90,29.86 Steady ,43,4,ESE,6
Tue Feb  2 02:41:57 2010," US and USA, OR and Oregon, Portland, 97201",Showers,45,41,46,44,80,91,29.86 Steady ,42,6,ESE,6
Tue Feb  2 03:25:28 2010," US and USA, OR and Oregon, Portland, 97201",Showers,45,40,46,44,80,91,29.86 Steady ,42,4,ESE,9
Tue Feb  2 04:09:15 2010," US and USA, OR and Oregon, Portland, 97201",Showers,45,41,46,44,80,90,29.86 Steady ,42,6,E,8
Tue Feb  2 04:52:48 2010," US and USA, OR and Oregon, Portland, 97201",Cloudy,44,41,46,43,80,92,29.86 Steady ,42,9,ESE,7
Tue Feb  2 05:36:12 2010," US and USA, OR and Oregon, Portland, 97201",Cloudy,45,41,46,44,80,91,29.87 Steady ,42,8,ESE,8
Tue Feb  2 06:19:29 2010," US and USA, OR and Oregon, Portland, 97201",Cloudy,45,41,46,44,80,91,29.87 Steady ,42,9,ESE,8
Tue Feb  2 07:06:37 2010," US and USA, OR and Oregon, Portland, 97201",Cloudy,45,40,46,44,80,92,29.87 Steady ,42,8,ESE,8
Tue Feb  2 07:49:35 2010," US and USA, OR and Oregon, Portland, 97201",Cloudy,44,41,46,43,70,92,29.89 Steady ,42,10,ESE,7
Tue Feb  2 08:32:48 2010," US and USA, OR and Oregon, Portland, 97201",Cloudy,44,40,46,43,70,92,29.89 Steady ,42,9,ESE,7
Tue Feb  2 09:16:18 2010," US and USA, OR and Oregon, Portland, 97201",Cloudy,43,43,46,42,30,94,29.89 Steady ,42,9,ESE,3
Tue Feb  2 09:59:49 2010," US and USA, OR and Oregon, Portland, 97201",Cloudy,43,43,46,42,20,94,29.89 Steady ,42,9,ESE,3
Tue Feb  2 10:43:23 2010," US and USA, OR and Oregon, Portland, 97201",Cloudy,43,39,46,42,20,91,29.89 Steady ,40,8,ESE,6
Tue Feb  2 11:27:31 2010," US and USA, OR and Oregon, Portland, 97201",Cloudy,43,40,55,44,20,90,29.89 Steady ,41,9,ESE,5
Tue Feb  2 12:11:32 2010," US and USA, OR and Oregon, Portland, 97201",Cloudy,42,39,55,44,20,94,29.90 Rising ,40,9,ESE,5
Tue Feb  2 12:55:24 2010," US and USA, OR and Oregon, Portland, 97201",Cloudy,43,43,55,44,20,92,29.90 Steady ,40,8,ESE,3
Tue Feb  2 13:38:46 2010," US and USA, OR and Oregon, Portland, 97201",Cloudy,42,39,55,44,20,94,29.89 Steady ,40,8,E,5
Tue Feb  2 14:22:24 2010," US and USA, OR and Oregon, Portland, 97201",Cloudy,42,40,55,44,20,91,29.89 Steady ,40,9,E,4
Tue Feb  2 15:06:46 2010," US and USA, OR and Oregon, Portland, 97201",Cloudy,41,38,55,44,20,92,29.88 Falling ,39,8,E,5
Tue Feb  2 15:53:10 2010," US and USA, OR and Oregon, Portland, 97201",Cloudy,41,41,55,44,20,96,29.88 Steady ,40,8,ENE,2
Tue Feb  2 16:45:40 2010," US and USA, OR and Oregon, Portland, 97201",Mostly Cloudy,40,40,56,44,20,95,29.87 Steady ,39,7,E,2
Tue Feb  2 17:34:08 2010," US and USA, OR and Oregon, Portland, 97201",Mostly Cloudy,42,42,56,44,20,93,29.88 Steady ,40,7,E,2
Tue Feb  2 18:18:44 2010," US and USA, OR and Oregon, Portland, 97201",Mostly Cloudy,44,41,55,44,20,87,29.88 Steady ,40,8,NE,5
Tue Feb  2 19:02:54 2010," US and USA, OR and Oregon, Portland, 97201",Mostly Cloudy,46,43,55,44,20,83,29.88 Steady ,41,9,NE,4
Tue Feb  2 19:52:19 2010," US and USA, OR and Oregon, Portland, 97201",Partly Cloudy,48,46,55,44,20,79,29.87 Steady ,42,10,NNE,4
Tue Feb  2 20:43:29 2010," US and USA, OR and Oregon, Portland, 97201",Partly Cloudy,49,48,55,44,20,76,29.86 Steady ,42,10,ENE,4
Tue Feb  2 21:30:19 2010," US and USA, OR and Oregon, Portland, 97201",Partly Cloudy,49,46,53,44,20,80,29.84 Falling Rapidly ,43,10,NNW,6
Tue Feb  2 22:18:42 2010," US and USA, OR and Oregon, Portland, 97201",Partly Cloudy,51,51,53,44,20,74,29.80 Falling Rapidly ,43,10,E,5
Tue Feb  2 23:03:00 2010," US and USA, OR and Oregon, Portland, 97201",Partly Cloudy,52,52,53,44,20,70,29.81 Steady ,43,10,E,5
Tue Feb  2 23:48:19 2010," US and USA, OR and Oregon, Portland, 97201",Mostly Cloudy,52,52,53,44,70,72,29.78 Steady ,43,10,ENE,4
Wed Feb  3 00:32:44 2010," US and USA, OR and Oregon, Portland, 97201",Partly Cloudy,54,54,53,44,70,66,29.77 Steady ,42,10,ENE,4
Wed Feb  3 01:19:54 2010," US and USA, OR and Oregon, Portland, 97201",Partly Cloudy,52,52,53,44,70,68,29.76 Falling ,42,10,ENE,3
Wed Feb  3 02:05:07 2010," US and USA, OR and Oregon, Portland, 97201",Partly Cloudy,51,51,53,44,70,69,29.76 Steady ,41,9,ESE,5
Wed Feb  3 02:53:24 2010," US and USA, OR and Oregon, Portland, 97201",Cloudy,49,46,53,44,70,76,29.76 Steady ,41,9,SE,7
Wed Feb  3 03:40:13 2010," US and USA, OR and Oregon, Portland, 97201",Showers,49,46,53,44,70,78,29.76 Steady ,42,7,SE,6
Wed Feb  3 04:28:22 2010," US and USA, OR and Oregon, Portland, 97201",Cloudy,48,44,53,44,70,80,29.77 Rising ,42,8,ESE,9
Wed Feb  3 05:15:13 2010," US and USA, OR and Oregon, Portland, 97201",Cloudy,47,43,53,44,70,85,29.77 Steady ,43,8,ESE,10
Wed Feb  3 06:03:00 2010," US and USA, OR and Oregon, Portland, 97201",Cloudy,47,43,53,44,70,85,29.77 Steady ,43,8,ESE,9to18
Thu Feb  4 06:05:30 2010," US and USA, OR and Oregon, Portland, 97201",Cloudy,47,42,48,44,30,84,29.75 Rising ,42,10,SE,10to20
Thu Feb  4 06:48:34 2010," US and USA, OR and Oregon, Portland, 97201",Cloudy,47,41,48,44,30,83,29.76 Steady ,42,10,SE,13to18
Thu Feb  4 07:32:12 2010," US and USA, OR and Oregon, Portland, 97201",Cloudy,47,43,48,44,30,85,29.76 Steady ,43,10,ESE,9
Thu Feb  4 08:14:43 2010," US and USA, OR and Oregon, Portland, 97201",Cloudy,47,42,48,44,30,86,29.76 Steady ,43,10,ESE,9
Thu Feb  4 08:58:24 2010," US and USA, OR and Oregon, Portland, 97201",Cloudy,46,42,48,44,30,89,29.76 Rising ,43,10,ESE,8
Thu Feb  4 09:42:20 2010," US and USA, OR and Oregon, Portland, 97201",Cloudy,46,40,48,44,70,88,29.76 Steady ,42,10,ESE,11
Thu Feb  4 10:25:59 2010," US and USA, OR and Oregon, Portland, 97201",Cloudy,46,41,48,44,70,88,29.75 Steady ,42,10,ESE,10
Thu Feb  4 11:11:55 2010," US and USA, OR and Oregon, Portland, 97201",Cloudy,45,40,48,44,70,89,29.75 Steady ,42,10,ESE,9
Thu Feb  4 11:55:26 2010," US and USA, OR and Oregon, Portland, 97201",Cloudy,45,41,50,46,70,88,29.74 Steady ,42,10,ESE,9
Thu Feb  4 12:38:31 2010," US and USA, OR and Oregon, Portland, 97201",Cloudy,45,41,50,46,70,86,29.74 Steady ,41,10,ESE,9
Thu Feb  4 13:22:36 2010," US and USA, OR and Oregon, Portland, 97201",Cloudy,45,42,50,46,70,85,29.73 Falling ,41,10,ESE,6
Thu Feb  4 14:07:25 2010," US and USA, OR and Oregon, Portland, 97201",Cloudy,45,42,50,46,70,84,29.73 Steady ,41,10,ESE,6
Wed Feb  3 06:49:45 2010," US and USA, OR and Oregon, Portland, 97201",Cloudy,46,42,53,44,70,86,29.76 Steady ,42,10,E,9
Wed Feb  3 07:34:30 2010," US and USA, PA and Pennsylvania, Philadelphia, 19019",Snow Showers,31,25,37,30,30,92,30.06 Steady ,29,0.8,N,5
Wed Feb  3 08:17:38 2010," US and USA, PA and Pennsylvania, Philadelphia, 19019",Snow Showers,31,26,37,30,30,92,30.06 Steady ,29,2.7,NNE,4
Wed Feb  3 09:04:08 2010," US and USA, PA and Pennsylvania, Philadelphia, 19019",Snow Showers,31,31,37,30,30,93,30.06 Steady ,29,0.6,NNE,3
Wed Feb  3 09:47:58 2010," US and USA, PA and Pennsylvania, Philadelphia, 19019",Snow Showers,31,31,41,27,70,97,30.05 Steady ,30,0.8,CALM,0
Wed Feb  3 10:31:23 2010," US and USA, PA and Pennsylvania, Philadelphia, 19019",Snow Showers,31,31,41,27,70,97,30.04 Steady ,30,0.8,N,1
Wed Feb  3 11:18:14 2010," US and USA, PA and Pennsylvania, Philadelphia, 19019",Flurries,32,32,41,27,70,93,30.05 Rising ,30,1.8,CALM,0
Wed Feb  3 12:02:58 2010," US and USA, PA and Pennsylvania, Philadelphia, 19019",Cloudy,31,31,41,27,70,96,30.05 Steady ,30,5,CALM,0
Wed Feb  3 12:46:10 2010," US and USA, PA and Pennsylvania, Philadelphia, 19019",Cloudy,31,31,41,27,70,94,30.06 Steady ,30,5,CALM,0
Wed Feb  3 13:29:53 2010," US and USA, PA and Pennsylvania, Philadelphia, 19019",Cloudy,31,31,41,27,70,93,30.07 Rising ,29,5,NNW,4
Wed Feb  3 14:16:01 2010," US and USA, PA and Pennsylvania, Philadelphia, 19019",Cloudy,31,26,41,27,60,93,30.09 Rising Rapidly ,30,5,NW,5
Wed Feb  3 15:02:02 2010," US and USA, PA and Pennsylvania, Philadelphia, 19019",Cloudy,31,27,41,27,60,92,30.09 Steady ,30,5,NNW,5
Wed Feb  3 15:46:50 2010," US and USA, PA and Pennsylvania, Philadelphia, 19019",Cloudy,33,28,40,27,60,89,30.10 Steady ,30,5,NW,5
Wed Feb  3 16:32:43 2010," US and USA, PA and Pennsylvania, Philadelphia, 19019",Cloudy,34,28,40,27,20,86,30.10 Steady ,30,6,WNW,7
Wed Feb  3 17:19:53 2010," US and USA, PA and Pennsylvania, Philadelphia, 19019",Cloudy,33,27,40,27,20,88,30.09 Falling ,29,8,NW,5
Wed Feb  3 18:08:11 2010," US and USA, PA and Pennsylvania, Philadelphia, 19019",Cloudy,33,27,40,27,20,87,30.09 Steady ,29,8,NW,6
Wed Feb  3 18:51:18 2010," US and USA, PA and Pennsylvania, Philadelphia, 19019",Partly Cloudy,36,31,41,27,20,80,30.07 Steady ,30,10,WNW,6
Wed Feb  3 19:35:34 2010," US and USA, PA and Pennsylvania, Philadelphia, 19019",Partly Cloudy,37,31,41,27,20,74,30.05 Falling ,30,10,WNW,8
Wed Feb  3 20:19:39 2010," US and USA, PA and Pennsylvania, Philadelphia, 19019",Partly Cloudy,37,29,41,27,20,73,30.05 Steady ,29,10,WNW,12to18
Wed Feb  3 21:03:57 2010," US and USA, PA and Pennsylvania, Philadelphia, 19019",Mostly Cloudy,39,31,41,27,20,65,30.05 Steady ,28,10,WNW,12to19
Wed Feb  3 21:52:02 2010," US and USA, PA and Pennsylvania, Philadelphia, 19019",Cloudy,39,31,41,26,10,65,30.05 Rising ,28,10,WNW,12
Wed Feb  3 22:37:35 2010," US and USA, PA and Pennsylvania, Philadelphia, 19019",Mostly Cloudy,37,30,41,26,10,68,30.05 Steady ,28,9,NW,10
Wed Feb  3 23:28:31 2010," US and USA, PA and Pennsylvania, Philadelphia, 19019",Partly Cloudy,37,30,41,26,10,70,30.08 Rising Rapidly ,28,9,WNW,10to18
Thu Feb  4 00:13:26 2010," US and USA, PA and Pennsylvania, Philadelphia, 19019",Cloudy,37,37,41,26,10,72,30.10 Rising Rapidly ,29,9,WNW,4
Thu Feb  4 00:57:29 2010," US and USA, PA and Pennsylvania, Philadelphia, 19019",Cloudy,38,38,41,26,10,70,30.10 Steady ,28,10,NW,4
Thu Feb  4 01:40:47 2010," US and USA, PA and Pennsylvania, Philadelphia, 19019",Mostly Cloudy,37,31,41,26,10,67,30.14 Steady ,27,10,WNW,8
Thu Feb  4 02:28:31 2010," US and USA, PA and Pennsylvania, Philadelphia, 19019",Mostly Cloudy,37,37,41,26,10,67,30.15 Rising ,27,10,NW,4
Thu Feb  4 03:11:42 2010," US and USA, PA and Pennsylvania, Philadelphia, 19019",Mostly Cloudy,36,31,41,26,10,63,30.17 Rising Rapidly ,25,10,WNW,7
Thu Feb  4 03:56:09 2010," US and USA, PA and Pennsylvania, Philadelphia, 19019",Mostly Cloudy,35,30,41,26,10,65,30.17 Steady ,24,10,NW,5
Thu Feb  4 04:39:26 2010," US and USA, PA and Pennsylvania, Philadelphia, 19019",Partly Cloudy,35,29,41,26,10,64,30.19 Rising Rapidly ,24,10,WNW,7
Thu Feb  4 05:22:48 2010," US and USA, PA and Pennsylvania, Philadelphia, 19019",Partly Cloudy,33,28,41,26,10,68,30.20 Rising ,23,10,W,5
Thu Feb  4 15:00:25 2010," US and USA, PA and Pennsylvania, Philadelphia, 19019",Sunny,31,24,38,24,10,45,30.38 Steady ,15,10,NW,8
Thu Jan 28 15:40:03 2010," US and USA, PA and Pennsylvania, Philadelphia, 19019",Cloudy,36,32,47,20,30,64,30.04 Steady ,25,10,S,4
Thu Jan 28 16:00:51 2010," US and USA, PA and Pennsylvania, Philadelphia, 19019",Cloudy,36,32,47,20,30,64,30.04 Steady ,25,10,S,4
Thu Jan 28 16:50:10 2010," US and USA, PA and Pennsylvania, Philadelphia, 19019",Cloudy,39,33,47,20,30,62,30.05 Steady ,27,10,WSW,8
Thu Jan 28 17:14:24 2010," US and USA, PA and Pennsylvania, Philadelphia, 19019",Mostly Cloudy,41,36,47,20,30,58,30.00 Falling Rapidly ,27,10,SW,8
Thu Jan 28 17:30:25 2010," US and USA, PA and Pennsylvania, Philadelphia, 19019",Cloudy,42,35,47,20,30,58,30.00 Steady ,28,10,SW,12to23
Fri Jan 29 08:42:37 2010," US and USA, PA and Pennsylvania, Philadelphia, 19019",Clear,19,8,46,20,10,32,30.29 Steady ,-2,10,WNW,9
Fri Jan 29 09:26:32 2010," US and USA, PA and Pennsylvania, Philadelphia, 19019",Clear,19,5,30,19,10,31,30.31 Rising Rapidly ,-3,9,NW,14to27
Fri Jan 29 11:58:34 2010," US and USA, PA and Pennsylvania, Philadelphia, 19019",Clear,18,5,30,19,10,34,30.32 Steady ,-1,10,NW,13to23
Fri Jan 29 12:43:17 2010," US and USA, PA and Pennsylvania, Philadelphia, 19019",Clear,18,6,30,19,10,36,30.33 Steady ,-1,10,WNW,11
Fri Jan 29 13:31:00 2010," US and USA, PA and Pennsylvania, Philadelphia, 19019",Mostly Sunny,18,5,30,19,10,38,30.34 Steady ,0,10,NW,11to20
Fri Jan 29 14:18:50 2010," US and USA, PA and Pennsylvania, Philadelphia, 19019",Mostly Sunny,18,7,30,19,10,38,30.37 Rising Rapidly ,1,10,NW,10to17
Fri Jan 29 15:03:37 2010," US and USA, PA and Pennsylvania, Philadelphia, 19019",Mostly Sunny,20,8,30,19,10,35,30.37 Steady ,1,10,WNW,12to24
Fri Jan 29 15:49:10 2010," US and USA, PA and Pennsylvania, Philadelphia, 19019",Partly Cloudy,19,5,30,19,10,39,30.38 Steady ,2,10,NW,14to20
Fri Jan 29 16:36:59 2010," US and USA, PA and Pennsylvania, Philadelphia, 19019",Mostly Cloudy,20,7,30,19,10,36,30.39 Rising ,1,10,NW,13
Fri Jan 29 17:21:23 2010," US and USA, PA and Pennsylvania, Philadelphia, 19019",Mostly Cloudy,21,8,30,19,10,33,30.37 Falling Rapidly ,1,10,WNW,14
Fri Jan 29 18:09:53 2010," US and USA, PA and Pennsylvania, Philadelphia, 19019",Mostly Cloudy,22,9,31,18,10,33,30.37 Steady ,1,10,WNW,15
Fri Jan 29 18:54:50 2010," US and USA, PA and Pennsylvania, Philadelphia, 19019",Mostly Cloudy,22,8,31,18,10,32,30.33 Steady ,1,10,NW,17to22
Fri Jan 29 19:46:50 2010," US and USA, PA and Pennsylvania, Philadelphia, 19019",Mostly Cloudy,22,10,31,18,10,33,30.32 Steady ,1,10,WNW,12to24
Fri Jan 29 20:44:39 2010," US and USA, PA and Pennsylvania, Philadelphia, 19019",Mostly Cloudy,23,11,31,18,10,31,30.30 Steady ,2,10,NW,15to22
Fri Jan 29 21:29:16 2010," US and USA, PA and Pennsylvania, Philadelphia, 19019",Mostly Cloudy,23,10,31,16,10,31,30.30 Steady ,2,10,NW,16to25
Fri Jan 29 22:15:52 2010," US and USA, PA and Pennsylvania, Philadelphia, 19019",Mostly Cloudy,24,12,31,16,10,31,30.31 Rising ,2,9,WNW,13to17
Fri Jan 29 23:00:47 2010," US and USA, PA and Pennsylvania, Philadelphia, 19019",Mostly Cloudy,23,12,31,16,10,32,30.31 Steady ,2,8,WNW,13to20
Fri Jan 29 23:45:03 2010," US and USA, PA and Pennsylvania, Philadelphia, 19019",Partly Cloudy,23,13,31,16,10,33,30.31 Rising ,3,9,WNW,10
Sat Jan 30 00:29:09 2010," US and USA, PA and Pennsylvania, Philadelphia, 19019",Mostly Cloudy,23,12,31,16,10,33,30.31 Steady ,2,9,WNW,10
Sat Jan 30 01:13:18 2010," US and USA, PA and Pennsylvania, Philadelphia, 19019",Mostly Cloudy,23,13,31,16,10,34,30.32 Rising ,3,6,WNW,9
Sat Jan 30 01:57:15 2010," US and USA, PA and Pennsylvania, Philadelphia, 19019",Mostly Cloudy,23,13,31,16,10,35,30.32 Steady ,3,9,NW,9
Sat Jan 30 02:41:32 2010," US and USA, PA and Pennsylvania, Philadelphia, 19019",Mostly Cloudy,22,12,31,16,10,34,30.33 Steady ,2,10,WNW,9
Sat Jan 30 03:25:04 2010," US and USA, PA and Pennsylvania, Philadelphia, 19019",Partly Cloudy,22,13,31,16,10,35,30.33 Steady ,3,10,WNW,7
Sat Jan 30 04:08:59 2010," US and USA, PA and Pennsylvania, Philadelphia, 19019",Partly Cloudy,21,12,31,16,10,38,30.33 Steady ,3,9,NW,7
Sat Jan 30 04:52:45 2010," US and USA, PA and Pennsylvania, Philadelphia, 19019",Partly Cloudy,22,11,31,16,10,35,30.33 Steady ,2,9,NW,10
Sat Jan 30 05:36:31 2010," US and USA, PA and Pennsylvania, Philadelphia, 19019",Partly Cloudy,22,11,31,16,10,34,30.34 Steady ,2,10,NW,11
Sat Jan 30 06:20:36 2010," US and USA, PA and Pennsylvania, Philadelphia, 19019",Partly Cloudy,22,10,31,16,20,33,30.34 Steady ,1,10,NW,11to19
Sat Jan 30 07:06:34 2010," US and USA, PA and Pennsylvania, Philadelphia, 19019",Mostly Cloudy,21,9,31,16,20,31,30.33 Steady ,-1,10,NW,12to17
Sat Jan 30 07:49:15 2010," US and USA, PA and Pennsylvania, Philadelphia, 19019",Cloudy,21,8,31,16,20,30,30.33 Falling ,-1,10,NNW,13to21
Sat Jan 30 08:32:29 2010," US and USA, PA and Pennsylvania, Philadelphia, 19019",Cloudy,20,8,31,16,20,34,30.34 Steady ,0,10,NNW,12
Sat Jan 30 11:14:16 2010," US and USA, PA and Pennsylvania, Philadelphia, 19019",Cloudy,19,7,26,17,40,37,30.30 Falling ,1,10,N,11
Sat Jan 30 12:02:05 2010," US and USA, PA and Pennsylvania, Philadelphia, 19019",Cloudy,19,7,26,17,40,37,30.29 Falling ,1,10,N,12to19
Sat Jan 30 12:45:42 2010," US and USA, PA and Pennsylvania, Philadelphia, 19019",Cloudy,18,6,26,17,40,38,30.29 Steady ,0,10,NNW,11
Sat Jan 30 13:28:55 2010," US and USA, PA and Pennsylvania, Philadelphia, 19019",Cloudy,18,6,26,17,40,37,30.30 Rising ,-1,10,NNW,10
Sat Jan 30 14:13:07 2010," US and USA, PA and Pennsylvania, Philadelphia, 19019",Cloudy,18,9,26,17,40,37,30.30 Steady ,0,10,N,7
Sat Jan 30 14:57:24 2010," US and USA, PA and Pennsylvania, Philadelphia, 19019",Mostly Cloudy,19,9,26,17,40,37,30.30 Steady ,0,10,N,8
Sat Jan 30 15:43:01 2010," US and USA, PA and Pennsylvania, Philadelphia, 19019",Cloudy,19,6,25,17,40,37,30.27 Rising ,1,10,NNE,11
Sat Jan 30 16:27:59 2010," US and USA, PA and Pennsylvania, Philadelphia, 19019",Cloudy,19,6,25,17,40,38,30.26 Falling ,1,10,NNE,12
Sat Jan 30 17:12:27 2010," US and USA, PA and Pennsylvania, Philadelphia, 19019",Cloudy,19,8,25,17,40,32,30.25 Falling Rapidly ,-2,10,N,9
Sat Jan 30 17:55:37 2010," US and USA, PA and Pennsylvania, Philadelphia, 19019",Cloudy,19,8,25,17,40,32,30.25 Steady ,-2,10,N,9
Sat Jan 30 18:39:37 2010," US and USA, PA and Pennsylvania, Philadelphia, 19019",Cloudy,19,8,25,17,40,31,30.22 Steady ,-3,8,N,10
Sat Jan 30 19:22:54 2010," US and USA, PA and Pennsylvania, Philadelphia, 19019",Cloudy,19,10,25,16,40,31,30.20 Falling Rapidly ,-3,7,NNW,6
Sat Jan 30 20:07:10 2010," US and USA, PA and Pennsylvania, Philadelphia, 19019",Cloudy,19,10,25,16,40,37,30.20 Steady ,0,6,NNW,7
Sat Jan 30 20:50:15 2010," US and USA, PA and Pennsylvania, Philadelphia, 19019",Cloudy,20,11,25,16,40,32,30.18 Steady ,-1,6,NNW,6
Sat Jan 30 21:34:01 2010," US and USA, PA and Pennsylvania, Philadelphia, 19019",Flurries,18,8,25,16,40,44,30.15 Falling ,3,1,N,7
Sat Jan 30 22:17:32 2010," US and USA, PA and Pennsylvania, Philadelphia, 19019",Snow Showers,17,5,25,16,40,70,30.14 Steady ,10,0.8,N,9
Sat Jan 30 23:02:58 2010," US and USA, PA and Pennsylvania, Philadelphia, 19019",Snow Showers,17,5,25,16,40,69,30.12 Falling ,10,0.8,N,10
Sat Jan 30 23:47:53 2010," US and USA, PA and Pennsylvania, Philadelphia, 19019",Snow,16,3,25,16,40,74,30.11 Steady ,11,0.3,N,11
Sun Jan 31 00:31:52 2010," US and USA, PA and Pennsylvania, Philadelphia, 19019",Snow,16,4,25,16,40,74,30.09 Steady ,11,0.3,N,11
Sun Jan 31 01:22:18 2010," US and USA, PA and Pennsylvania, Philadelphia, 19019",Snow,17,4,25,15,40,75,30.08 Falling ,12,0.3,N,12to17
Sun Jan 31 02:06:18 2010," US and USA, PA and Pennsylvania, Philadelphia, 19019",Snow,17,4,25,15,40,75,30.06 Falling ,12,0.3,NNE,12to17
Sun Jan 31 02:49:42 2010," US and USA, PA and Pennsylvania, Philadelphia, 19019",Snow Showers,18,6,25,15,40,68,30.04 Falling ,11,0.5,N,10
Sun Jan 31 03:33:37 2010," US and USA, PA and Pennsylvania, Philadelphia, 19019",Cloudy,19,6,25,16,40,61,30.03 Steady ,9,8,N,12
Sun Jan 31 04:17:25 2010," US and USA, PA and Pennsylvania, Philadelphia, 19019",Cloudy,19,6,25,16,30,45,30.02 Steady ,5,10,N,13to19
Sun Jan 31 05:01:41 2010," US and USA, PA and Pennsylvania, Philadelphia, 19019",Cloudy,20,6,25,16,30,42,30.02 Steady ,4,9,N,14to23
Sun Jan 31 05:48:05 2010," US and USA, PA and Pennsylvania, Philadelphia, 19019",Cloudy,20,8,25,16,30,41,30.01 Steady ,4,10,N,12
Sun Jan 31 06:32:55 2010," US and USA, PA and Pennsylvania, Philadelphia, 19019",Cloudy,20,9,25,16,10,43,30.00 Falling ,4,10,N,10
Sun Jan 31 07:15:48 2010," US and USA, PA and Pennsylvania, Philadelphia, 19019",Cloudy,19,8,25,16,10,45,30.00 Steady ,5,10,N,10
Sun Jan 31 08:02:31 2010," US and USA, PA and Pennsylvania, Philadelphia, 19019",Cloudy,20,9,25,16,10,43,30.00 Steady ,4,10,N,9
Sun Jan 31 08:47:12 2010," US and USA, PA and Pennsylvania, Philadelphia, 19019",Cloudy,19,7,25,16,10,41,30.01 Steady ,3,10,N,12
Sun Jan 31 09:30:27 2010," US and USA, PA and Pennsylvania, Philadelphia, 19019",Cloudy,19,7,33,22,10,41,30.03 Steady ,2,10,N,11
Sun Jan 31 10:13:38 2010," US and USA, PA and Pennsylvania, Philadelphia, 19019",Mostly Cloudy,18,6,33,22,10,45,30.05 Rising Rapidly ,3,10,NNW,11
Sun Jan 31 10:57:25 2010," US and USA, PA and Pennsylvania, Philadelphia, 19019",Mostly Cloudy,18,5,33,22,10,45,30.05 Steady ,3,10,NNW,11
Sun Jan 31 11:40:57 2010," US and USA, PA and Pennsylvania, Philadelphia, 19019",Partly Cloudy,16,3,33,22,10,48,30.07 Rising ,2,9,NNW,11
Sun Jan 31 12:24:31 2010," US and USA, PA and Pennsylvania, Philadelphia, 19019",Partly Cloudy,15,5,33,22,10,49,30.09 Rising Rapidly ,2,9,NNW,7
Sun Jan 31 13:07:55 2010," US and USA, PA and Pennsylvania, Philadelphia, 19019",Partly Cloudy,14,4,33,22,10,50,30.09 Steady ,2,9,NNW,7
Sun Jan 31 13:51:31 2010," US and USA, PA and Pennsylvania, Philadelphia, 19019",Partly Cloudy,14,3,33,22,10,49,30.12 Steady ,1,9,NNW,9
Sun Jan 31 14:34:19 2010," US and USA, PA and Pennsylvania, Philadelphia, 19019",Partly Cloudy,17,6,33,22,10,40,30.14 Steady ,0,10,NNW,9
Sun Jan 31 15:18:25 2010," US and USA, PA and Pennsylvania, Philadelphia, 19019",Sunny,17,5,33,22,10,39,30.16 Rising Rapidly ,0,10,NNW,12
Sun Jan 31 16:01:58 2010," US and USA, PA and Pennsylvania, Philadelphia, 19019",Sunny,18,6,33,22,10,37,30.16 Steady ,0,10,NNW,11
Sun Jan 31 16:51:45 2010," US and USA, PA and Pennsylvania, Philadelphia, 19019",Sunny,21,11,32,22,10,35,30.17 Steady ,1,10,NNW,8
Sun Jan 31 17:35:22 2010," US and USA, PA and Pennsylvania, Philadelphia, 19019",Sunny,23,14,32,22,10,30,30.17 Steady ,1,10,NW,8
Sun Jan 31 18:20:23 2010," US and USA, PA and Pennsylvania, Philadelphia, 19019",Sunny,25,16,31,22,10,28,30.17 Steady ,1,10,NW,8
Sun Jan 31 19:04:10 2010," US and USA, PA and Pennsylvania, Philadelphia, 19019",Sunny,25,17,31,22,10,27,30.17 Steady ,1,10,NW,8
Sun Jan 31 19:49:39 2010," US and USA, PA and Pennsylvania, Philadelphia, 19019",Sunny,27,19,31,21,10,27,30.15 Steady ,2,9,W,7
Sun Jan 31 20:32:29 2010," US and USA, PA and Pennsylvania, Philadelphia, 19019",Sunny,29,24,31,21,10,26,30.14 Steady ,3,9,WNW,5
Sun Jan 31 21:17:07 2010," US and USA, PA and Pennsylvania, Philadelphia, 19019",Sunny,30,21,31,21,10,25,30.13 Falling ,4,9,WSW,10
Sun Jan 31 21:59:55 2010," US and USA, PA and Pennsylvania, Philadelphia, 19019",Sunny,29,20,31,21,0,28,30.13 Steady ,5,7,WSW,10
Sun Jan 31 22:44:44 2010," US and USA, PA and Pennsylvania, Philadelphia, 19019",Sunny,28,19,31,21,0,31,30.12 Steady ,6,7,WSW,11
Sun Jan 31 23:28:05 2010," US and USA, PA and Pennsylvania, Philadelphia, 19019",Sunny,27,19,31,15,0,32,30.13 Rising ,6,8,WSW,9
Mon Feb  1 00:12:02 2010," US and USA, PA and Pennsylvania, Philadelphia, 19019",Clear,26,16,31,15,0,35,30.14 Rising ,6,9,SW,10
Mon Feb  1 00:54:57 2010," US and USA, PA and Pennsylvania, Philadelphia, 19019",Clear,26,16,31,15,0,34,30.14 Steady ,6,9,SW,10
Mon Feb  1 01:41:14 2010," US and USA, PA and Pennsylvania, Philadelphia, 19019",Clear,25,16,31,15,0,37,30.15 Steady ,7,9,SW,9
Mon Feb  1 02:25:15 2010," US and USA, PA and Pennsylvania, Philadelphia, 19019",Clear,26,18,31,15,0,41,30.15 Steady ,9,10,SW,7
Mon Feb  1 03:08:55 2010," US and USA, PA and Pennsylvania, Philadelphia, 19019",Clear,25,17,31,15,0,44,30.15 Steady ,9,9,SW,6
Mon Feb  1 03:53:35 2010," US and USA, PA and Pennsylvania, Philadelphia, 19019",Clear,25,16,31,15,0,41,30.16 Steady ,8,10,SSW,8
Mon Feb  1 04:38:24 2010," US and USA, PA and Pennsylvania, Philadelphia, 19019",Clear,24,17,31,15,0,48,30.17 Steady ,11,9,WSW,6
Mon Feb  1 05:21:33 2010," US and USA, PA and Pennsylvania, Philadelphia, 19019",Clear,23,14,31,15,0,51,30.17 Steady ,10,9,SW,8
Mon Feb  1 06:06:26 2010," US and USA, PA and Pennsylvania, Philadelphia, 19019",Clear,23,14,31,15,10,51,30.17 Steady ,11,9,WSW,8
Mon Feb  1 06:49:36 2010," US and USA, PA and Pennsylvania, Philadelphia, 19019",Clear,24,14,31,15,10,52,30.17 Steady ,11,9,WSW,9
Mon Feb  1 07:33:26 2010," US and USA, PA and Pennsylvania, Philadelphia, 19019",Clear,23,15,31,15,10,51,30.18 Steady ,10,9,W,6
Mon Feb  1 08:16:51 2010," US and USA, PA and Pennsylvania, Philadelphia, 19019",Clear,23,16,31,15,10,53,30.18 Steady ,11,9,W,6
Mon Feb  1 09:00:18 2010," US and USA, PA and Pennsylvania, Philadelphia, 19019",Clear,23,14,31,15,10,53,30.20 Steady ,11,9,W,8
Mon Feb  1 09:43:15 2010," US and USA, PA and Pennsylvania, Philadelphia, 19019",Clear,24,15,37,24,10,44,30.23 Steady ,9,10,WNW,9
Mon Feb  1 10:26:49 2010," US and USA, PA and Pennsylvania, Philadelphia, 19019",Partly Cloudy,22,14,37,24,10,50,30.24 Rising ,9,9,W,6
Mon Feb  1 11:09:45 2010," US and USA, PA and Pennsylvania, Philadelphia, 19019",Partly Cloudy,25,17,37,24,10,44,30.24 Steady ,9,10,WNW,7
Mon Feb  1 11:53:13 2010," US and USA, PA and Pennsylvania, Philadelphia, 19019",Clear,23,13,37,22,10,50,30.25 Steady ,10,10,W,9
Mon Feb  1 12:36:36 2010," US and USA, PA and Pennsylvania, Philadelphia, 19019",Clear,24,15,37,22,10,45,30.28 Steady ,9,10,W,10
Mon Feb  1 13:20:06 2010," US and USA, PA and Pennsylvania, Philadelphia, 19019",Sunny,23,14,37,22,10,51,30.32 Rising Rapidly ,10,9,W,8
Mon Feb  1 14:04:00 2010," US and USA, PA and Pennsylvania, Philadelphia, 19019",Sunny,24,15,37,22,10,49,30.32 Steady ,10,10,W,8
Mon Feb  1 14:49:04 2010," US and USA, PA and Pennsylvania, Philadelphia, 19019",Sunny,28,21,37,22,10,43,30.35 Steady ,12,10,WNW,7
Mon Feb  1 15:32:49 2010," US and USA, PA and Pennsylvania, Philadelphia, 19019",Sunny,32,25,36,22,10,36,30.35 Steady ,12,10,WNW,8
Mon Feb  1 16:17:32 2010," US and USA, PA and Pennsylvania, Philadelphia, 19019",Sunny,34,26,36,22,10,42,30.35 Steady ,13,10,WNW,9to18
Mon Feb  1 17:02:19 2010," US and USA, PA and Pennsylvania, Philadelphia, 19019",Mostly Sunny,32,23,35,22,10,35,30.34 Steady ,11,10,NW,11
Mon Feb  1 17:46:06 2010," US and USA, PA and Pennsylvania, Philadelphia, 19019",Partly Cloudy,32,23,35,22,10,44,30.33 Steady ,12,10,WNW,11
Mon Feb  1 18:29:36 2010," US and USA, PA and Pennsylvania, Philadelphia, 19019",Partly Cloudy,33,24,35,22,10,42,30.31 Falling Rapidly ,12,10,WNW,10
Mon Feb  1 19:13:22 2010," US and USA, PA and Pennsylvania, Philadelphia, 19019",Mostly Cloudy,34,27,35,22,10,41,30.27 Falling Rapidly ,12,10,W,8
Mon Feb  1 19:58:12 2010," US and USA, PA and Pennsylvania, Philadelphia, 19019",Mostly Cloudy,34,26,35,22,10,42,30.27 Steady ,13,9,W,9
Mon Feb  1 20:44:38 2010," US and USA, PA and Pennsylvania, Philadelphia, 19019",Partly Cloudy,35,27,35,22,10,40,30.27 Steady ,13,9,WSW,12to17
Mon Feb  1 21:29:37 2010," US and USA, PA and Pennsylvania, Philadelphia, 19019",Partly Cloudy,35,26,35,23,10,39,30.27 Steady ,12,10,W,13to19
Mon Feb  1 22:12:58 2010," US and USA, PA and Pennsylvania, Philadelphia, 19019",Partly Cloudy,35,27,35,23,20,39,30.27 Steady ,12,9,WNW,11
Mon Feb  1 22:56:19 2010," US and USA, PA and Pennsylvania, Philadelphia, 19019",Partly Cloudy,33,26,35,23,20,43,30.27 Steady ,13,7,WNW,10
Mon Feb  1 23:42:25 2010," US and USA, PA and Pennsylvania, Philadelphia, 19019",Partly Cloudy,34,26,35,23,20,41,30.26 Steady ,12,9,W,10
Tue Feb  2 00:29:19 2010," US and USA, PA and Pennsylvania, Philadelphia, 19019",Partly Cloudy,33,26,35,23,20,45,30.27 Rising ,13,9,W,9
Tue Feb  2 01:14:55 2010," US and USA, PA and Pennsylvania, Philadelphia, 19019",Partly Cloudy,31,24,35,23,20,42,30.28 Rising ,14,10,W,8
Tue Feb  2 01:58:02 2010," US and USA, PA and Pennsylvania, Philadelphia, 19019",Partly Cloudy,30,24,35,23,20,44,30.28 Steady ,14,10,W,6
Tue Feb  2 02:42:06 2010," US and USA, PA and Pennsylvania, Philadelphia, 19019",Partly Cloudy,30,24,35,23,20,49,30.28 Steady ,16,10,WSW,6
Tue Feb  2 03:25:37 2010," US and USA, PA and Pennsylvania, Philadelphia, 19019",Partly Cloudy,30,24,35,23,20,53,30.28 Steady ,18,10,WSW,6
Tue Feb  2 04:09:24 2010," US and USA, PA and Pennsylvania, Philadelphia, 19019",Partly Cloudy,30,23,35,23,20,51,30.28 Steady ,16,10,WSW,6
Tue Feb  2 04:52:57 2010," US and USA, PA and Pennsylvania, Philadelphia, 19019",Mostly Cloudy,30,22,35,23,20,53,30.28 Steady ,17,10,WSW,7
Tue Feb  2 05:36:20 2010," US and USA, PA and Pennsylvania, Philadelphia, 19019",Mostly Clear,27,19,35,23,20,62,30.29 Steady ,17,10,W,7
Tue Feb  2 06:19:37 2010," US and USA, PA and Pennsylvania, Philadelphia, 19019",Mostly Clear,26,18,35,23,30,62,30.29 Steady ,17,10,W,8
Tue Feb  2 07:06:46 2010," US and USA, PA and Pennsylvania, Philadelphia, 19019",Clear,28,23,35,23,30,57,30.29 Steady ,17,10,W,4
Tue Feb  2 07:49:44 2010," US and USA, PA and Pennsylvania, Philadelphia, 19019",Mostly Clear,26,26,35,23,30,64,30.28 Steady ,18,10,W,3
Tue Feb  2 08:32:56 2010," US and USA, PA and Pennsylvania, Philadelphia, 19019",Mostly Clear,27,27,35,23,30,64,30.29 Steady ,18,10,WNW,1
Tue Feb  2 09:16:27 2010," US and USA, PA and Pennsylvania, Philadelphia, 19019",Mostly Clear,26,26,35,23,30,69,30.27 Falling Rapidly ,19,10,N,2
Tue Feb  2 09:59:58 2010," US and USA, PA and Pennsylvania, Philadelphia, 19019",Mostly Clear,25,25,39,29,30,69,30.27 Steady ,18,9,N,3
Tue Feb  2 10:43:32 2010," US and USA, PA and Pennsylvania, Philadelphia, 19019",Mostly Clear,26,26,39,29,30,63,30.27 Steady ,17,9,W,3
Tue Feb  2 11:27:39 2010," US and USA, PA and Pennsylvania, Philadelphia, 19019",Mostly Clear,26,26,39,29,30,67,30.28 Rising ,18,9,SW,3
Tue Feb  2 12:11:40 2010," US and USA, PA and Pennsylvania, Philadelphia, 19019",Mostly Clear,25,25,39,29,30,71,30.29 Rising ,19,10,CALM,0
Tue Feb  2 12:55:33 2010," US and USA, PA and Pennsylvania, Philadelphia, 19019",Mostly Sunny,25,25,38,29,30,69,30.29 Steady ,18,10,CALM,0
Tue Feb  2 13:38:54 2010," US and USA, PA and Pennsylvania, Philadelphia, 19019",Partly Cloudy,25,25,38,29,30,73,30.28 Steady ,19,9,CALM,0
Tue Feb  2 14:22:33 2010," US and USA, PA and Pennsylvania, Philadelphia, 19019",Mostly Cloudy,26,26,38,29,30,75,30.28 Rising ,20,8,ENE,2
Tue Feb  2 15:06:55 2010," US and USA, PA and Pennsylvania, Philadelphia, 19019",Cloudy,28,28,38,29,30,67,30.28 Steady ,20,9,NE,2
Tue Feb  2 15:53:19 2010," US and USA, PA and Pennsylvania, Philadelphia, 19019",Cloudy,30,23,38,29,30,49,30.29 Rising ,17,10,ENE,7
Tue Feb  2 16:45:49 2010," US and USA, PA and Pennsylvania, Philadelphia, 19019",Cloudy,32,24,37,29,30,43,30.29 Steady ,12,10,ENE,9
Tue Feb  2 17:34:17 2010," US and USA, PA and Pennsylvania, Philadelphia, 19019",Cloudy,34,26,37,29,30,44,30.25 Steady ,14,10,E,10
Tue Feb  2 18:18:52 2010," US and USA, PA and Pennsylvania, Philadelphia, 19019",Cloudy,35,28,37,29,30,42,30.23 Falling Rapidly ,13,10,ESE,8
Tue Feb  2 19:03:03 2010," US and USA, PA and Pennsylvania, Philadelphia, 19019",Cloudy,35,28,37,29,30,44,30.23 Steady ,15,9,ESE,8
Tue Feb  2 19:52:28 2010," US and USA, PA and Pennsylvania, Philadelphia, 19019",Cloudy,35,35,37,29,30,45,30.21 Steady ,15,9,SE,3
Tue Feb  2 20:43:37 2010," US and USA, PA and Pennsylvania, Philadelphia, 19019",Cloudy,35,35,37,29,30,46,30.19 Steady ,16,9,NNE,1
Tue Feb  2 21:30:28 2010," US and USA, PA and Pennsylvania, Philadelphia, 19019",Cloudy,35,35,37,29,100,44,30.19 Steady ,15,10,E,4
Tue Feb  2 22:18:51 2010," US and USA, PA and Pennsylvania, Philadelphia, 19019",Cloudy,35,31,37,29,100,47,30.17 Falling Rapidly ,17,10,E,5
Tue Feb  2 23:03:09 2010," US and USA, PA and Pennsylvania, Philadelphia, 19019",Cloudy,35,31,37,29,100,48,30.17 Steady ,17,10,E,4
Tue Feb  2 23:48:28 2010," US and USA, PA and Pennsylvania, Philadelphia, 19019",Cloudy,35,31,37,29,100,50,30.16 Steady ,18,10,ENE,4
Wed Feb  3 00:32:52 2010," US and USA, PA and Pennsylvania, Philadelphia, 19019",Cloudy,33,33,37,29,100,57,30.15 Steady ,20,10,E,3
Wed Feb  3 01:20:03 2010," US and USA, PA and Pennsylvania, Philadelphia, 19019",Cloudy,34,34,37,29,100,60,30.15 Steady ,21,10,E,2
Wed Feb  3 02:05:15 2010," US and USA, PA and Pennsylvania, Philadelphia, 19019",Cloudy,34,34,37,29,100,63,30.15 Steady ,22,9,CALM,0
Wed Feb  3 02:53:33 2010," US and USA, PA and Pennsylvania, Philadelphia, 19019",Cloudy,33,28,37,29,100,70,30.14 Steady ,24,8,NE,5
Wed Feb  3 03:40:22 2010," US and USA, PA and Pennsylvania, Philadelphia, 19019",Cloudy,34,34,37,30,100,67,30.13 Steady ,24,9,NE,4
Wed Feb  3 04:28:31 2010," US and USA, PA and Pennsylvania, Philadelphia, 19019",Snow Showers,34,34,37,30,100,67,30.11 Falling Rapidly ,24,3,NE,2
Wed Feb  3 05:15:21 2010," US and USA, PA and Pennsylvania, Philadelphia, 19019",Snow Showers,33,28,37,30,100,77,30.11 Rising ,26,0.5,NE,5
Wed Feb  3 06:03:09 2010," US and USA, PA and Pennsylvania, Philadelphia, 19019",Snow Showers,32,32,37,30,30,78,30.10 Falling ,27,3,NE,3
Thu Feb  4 06:05:39 2010," US and USA, PA and Pennsylvania, Philadelphia, 19019",Partly Cloudy,33,28,41,26,0,67,30.20 Steady ,23,10,WNW,5
Thu Feb  4 06:48:43 2010," US and USA, PA and Pennsylvania, Philadelphia, 19019",Cloudy,33,27,41,26,0,70,30.22 Steady ,24,10,W,7
Thu Feb  4 07:32:21 2010," US and USA, PA and Pennsylvania, Philadelphia, 19019",Cloudy,34,29,41,26,0,61,30.22 Steady ,22,10,WNW,6
Thu Feb  4 08:14:52 2010," US and USA, PA and Pennsylvania, Philadelphia, 19019",Cloudy,34,29,41,26,0,60,30.22 Steady ,22,10,WNW,7
Thu Feb  4 08:58:33 2010," US and USA, PA and Pennsylvania, Philadelphia, 19019",Partly Cloudy,33,23,41,26,0,49,30.23 Steady ,16,10,NW,13to20
Thu Feb  4 09:42:29 2010," US and USA, PA and Pennsylvania, Philadelphia, 19019",Partly Cloudy,33,24,38,24,10,50,30.26 Steady ,16,10,NW,12
Thu Feb  4 10:26:08 2010," US and USA, PA and Pennsylvania, Philadelphia, 19019",Partly Cloudy,32,26,38,24,10,54,30.26 Steady ,17,10,WNW,7
Thu Feb  4 11:12:04 2010," US and USA, PA and Pennsylvania, Philadelphia, 19019",Mostly Clear,31,26,38,24,10,48,30.29 Rising Rapidly ,17,9,WNW,6
Thu Feb  4 11:55:35 2010," US and USA, PA and Pennsylvania, Philadelphia, 19019",Mostly Clear,31,25,38,24,10,48,30.29 Steady ,17,10,WNW,6
Thu Feb  4 12:38:40 2010," US and USA, PA and Pennsylvania, Philadelphia, 19019",Clear,31,23,38,24,10,46,30.33 Steady ,15,10,WNW,8
Thu Feb  4 13:22:44 2010," US and USA, PA and Pennsylvania, Philadelphia, 19019",Sunny,30,22,38,24,10,47,30.36 Rising Rapidly ,15,10,WNW,8
Thu Feb  4 14:07:34 2010," US and USA, PA and Pennsylvania, Philadelphia, 19019",Sunny,30,22,38,24,10,43,30.36 Steady ,14,10,WNW,9
Wed Feb  3 06:49:53 2010," US and USA, PA and Pennsylvania, Philadelphia, 19019",Snow Showers,31,31,37,30,30,91,30.08 Steady ,29,2.9,NNE,3
Wed Feb  3 07:34:12 2010," US and USA, TN and Tennessee, Memphis, 37501",Clear,29,29,47,28,10,83,30.25 Steady ,25,7,CALM,0
Wed Feb  3 08:17:22 2010," US and USA, TN and Tennessee, Memphis, 37501",Clear,28,28,47,28,10,86,30.25 Steady ,25,7,CALM,0
Wed Feb  3 09:03:50 2010," US and USA, TN and Tennessee, Memphis, 37501",Clear,31,31,47,28,10,82,30.24 Falling ,27,9,N,2
Wed Feb  3 09:47:40 2010," US and USA, TN and Tennessee, Memphis, 37501",Clear,29,29,46,34,10,89,30.24 Steady ,26,8,SW,1
Wed Feb  3 10:31:05 2010," US and USA, TN and Tennessee, Memphis, 37501",Clear,29,29,46,34,10,88,30.25 Steady ,26,7,SSW,2
Wed Feb  3 11:17:56 2010," US and USA, TN and Tennessee, Memphis, 37501",Clear,27,27,46,34,10,91,30.24 Falling ,25,6,CALM,0
Wed Feb  3 12:02:40 2010," US and USA, TN and Tennessee, Memphis, 37501",Clear,27,27,46,34,10,94,30.24 Steady ,26,6,CALM,0
Wed Feb  3 12:45:52 2010," US and USA, TN and Tennessee, Memphis, 37501",Clear,28,28,46,34,10,89,30.23 Falling ,25,7,SE,1
Wed Feb  3 13:29:35 2010," US and USA, TN and Tennessee, Memphis, 37501",Mostly Clear,27,27,46,34,10,92,30.29 Rising Rapidly ,25,7,NW,1
Wed Feb  3 14:15:43 2010," US and USA, TN and Tennessee, Memphis, 37501",Mostly Sunny,27,27,46,34,10,91,30.31 Rising Rapidly ,25,5,CALM,0
Wed Feb  3 15:01:43 2010," US and USA, TN and Tennessee, Memphis, 37501",Mostly Sunny,28,28,46,34,10,92,30.30 Falling ,27,5,CALM,0
Wed Feb  3 15:46:31 2010," US and USA, TN and Tennessee, Memphis, 37501",Sunny,32,32,46,34,10,85,30.30 Steady ,28,6,E,1
Wed Feb  3 16:32:24 2010," US and USA, TN and Tennessee, Memphis, 37501",Partly Cloudy,35,29,46,34,10,86,30.31 Rising ,31,8,NNE,6
Wed Feb  3 17:19:35 2010," US and USA, TN and Tennessee, Memphis, 37501",Partly Cloudy,39,34,45,34,10,71,30.33 Rising Rapidly ,30,10,NNE,7
Wed Feb  3 18:07:52 2010," US and USA, TN and Tennessee, Memphis, 37501",Partly Cloudy,40,35,45,34,10,64,30.32 Steady ,29,10,NNE,8
Wed Feb  3 18:51:00 2010," US and USA, TN and Tennessee, Memphis, 37501",Partly Cloudy,42,39,46,34,10,65,30.31 Steady ,31,10,NE,5
Wed Feb  3 19:35:16 2010," US and USA, TN and Tennessee, Memphis, 37501",Partly Cloudy,44,40,46,34,10,62,30.28 Steady ,32,10,NE,7
Wed Feb  3 20:19:20 2010," US and USA, TN and Tennessee, Memphis, 37501",Partly Cloudy,46,41,46,34,10,57,30.26 Falling Rapidly ,31,10,NE,8
Wed Feb  3 21:03:39 2010," US and USA, TN and Tennessee, Memphis, 37501",Partly Cloudy,46,41,46,34,10,57,30.26 Steady ,31,10,NE,8
Wed Feb  3 21:51:44 2010," US and USA, TN and Tennessee, Memphis, 37501",Mostly Cloudy,45,41,46,34,20,61,30.24 Steady ,32,10,NE,6
Wed Feb  3 22:37:17 2010," US and USA, TN and Tennessee, Memphis, 37501",Mostly Cloudy,44,38,46,34,20,62,30.22 Steady ,32,9,NE,11
Wed Feb  3 23:28:11 2010," US and USA, TN and Tennessee, Memphis, 37501",Mostly Cloudy,43,37,46,34,20,64,30.22 Steady ,31,9,NE,9
Thu Feb  4 00:13:08 2010," US and USA, TN and Tennessee, Memphis, 37501",Cloudy,39,33,46,34,20,68,30.25 Rising Rapidly ,29,8,N,9
Thu Feb  4 00:57:11 2010," US and USA, TN and Tennessee, Memphis, 37501",Cloudy,39,33,46,34,20,69,30.25 Steady ,29,8,N,9
Thu Feb  4 01:40:28 2010," US and USA, TN and Tennessee, Memphis, 37501",Cloudy,39,33,46,34,20,69,30.28 Steady ,30,9,NNE,10
Thu Feb  4 02:28:13 2010," US and USA, TN and Tennessee, Memphis, 37501",Cloudy,37,30,46,34,20,70,30.27 Falling ,28,9,NE,10
Thu Feb  4 03:11:24 2010," US and USA, TN and Tennessee, Memphis, 37501",Cloudy,36,30,46,34,20,73,30.26 Falling ,29,8,NE,9
Thu Feb  4 03:55:51 2010," US and USA, TN and Tennessee, Memphis, 37501",Cloudy,35,31,46,34,20,80,30.27 Steady ,30,9,NE,4
Thu Feb  4 04:39:07 2010," US and USA, TN and Tennessee, Memphis, 37501",Mostly Cloudy,36,29,46,34,20,76,30.25 Steady ,29,9,NE,8
Thu Feb  4 05:22:30 2010," US and USA, TN and Tennessee, Memphis, 37501",Cloudy,36,30,46,34,20,74,30.23 Falling Rapidly ,28,9,NE,8
Thu Feb  4 15:00:04 2010," US and USA, TN and Tennessee, Memphis, 37501",Showers,36,33,41,40,80,79,30.20 Steady ,30,7,NE,4
Thu Jan 28 15:39:43 2010," US and USA, TN and Tennessee, Memphis, 37501",Mostly Cloudy,41,34,44,30,30,76,30.35 Steady ,34,9,NNE,13
Thu Jan 28 16:00:32 2010," US and USA, TN and Tennessee, Memphis, 37501",Mostly Cloudy,41,34,44,30,30,76,30.35 Steady ,34,9,NNE,13
Thu Jan 28 16:49:51 2010," US and USA, TN and Tennessee, Memphis, 37501",Cloudy,40,33,44,30,30,75,30.40 Steady ,33,10,NNE,13
Thu Jan 28 17:14:05 2010," US and USA, TN and Tennessee, Memphis, 37501",Cloudy,40,32,44,30,30,72,30.42 Rising Rapidly ,32,10,NNE,14
Thu Jan 28 17:30:06 2010," US and USA, TN and Tennessee, Memphis, 37501",Cloudy,40,32,44,30,30,72,30.42 Rising Rapidly ,32,10,NNE,14
Fri Jan 29 08:42:18 2010," US and USA, TN and Tennessee, Memphis, 37501",Cloudy,32,21,42,29,100,70,30.31 Steady ,23,9,ENE,18to27
Fri Jan 29 09:26:13 2010," US and USA, TN and Tennessee, Memphis, 37501",Cloudy,32,21,42,29,100,64,30.30 Falling ,23,10,ENE,15to20
Fri Jan 29 11:58:16 2010," US and USA, TN and Tennessee, Memphis, 37501",Cloudy,32,20,32,26,100,58,30.24 Steady ,21,10,ENE,18to22
Fri Jan 29 12:42:58 2010," US and USA, TN and Tennessee, Memphis, 37501",Cloudy,31,19,31,26,100,59,30.20 Steady ,21,10,ENE,18to24
Fri Jan 29 13:30:41 2010," US and USA, TN and Tennessee, Memphis, 37501",Cloudy,31,22,31,26,100,58,30.23 Steady ,21,10,ENE,12
Fri Jan 29 14:18:31 2010," US and USA, TN and Tennessee, Memphis, 37501",Freezing Rain,31,22,31,26,100,61,30.25 Rising ,22,7,NE,12
Fri Jan 29 15:03:19 2010," US and USA, TN and Tennessee, Memphis, 37501",Freezing Rain,31,22,31,26,100,62,30.25 Steady ,22,7,NE,11
Fri Jan 29 15:48:51 2010," US and USA, TN and Tennessee, Memphis, 37501",Wintry Mix,30,20,31,26,100,80,30.24 Steady ,25,1.4,ENE,12
Fri Jan 29 16:36:40 2010," US and USA, TN and Tennessee, Memphis, 37501",Wintry Mix,30,20,31,26,100,83,30.28 Rising Rapidly ,26,1.4,ENE,12
Fri Jan 29 17:21:05 2010," US and USA, TN and Tennessee, Memphis, 37501",Snow,29,20,31,26,100,86,30.26 Falling Rapidly ,26,0.3,ENE,12
Fri Jan 29 18:09:33 2010," US and USA, TN and Tennessee, Memphis, 37501",Freezing Rain,29,19,30,26,100,85,30.24 Steady ,26,2.3,ENE,13to18
Fri Jan 29 18:54:32 2010," US and USA, TN and Tennessee, Memphis, 37501",Freezing Rain,30,17,30,26,100,85,30.15 Falling Rapidly ,26,7,ENE,20to30
Fri Jan 29 19:46:31 2010," US and USA, TN and Tennessee, Memphis, 37501",Freezing Rain,29,17,30,26,100,85,30.12 Steady ,26,4,ENE,19to28
Fri Jan 29 20:44:20 2010," US and USA, TN and Tennessee, Memphis, 37501",Freezing Rain,30,19,30,26,100,88,30.06 Falling Rapidly ,27,5,ENE,15to19
Fri Jan 29 21:28:57 2010," US and USA, TN and Tennessee, Memphis, 37501",Freezing Rain,30,21,30,26,100,87,30.06 Steady ,28,1,ENE,11to17
Fri Jan 29 22:15:34 2010," US and USA, TN and Tennessee, Memphis, 37501",Freezing Rain,31,20,30,24,90,85,30.06 Steady ,27,1.2,NNE,14
Fri Jan 29 23:00:29 2010," US and USA, TN and Tennessee, Memphis, 37501",Freezing Rain,29,18,30,24,90,91,30.01 Falling ,27,1.1,NE,16to21
Fri Jan 29 23:44:44 2010," US and USA, TN and Tennessee, Memphis, 37501",Freezing Rain,29,18,30,24,90,88,30.00 Rising ,27,1,NE,15to20
Sat Jan 30 00:28:50 2010," US and USA, TN and Tennessee, Memphis, 37501",Freezing Rain,30,19,30,24,90,88,30.01 Steady ,27,7,NNE,13to20
Sat Jan 30 01:12:59 2010," US and USA, TN and Tennessee, Memphis, 37501",Cloudy,29,18,30,24,90,85,29.99 Falling Rapidly ,26,5,NE,16
Sat Jan 30 01:56:56 2010," US and USA, TN and Tennessee, Memphis, 37501",Freezing Drizzle,29,18,30,24,90,85,29.98 Steady ,26,3,NE,16
Sat Jan 30 02:41:14 2010," US and USA, TN and Tennessee, Memphis, 37501",Freezing Drizzle,29,18,30,24,90,88,29.95 Steady ,26,3,NE,14to23
Sat Jan 30 03:24:45 2010," US and USA, TN and Tennessee, Memphis, 37501",Freezing Drizzle,29,18,30,24,90,87,29.94 Falling ,26,3,NE,15to20
Sat Jan 30 04:08:41 2010," US and USA, TN and Tennessee, Memphis, 37501",Freezing Drizzle,29,20,30,24,70,84,29.94 Steady ,26,2.5,NE,12to19
Sat Jan 30 04:52:26 2010," US and USA, TN and Tennessee, Memphis, 37501",Cloudy,29,18,30,24,70,89,29.94 Steady ,27,5,NE,13
Sat Jan 30 05:36:11 2010," US and USA, TN and Tennessee, Memphis, 37501",Cloudy,29,20,30,24,70,88,29.93 Steady ,27,5,NE,11
Sat Jan 30 06:20:17 2010," US and USA, TN and Tennessee, Memphis, 37501",Cloudy,29,20,30,24,70,88,29.93 Steady ,26,5,NE,11
Sat Jan 30 07:06:16 2010," US and USA, TN and Tennessee, Memphis, 37501",Freezing Rain,28,18,30,24,30,90,29.95 Rising ,26,4,N,12
Sat Jan 30 07:48:56 2010," US and USA, TN and Tennessee, Memphis, 37501",Cloudy,28,17,30,24,30,84,29.95 Steady ,25,5,N,13
Sat Jan 30 08:32:11 2010," US and USA, TN and Tennessee, Memphis, 37501",Cloudy,27,16,30,24,30,83,29.95 Steady ,23,5,N,14to18
Sat Jan 30 11:13:58 2010," US and USA, TN and Tennessee, Memphis, 37501",Cloudy,25,13,31,15,40,83,29.96 Steady ,21,7,NNE,13to18
Sat Jan 30 12:01:47 2010," US and USA, TN and Tennessee, Memphis, 37501",Cloudy,25,14,31,15,40,83,29.96 Steady ,21,6,NNE,11to17
Sat Jan 30 12:45:24 2010," US and USA, TN and Tennessee, Memphis, 37501",Cloudy,25,15,31,15,40,84,29.98 Steady ,22,6,N,10
Sat Jan 30 13:28:37 2010," US and USA, TN and Tennessee, Memphis, 37501",Cloudy,25,14,31,15,40,83,29.99 Rising ,22,9,N,13
Sat Jan 30 14:12:48 2010," US and USA, TN and Tennessee, Memphis, 37501",Cloudy,25,16,31,15,30,81,30.02 Rising Rapidly ,21,7,N,9
Sat Jan 30 14:57:05 2010," US and USA, TN and Tennessee, Memphis, 37501",Cloudy,25,15,31,15,30,84,30.03 Rising ,22,9,N,10
Sat Jan 30 15:42:43 2010," US and USA, TN and Tennessee, Memphis, 37501",Cloudy,25,14,31,15,30,83,30.03 Steady ,21,10,N,12
Sat Jan 30 16:27:41 2010," US and USA, TN and Tennessee, Memphis, 37501",Cloudy,25,14,31,15,20,82,30.03 Steady ,21,10,N,13
Sat Jan 30 17:12:08 2010," US and USA, TN and Tennessee, Memphis, 37501",Cloudy,26,15,31,15,20,81,30.10 Rising Rapidly ,22,10,NNW,13
Sat Jan 30 17:55:19 2010," US and USA, TN and Tennessee, Memphis, 37501",Cloudy,26,15,31,15,20,80,30.10 Steady ,22,10,NNW,13to17
Sat Jan 30 18:39:18 2010," US and USA, TN and Tennessee, Memphis, 37501",Cloudy,26,15,31,15,20,77,30.12 Steady ,21,7,N,14
Sat Jan 30 19:22:36 2010," US and USA, TN and Tennessee, Memphis, 37501",Cloudy,26,16,29,15,20,80,30.11 Falling ,22,10,N,11
Sat Jan 30 20:06:52 2010," US and USA, TN and Tennessee, Memphis, 37501",Cloudy,27,18,29,15,20,77,30.11 Steady ,22,10,N,9
Sat Jan 30 20:49:57 2010," US and USA, TN and Tennessee, Memphis, 37501",Cloudy,27,15,29,15,20,79,30.11 Steady ,22,10,N,13
Sat Jan 30 21:33:43 2010," US and USA, TN and Tennessee, Memphis, 37501",Cloudy,27,16,29,15,20,76,30.12 Steady ,22,10,N,14to22
Sat Jan 30 22:17:14 2010," US and USA, TN and Tennessee, Memphis, 37501",Cloudy,29,19,29,15,10,77,30.13 Rising ,24,10,N,12to17
Sat Jan 30 23:02:41 2010," US and USA, TN and Tennessee, Memphis, 37501",Cloudy,29,20,29,15,10,74,30.12 Steady ,23,10,N,11
Sat Jan 30 23:47:35 2010," US and USA, TN and Tennessee, Memphis, 37501",Cloudy,29,21,29,15,10,76,30.14 Steady ,24,10,N,10
Sun Jan 31 00:31:34 2010," US and USA, TN and Tennessee, Memphis, 37501",Sunny,28,21,29,15,10,75,30.16 Steady ,23,10,N,7
Sun Jan 31 01:22:00 2010," US and USA, TN and Tennessee, Memphis, 37501",Clear,27,21,29,15,10,81,30.17 Rising ,23,10,N,5
Sun Jan 31 02:06:00 2010," US and USA, TN and Tennessee, Memphis, 37501",Clear,26,26,29,15,10,81,30.17 Steady ,22,10,N,4
Sun Jan 31 02:49:24 2010," US and USA, TN and Tennessee, Memphis, 37501",Clear,26,26,29,15,10,79,30.18 Steady ,21,10,NNW,3
Sun Jan 31 03:33:19 2010," US and USA, TN and Tennessee, Memphis, 37501",Mostly Clear,24,24,29,15,10,83,30.19 Steady ,21,10,NNW,4
Sun Jan 31 04:17:07 2010," US and USA, TN and Tennessee, Memphis, 37501",Clear,22,22,29,15,10,79,30.21 Rising ,18,9,NNW,3
Sun Jan 31 05:01:23 2010," US and USA, TN and Tennessee, Memphis, 37501",Clear,22,22,29,15,10,81,30.22 Rising ,18,9,W,3
Sun Jan 31 05:47:46 2010," US and USA, TN and Tennessee, Memphis, 37501",Clear,22,22,29,15,10,80,30.24 Steady ,18,10,W,2
Sun Jan 31 06:32:38 2010," US and USA, TN and Tennessee, Memphis, 37501",Mostly Clear,23,23,29,15,10,79,30.26 Rising ,18,10,CALM,0
Sun Jan 31 07:15:30 2010," US and USA, TN and Tennessee, Memphis, 37501",Clear,22,22,29,15,10,79,30.27 Rising ,18,10,NNW,1
Sun Jan 31 08:02:13 2010," US and USA, TN and Tennessee, Memphis, 37501",Clear,21,21,29,15,10,79,30.27 Steady ,17,10,NNE,1
Sun Jan 31 08:46:54 2010," US and USA, TN and Tennessee, Memphis, 37501",Mostly Clear,20,12,29,15,10,80,30.26 Steady ,15,10,NNE,6
Sun Jan 31 09:30:08 2010," US and USA, TN and Tennessee, Memphis, 37501",Clear,19,19,29,15,10,81,30.27 Rising ,15,10,CALM,0
Sun Jan 31 10:13:20 2010," US and USA, TN and Tennessee, Memphis, 37501",Clear,19,19,38,23,0,83,30.29 Rising Rapidly ,15,9,CALM,0
Sun Jan 31 10:57:07 2010," US and USA, TN and Tennessee, Memphis, 37501",Clear,19,19,36,23,0,84,30.29 Steady ,15,8,CALM,0
Sun Jan 31 11:40:39 2010," US and USA, TN and Tennessee, Memphis, 37501",Mostly Clear,19,19,36,23,0,82,30.29 Steady ,15,8,CALM,0
Sun Jan 31 12:24:13 2010," US and USA, TN and Tennessee, Memphis, 37501",Clear,18,18,36,23,0,78,30.29 Steady ,14,9,N,2
Sun Jan 31 13:07:36 2010," US and USA, TN and Tennessee, Memphis, 37501",Clear,17,17,36,23,0,80,30.28 Steady ,13,9,ENE,1
Sun Jan 31 13:51:13 2010," US and USA, TN and Tennessee, Memphis, 37501",Partly Cloudy,17,17,36,23,0,81,30.30 Rising ,13,10,CALM,0
Sun Jan 31 14:34:01 2010," US and USA, TN and Tennessee, Memphis, 37501",Sunny,17,17,36,23,10,80,30.32 Rising ,13,10,N,1
Sun Jan 31 15:18:07 2010," US and USA, TN and Tennessee, Memphis, 37501",Mostly Sunny,21,21,36,23,10,80,30.34 Rising Rapidly ,17,9,CALM,0
Sun Jan 31 16:01:39 2010," US and USA, TN and Tennessee, Memphis, 37501",Mostly Sunny,23,23,36,23,10,80,30.34 Steady ,18,9,CALM,0
Sun Jan 31 16:51:27 2010," US and USA, TN and Tennessee, Memphis, 37501",Sunny,27,27,35,23,10,71,30.36 Steady ,21,10,ESE,1
Sun Jan 31 17:35:04 2010," US and USA, TN and Tennessee, Memphis, 37501",Sunny,32,32,35,23,10,68,30.36 Steady ,24,10,NE,1
Sun Jan 31 18:20:04 2010," US and USA, TN and Tennessee, Memphis, 37501",Sunny,32,32,35,23,10,73,30.36 Steady ,25,10,ENE,2
Sun Jan 31 19:03:52 2010," US and USA, TN and Tennessee, Memphis, 37501",Sunny,33,33,35,23,10,72,30.36 Steady ,25,10,ENE,4
Sun Jan 31 19:49:21 2010," US and USA, TN and Tennessee, Memphis, 37501",Mostly Sunny,33,33,34,24,10,71,30.33 Steady ,25,10,E,3
Sun Jan 31 20:32:11 2010," US and USA, TN and Tennessee, Memphis, 37501",Mostly Sunny,35,35,34,24,0,67,30.32 Steady ,25,10,WNW,2
Sun Jan 31 21:16:49 2010," US and USA, TN and Tennessee, Memphis, 37501",Mostly Sunny,36,36,34,24,0,68,30.31 Falling ,26,10,WNW,2
Sun Jan 31 21:59:37 2010," US and USA, TN and Tennessee, Memphis, 37501",Mostly Sunny,36,36,34,24,10,69,30.31 Steady ,27,10,NW,3
Sun Jan 31 22:44:26 2010," US and USA, TN and Tennessee, Memphis, 37501",Sunny,37,32,34,24,10,66,30.30 Steady ,26,10,N,5
Sun Jan 31 23:27:46 2010," US and USA, TN and Tennessee, Memphis, 37501",Mostly Sunny,36,36,34,24,10,66,30.31 Steady ,26,10,N,4
Mon Feb  1 00:11:44 2010," US and USA, TN and Tennessee, Memphis, 37501",Partly Cloudy,34,28,34,24,10,70,30.29 Falling ,25,10,NNE,6
Mon Feb  1 00:54:39 2010," US and USA, TN and Tennessee, Memphis, 37501",Partly Cloudy,33,28,34,24,10,72,30.29 Steady ,25,9,NNE,6
Mon Feb  1 01:40:56 2010," US and USA, TN and Tennessee, Memphis, 37501",Mostly Cloudy,31,26,34,24,10,69,30.30 Steady ,24,10,ENE,4
Mon Feb  1 02:24:56 2010," US and USA, TN and Tennessee, Memphis, 37501",Partly Cloudy,30,26,34,24,10,72,30.31 Rising ,24,10,NE,4
Mon Feb  1 03:08:36 2010," US and USA, TN and Tennessee, Memphis, 37501",Partly Cloudy,29,29,34,24,10,76,30.32 Rising ,24,10,ENE,4
Mon Feb  1 03:53:17 2010," US and USA, TN and Tennessee, Memphis, 37501",Partly Cloudy,28,28,34,24,10,78,30.31 Steady ,24,10,NE,4
Mon Feb  1 04:38:06 2010," US and USA, TN and Tennessee, Memphis, 37501",Partly Cloudy,28,28,34,24,10,79,30.30 Steady ,23,10,ENE,4
Mon Feb  1 05:21:15 2010," US and USA, TN and Tennessee, Memphis, 37501",Partly Cloudy,28,23,34,24,10,76,30.31 Steady ,22,9,ENE,4
Mon Feb  1 06:06:08 2010," US and USA, TN and Tennessee, Memphis, 37501",Partly Cloudy,27,27,34,24,10,77,30.31 Steady ,22,9,ENE,3
Mon Feb  1 06:49:18 2010," US and USA, TN and Tennessee, Memphis, 37501",Partly Cloudy,27,27,34,24,10,77,30.30 Steady ,22,9,E,2
Mon Feb  1 07:33:08 2010," US and USA, TN and Tennessee, Memphis, 37501",Partly Cloudy,26,22,34,24,20,75,30.29 Steady ,21,10,E,4
Mon Feb  1 08:16:32 2010," US and USA, TN and Tennessee, Memphis, 37501",Partly Cloudy,26,21,34,24,20,75,30.29 Steady ,21,10,E,5
Mon Feb  1 09:00:00 2010," US and USA, TN and Tennessee, Memphis, 37501",Partly Cloudy,27,22,34,24,20,72,30.27 Steady ,21,10,E,4
Mon Feb  1 09:42:57 2010," US and USA, TN and Tennessee, Memphis, 37501",Partly Cloudy,27,27,34,24,20,75,30.28 Steady ,21,10,SE,1
Mon Feb  1 10:26:31 2010," US and USA, TN and Tennessee, Memphis, 37501",Partly Cloudy,25,25,47,33,20,81,30.28 Steady ,21,10,NE,1
Mon Feb  1 11:09:27 2010," US and USA, TN and Tennessee, Memphis, 37501",Partly Cloudy,25,25,47,33,20,81,30.28 Steady ,21,10,CALM,0
Mon Feb  1 11:52:55 2010," US and USA, TN and Tennessee, Memphis, 37501",Partly Cloudy,24,24,47,33,20,81,30.28 Steady ,20,10,CALM,0
Mon Feb  1 12:36:17 2010," US and USA, TN and Tennessee, Memphis, 37501",Partly Cloudy,25,25,47,33,20,83,30.26 Steady ,21,9,E,2
Mon Feb  1 13:19:48 2010," US and USA, TN and Tennessee, Memphis, 37501",Partly Cloudy,23,23,47,33,20,88,30.26 Falling ,21,8,CALM,0
Mon Feb  1 14:03:42 2010," US and USA, TN and Tennessee, Memphis, 37501",Partly Cloudy,23,23,47,33,20,87,30.26 Steady ,20,8,E,1
Mon Feb  1 14:48:46 2010," US and USA, TN and Tennessee, Memphis, 37501",Partly Cloudy,24,24,47,33,20,82,30.26 Steady ,20,7,CALM,0
Mon Feb  1 15:32:30 2010," US and USA, TN and Tennessee, Memphis, 37501",Partly Cloudy,30,30,47,33,20,80,30.26 Steady ,26,8,ENE,1
Mon Feb  1 16:17:13 2010," US and USA, TN and Tennessee, Memphis, 37501",Partly Cloudy,32,32,47,33,20,77,30.26 Steady ,27,8,E,2
Mon Feb  1 17:02:00 2010," US and USA, TN and Tennessee, Memphis, 37501",Partly Cloudy,34,34,47,33,20,78,30.27 Steady ,28,9,ESE,4
Mon Feb  1 17:45:48 2010," US and USA, TN and Tennessee, Memphis, 37501",Mostly Cloudy,37,32,46,33,20,71,30.25 Falling ,29,10,SSE,6
Mon Feb  1 18:29:18 2010," US and USA, TN and Tennessee, Memphis, 37501",Cloudy,40,40,46,33,20,67,30.24 Falling Rapidly ,30,10,SE,2
Mon Feb  1 19:13:04 2010," US and USA, TN and Tennessee, Memphis, 37501",Mostly Cloudy,43,41,46,33,20,63,30.20 Falling Rapidly ,31,10,ESE,4
Mon Feb  1 19:57:54 2010," US and USA, TN and Tennessee, Memphis, 37501",Mostly Cloudy,44,44,46,33,20,60,30.20 Steady ,31,10,ESE,3
Mon Feb  1 20:44:19 2010," US and USA, TN and Tennessee, Memphis, 37501",Mostly Cloudy,44,44,46,33,20,60,30.17 Steady ,31,10,ESE,2
Mon Feb  1 21:29:19 2010," US and USA, TN and Tennessee, Memphis, 37501",Cloudy,43,41,46,33,20,64,30.15 Falling Rapidly ,32,9,SE,5
Mon Feb  1 22:12:40 2010," US and USA, TN and Tennessee, Memphis, 37501",Cloudy,44,44,46,31,20,65,30.14 Steady ,33,9,NW,4
Mon Feb  1 22:56:00 2010," US and USA, TN and Tennessee, Memphis, 37501",Cloudy,44,44,46,31,20,66,30.14 Steady ,33,8,NW,3
Mon Feb  1 23:42:06 2010," US and USA, TN and Tennessee, Memphis, 37501",Cloudy,42,42,46,31,20,65,30.13 Steady ,31,9,ENE,3
Tue Feb  2 00:29:00 2010," US and USA, TN and Tennessee, Memphis, 37501",Cloudy,41,41,46,31,20,73,30.13 Steady ,33,8,SSE,3
Tue Feb  2 01:14:37 2010," US and USA, TN and Tennessee, Memphis, 37501",Cloudy,38,38,46,31,20,75,30.13 Steady ,30,8,ESE,2
Tue Feb  2 01:57:44 2010," US and USA, TN and Tennessee, Memphis, 37501",Cloudy,38,38,46,31,20,72,30.13 Steady ,29,9,ESE,3
Tue Feb  2 02:41:47 2010," US and USA, TN and Tennessee, Memphis, 37501",Cloudy,37,37,46,31,20,79,30.14 Steady ,31,9,CALM,0
Tue Feb  2 03:25:18 2010," US and USA, TN and Tennessee, Memphis, 37501",Cloudy,36,36,46,31,20,79,30.13 Falling ,30,9,ENE,1
Tue Feb  2 04:09:05 2010," US and USA, TN and Tennessee, Memphis, 37501",Cloudy,35,35,46,31,20,82,30.12 Falling ,30,9,ESE,2
Tue Feb  2 04:52:38 2010," US and USA, TN and Tennessee, Memphis, 37501",Cloudy,36,36,46,31,20,83,30.11 Steady ,31,9,SE,2
Tue Feb  2 05:36:00 2010," US and USA, TN and Tennessee, Memphis, 37501",Cloudy,37,37,46,31,20,83,30.11 Steady ,32,10,SSE,2
Tue Feb  2 06:19:20 2010," US and USA, TN and Tennessee, Memphis, 37501",Cloudy,36,36,46,31,20,85,30.11 Steady ,32,10,S,3
Tue Feb  2 07:06:27 2010," US and USA, TN and Tennessee, Memphis, 37501",Cloudy,38,38,46,31,10,83,30.10 Falling ,33,9,SSE,1
Tue Feb  2 07:49:26 2010," US and USA, TN and Tennessee, Memphis, 37501",Cloudy,37,37,46,31,10,85,30.09 Steady ,33,9,SE,3
Tue Feb  2 08:32:38 2010," US and USA, TN and Tennessee, Memphis, 37501",Cloudy,36,36,46,31,10,92,30.10 Steady ,34,9,CALM,0
Tue Feb  2 09:16:08 2010," US and USA, TN and Tennessee, Memphis, 37501",Cloudy,36,36,46,31,10,89,30.10 Steady ,33,9,CALM,0
Tue Feb  2 09:59:39 2010," US and USA, TN and Tennessee, Memphis, 37501",Cloudy,37,37,49,28,10,85,30.10 Steady ,33,9,SSW,1
Tue Feb  2 10:43:13 2010," US and USA, TN and Tennessee, Memphis, 37501",Mostly Cloudy,37,37,49,28,10,83,30.10 Steady ,32,8,SW,1
Tue Feb  2 11:27:21 2010," US and USA, TN and Tennessee, Memphis, 37501",Partly Cloudy,34,34,49,28,10,91,30.09 Falling ,32,8,CALM,0
Tue Feb  2 12:11:22 2010," US and USA, TN and Tennessee, Memphis, 37501",Mostly Cloudy,33,33,49,28,10,91,30.10 Rising ,31,8,W,2
Tue Feb  2 12:55:15 2010," US and USA, TN and Tennessee, Memphis, 37501",Mostly Cloudy,33,33,49,28,10,93,30.10 Steady ,31,8,W,2
Tue Feb  2 13:38:36 2010," US and USA, TN and Tennessee, Memphis, 37501",Cloudy,34,34,49,28,10,92,30.10 Steady ,32,6,CALM,0
Tue Feb  2 14:22:15 2010," US and USA, TN and Tennessee, Memphis, 37501",Cloudy,35,35,49,28,10,90,30.11 Rising ,32,7,CALM,0
Tue Feb  2 15:06:37 2010," US and USA, TN and Tennessee, Memphis, 37501",Cloudy,35,35,49,28,10,92,30.11 Steady ,33,8,CALM,0
Tue Feb  2 15:53:00 2010," US and USA, TN and Tennessee, Memphis, 37501",Cloudy,38,38,48,28,10,88,30.12 Steady ,34,8,CALM,0
Tue Feb  2 16:45:31 2010," US and USA, TN and Tennessee, Memphis, 37501",Cloudy,38,38,48,28,10,87,30.14 Rising ,34,8,W,3
Tue Feb  2 17:33:59 2010," US and USA, TN and Tennessee, Memphis, 37501",Cloudy,41,41,47,28,10,80,30.14 Steady ,35,9,NW,3
Tue Feb  2 18:18:34 2010," US and USA, TN and Tennessee, Memphis, 37501",Cloudy,42,38,47,28,10,78,30.15 Rising ,35,10,NW,6
Tue Feb  2 19:02:45 2010," US and USA, TN and Tennessee, Memphis, 37501",Cloudy,42,38,47,28,10,76,30.15 Steady ,35,10,NW,7
Tue Feb  2 19:52:09 2010," US and USA, TN and Tennessee, Memphis, 37501",Cloudy,45,40,47,28,10,69,30.15 Steady ,35,10,NW,9
Tue Feb  2 20:43:19 2010," US and USA, TN and Tennessee, Memphis, 37501",Cloudy,44,39,47,28,10,69,30.14 Steady ,35,10,NNW,9
Tue Feb  2 21:30:10 2010," US and USA, TN and Tennessee, Memphis, 37501",Cloudy,44,40,47,28,10,70,30.13 Falling ,34,10,NW,7
Tue Feb  2 22:18:32 2010," US and USA, TN and Tennessee, Memphis, 37501",Cloudy,43,39,47,28,0,75,30.14 Rising ,36,9,NW,6
Tue Feb  2 23:02:50 2010," US and USA, TN and Tennessee, Memphis, 37501",Cloudy,43,38,47,28,0,74,30.15 Steady ,35,9,NW,7
Tue Feb  2 23:48:09 2010," US and USA, TN and Tennessee, Memphis, 37501",Cloudy,42,38,47,28,0,75,30.15 Steady ,34,9,NNW,5
Wed Feb  3 00:32:34 2010," US and USA, TN and Tennessee, Memphis, 37501",Cloudy,39,35,47,28,0,80,30.18 Rising ,34,9,NW,5
Wed Feb  3 01:19:44 2010," US and USA, TN and Tennessee, Memphis, 37501",Cloudy,41,38,47,28,0,74,30.18 Rising ,33,10,NW,4
Wed Feb  3 02:04:57 2010," US and USA, TN and Tennessee, Memphis, 37501",Cloudy,37,37,47,28,0,85,30.19 Steady ,32,9,W,3
Wed Feb  3 02:53:15 2010," US and USA, TN and Tennessee, Memphis, 37501",Partly Cloudy,35,35,47,28,0,89,30.20 Falling ,32,9,W,3
Wed Feb  3 04:28:12 2010," US and USA, TN and Tennessee, Memphis, 37501",Clear,33,33,47,28,0,88,30.23 Steady ,30,10,S,1
Wed Feb  3 05:15:03 2010," US and USA, TN and Tennessee, Memphis, 37501",Clear,33,33,47,28,0,83,30.24 Rising ,28,9,CALM,0
Wed Feb  3 06:02:51 2010," US and USA, TN and Tennessee, Memphis, 37501",Clear,33,33,47,28,0,84,30.24 Steady ,28,9,CALM,0
Thu Feb  4 06:05:21 2010," US and USA, TN and Tennessee, Memphis, 37501",Cloudy,37,30,46,34,20,72,30.23 Steady ,28,10,NE,9
Thu Feb  4 06:48:25 2010," US and USA, TN and Tennessee, Memphis, 37501",Cloudy,36,31,46,34,20,73,30.24 Steady ,29,9,ENE,7
Thu Feb  4 07:32:03 2010," US and USA, TN and Tennessee, Memphis, 37501",Cloudy,37,31,46,34,70,71,30.24 Steady ,28,10,ENE,8
Thu Feb  4 08:14:34 2010," US and USA, TN and Tennessee, Memphis, 37501",Cloudy,38,31,46,34,70,68,30.24 Steady ,28,10,ENE,9
Thu Feb  4 08:58:14 2010," US and USA, TN and Tennessee, Memphis, 37501",Cloudy,38,33,46,34,70,70,30.21 Steady ,29,9,ENE,7
Thu Feb  4 09:42:11 2010," US and USA, TN and Tennessee, Memphis, 37501",Partly Cloudy,37,32,41,40,70,73,30.21 Steady ,29,9,ENE,6
Thu Feb  4 10:25:49 2010," US and USA, TN and Tennessee, Memphis, 37501",Cloudy,38,33,41,40,80,72,30.21 Steady ,29,9,ENE,6
Thu Feb  4 11:11:45 2010," US and USA, TN and Tennessee, Memphis, 37501",Cloudy,37,33,41,40,80,73,30.20 Falling ,29,10,NE,6
Thu Feb  4 11:55:17 2010," US and USA, TN and Tennessee, Memphis, 37501",Cloudy,38,32,41,40,80,72,30.20 Steady ,29,10,NE,6
Thu Feb  4 12:38:22 2010," US and USA, TN and Tennessee, Memphis, 37501",Cloudy,37,31,41,40,80,73,30.19 Steady ,29,10,NE,7
Thu Feb  4 13:22:26 2010," US and USA, TN and Tennessee, Memphis, 37501",Cloudy,36,30,41,40,80,76,30.19 Steady ,29,9,NE,8
Thu Feb  4 14:07:15 2010," US and USA, TN and Tennessee, Memphis, 37501",Cloudy,37,31,41,40,80,74,30.19 Steady ,29,10,ENE,7
Wed Feb  3 06:49:36 2010," US and USA, TN and Tennessee, Memphis, 37501",Clear,30,30,47,28,0,85,30.23 Steady ,27,8,SSW,1
Wed Feb  3 07:34:19 2010," US and USA, TN and Tennessee, Nashville, 37201",Cloudy,37,30,44,27,10,70,30.21 Rising ,28,10,NW,8
Wed Feb  3 09:03:57 2010," US and USA, TN and Tennessee, Nashville, 37201",Cloudy,36,31,44,27,10,72,30.21 Steady ,28,10,N,7
Wed Feb  3 09:47:47 2010," US and USA, TN and Tennessee, Nashville, 37201",Cloudy,37,31,43,28,10,59,30.24 Steady ,25,10,NW,8
Wed Feb  3 10:31:12 2010," US and USA, TN and Tennessee, Nashville, 37201",Cloudy,35,28,42,28,10,67,30.24 Steady ,25,10,N,7
Wed Feb  3 11:18:03 2010," US and USA, TN and Tennessee, Nashville, 37201",Cloudy,35,35,42,28,10,70,30.24 Steady ,26,10,NE,3
Wed Feb  3 12:02:47 2010," US and USA, TN and Tennessee, Nashville, 37201",Cloudy,34,34,43,28,10,70,30.24 Steady ,25,10,ENE,3
Wed Feb  3 12:45:59 2010," US and USA, TN and Tennessee, Nashville, 37201",Cloudy,34,34,42,28,10,74,30.23 Steady ,26,10,CALM,0
Wed Feb  3 13:29:42 2010," US and USA, TN and Tennessee, Nashville, 37201",Cloudy,34,34,42,28,10,75,30.23 Steady ,27,7,CALM,0
Wed Feb  3 14:15:50 2010," US and USA, TN and Tennessee, Nashville, 37201",Cloudy,35,35,42,28,10,70,30.27 Rising Rapidly ,26,7,CALM,0
Wed Feb  3 15:01:51 2010," US and USA, TN and Tennessee, Nashville, 37201",Cloudy,36,36,42,28,10,59,30.27 Steady ,23,8,CALM,0
Wed Feb  3 15:46:39 2010," US and USA, TN and Tennessee, Nashville, 37201",Cloudy,38,38,42,28,10,63,30.29 Steady ,26,10,CALM,0
Wed Feb  3 16:32:31 2010," US and USA, TN and Tennessee, Nashville, 37201",Cloudy,38,34,42,28,10,62,30.29 Steady ,26,10,N,5
Wed Feb  3 17:19:42 2010," US and USA, TN and Tennessee, Nashville, 37201",Mostly Cloudy,39,35,41,28,10,60,30.32 Rising Rapidly ,26,10,N,6
Wed Feb  3 18:08:00 2010," US and USA, TN and Tennessee, Nashville, 37201",Mostly Cloudy,40,35,41,28,10,56,30.32 Steady ,25,10,N,7
Wed Feb  3 18:51:07 2010," US and USA, TN and Tennessee, Nashville, 37201",Partly Cloudy,42,38,42,28,10,55,30.32 Steady ,26,10,NNW,5
Wed Feb  3 19:35:23 2010," US and USA, TN and Tennessee, Nashville, 37201",Partly Cloudy,43,39,44,28,10,53,30.29 Steady ,27,10,WNW,7
Wed Feb  3 20:19:28 2010," US and USA, TN and Tennessee, Nashville, 37201",Partly Cloudy,44,41,44,28,10,51,30.26 Falling Rapidly ,27,10,NE,5
Wed Feb  3 21:03:46 2010," US and USA, TN and Tennessee, Nashville, 37201",Mostly Sunny,44,41,44,28,10,52,30.26 Steady ,27,10,NE,5
Wed Feb  3 21:51:51 2010," US and USA, TN and Tennessee, Nashville, 37201",Mostly Sunny,43,43,44,28,10,53,30.24 Steady ,27,9,CALM,0
Wed Feb  3 22:37:24 2010," US and USA, TN and Tennessee, Nashville, 37201",Mostly Sunny,45,40,44,28,10,50,30.23 Steady ,27,9,NNE,10
Wed Feb  3 23:28:20 2010," US and USA, TN and Tennessee, Nashville, 37201",Partly Cloudy,45,41,44,28,10,49,30.23 Steady ,27,10,NNE,7
Thu Feb  4 00:13:16 2010," US and USA, TN and Tennessee, Nashville, 37201",Partly Cloudy,42,37,44,28,10,55,30.23 Steady ,27,10,NE,8
Thu Feb  4 00:57:18 2010," US and USA, TN and Tennessee, Nashville, 37201",Partly Cloudy,42,38,44,28,10,54,30.23 Steady ,27,9,NE,8
Thu Feb  4 01:40:36 2010," US and USA, TN and Tennessee, Nashville, 37201",Partly Cloudy,37,31,44,27,10,65,30.27 Steady ,26,9,NNE,8
Thu Feb  4 02:28:20 2010," US and USA, TN and Tennessee, Nashville, 37201",Partly Cloudy,37,32,44,28,10,67,30.31 Rising Rapidly ,27,10,NNE,6
Thu Feb  4 03:11:31 2010," US and USA, TN and Tennessee, Nashville, 37201",Clear,37,32,44,27,10,67,30.32 Rising ,27,10,N,6
Thu Feb  4 03:55:59 2010," US and USA, TN and Tennessee, Nashville, 37201",Clear,36,31,44,27,10,67,30.32 Steady ,26,10,NNE,6
Thu Feb  4 04:39:15 2010," US and USA, TN and Tennessee, Nashville, 37201",Clear,34,27,44,28,10,76,30.31 Steady ,27,9,NE,7
Thu Feb  4 05:22:37 2010," US and USA, TN and Tennessee, Nashville, 37201",Partly Cloudy,33,28,44,28,10,75,30.29 Falling Rapidly ,26,8,NNE,6
Thu Feb  4 15:00:13 2010," US and USA, TN and Tennessee, Nashville, 37201",Cloudy,34,27,45,39,70,72,30.25 Steady ,26,7,ENE,8
Thu Jan 28 15:39:51 2010," US and USA, TN and Tennessee, Nashville, 37201",Mostly Cloudy,43,36,46,27,20,65,30.33 Steady ,32,9,NNW,13to22
Thu Jan 28 16:00:40 2010," US and USA, TN and Tennessee, Nashville, 37201",Mostly Cloudy,43,36,46,27,20,65,30.33 Steady ,32,9,NNW,13to22
Thu Jan 28 16:49:58 2010," US and USA, TN and Tennessee, Nashville, 37201",Mostly Cloudy,39,29,43,27,20,73,30.37 Steady ,31,10,NNW,18
Thu Jan 28 17:14:13 2010," US and USA, TN and Tennessee, Nashville, 37201",Cloudy,38,30,43,27,20,73,30.40 Rising Rapidly ,30,10,NNW,12
Thu Jan 28 17:30:13 2010," US and USA, TN and Tennessee, Nashville, 37201",Cloudy,38,30,43,27,20,73,30.40 Rising Rapidly ,30,10,NNW,12
Fri Jan 29 08:42:25 2010," US and USA, TN and Tennessee, Nashville, 37201",Mostly Cloudy,28,19,42,26,100,52,30.36 Steady ,15,10,NNE,9
Fri Jan 29 09:26:21 2010," US and USA, TN and Tennessee, Nashville, 37201",Mostly Cloudy,29,20,30,25,100,49,30.37 Rising ,15,10,NNE,10
Fri Jan 29 11:58:23 2010," US and USA, TN and Tennessee, Nashville, 37201",Cloudy,28,19,30,25,100,50,30.34 Steady ,15,10,NNE,10
Fri Jan 29 12:43:05 2010," US and USA, TN and Tennessee, Nashville, 37201",Cloudy,28,17,30,25,100,50,30.33 Steady ,15,10,NNE,13
Fri Jan 29 13:30:49 2010," US and USA, TN and Tennessee, Nashville, 37201",Cloudy,28,18,30,25,100,52,30.31 Steady ,15,10,NE,12
Fri Jan 29 14:18:38 2010," US and USA, TN and Tennessee, Nashville, 37201",Cloudy,28,19,30,25,100,51,30.30 Falling ,15,10,NNE,10
Fri Jan 29 15:03:26 2010," US and USA, TN and Tennessee, Nashville, 37201",Snow Showers,28,17,30,25,100,57,30.30 Steady ,17,1.1,NE,12
Fri Jan 29 15:48:58 2010," US and USA, TN and Tennessee, Nashville, 37201",Snow Showers,28,19,30,25,100,49,30.33 Steady ,14,0.5,NE,10
Fri Jan 29 16:36:48 2010," US and USA, TN and Tennessee, Nashville, 37201",Wintry Mix,26,16,30,25,100,63,30.35 Rising Rapidly ,17,4,NNE,10
Fri Jan 29 17:21:12 2010," US and USA, TN and Tennessee, Nashville, 37201",Snow Showers,25,15,28,25,100,82,30.36 Steady ,21,1,NNE,9
Fri Jan 29 18:09:41 2010," US and USA, TN and Tennessee, Nashville, 37201",Snow Showers,25,15,28,25,100,83,30.36 Steady ,21,1,NE,9
Fri Jan 29 18:54:39 2010," US and USA, TN and Tennessee, Nashville, 37201",Snow,25,15,28,25,100,82,30.35 Steady ,21,0.3,NE,10
Fri Jan 29 19:46:38 2010," US and USA, TN and Tennessee, Nashville, 37201",Snow,25,15,28,25,100,82,30.32 Steady ,21,0.3,NNE,10
Fri Jan 29 20:44:28 2010," US and USA, TN and Tennessee, Nashville, 37201",Snow Showers,25,15,28,25,100,83,30.26 Steady ,21,0.8,ENE,10
Fri Jan 29 21:29:05 2010," US and USA, TN and Tennessee, Nashville, 37201",Snow,25,14,28,24,100,85,30.23 Falling Rapidly ,22,0.3,NE,12
Fri Jan 29 22:15:41 2010," US and USA, TN and Tennessee, Nashville, 37201",Snow Showers,26,15,28,24,100,81,30.19 Falling ,22,1,NE,12
Fri Jan 29 23:00:36 2010," US and USA, TN and Tennessee, Nashville, 37201",Snow,26,15,28,24,100,81,30.19 Steady ,22,0.3,NE,13
Fri Jan 29 23:44:52 2010," US and USA, TN and Tennessee, Nashville, 37201",Snow,26,15,28,24,100,86,30.16 Steady ,23,0.3,NE,13
Sat Jan 30 00:28:57 2010," US and USA, TN and Tennessee, Nashville, 37201",Snow Showers,26,15,28,24,100,85,30.13 Falling ,23,1,NE,12
Sat Jan 30 01:13:06 2010," US and USA, TN and Tennessee, Nashville, 37201",Snow Showers,26,15,28,24,100,85,30.09 Falling ,23,1,NE,13
Sat Jan 30 01:57:04 2010," US and USA, TN and Tennessee, Nashville, 37201",Snow,27,14,28,24,100,83,30.08 Steady ,23,0.3,NE,16
Sat Jan 30 02:41:21 2010," US and USA, TN and Tennessee, Nashville, 37201",Wintry Mix,27,17,28,24,100,91,30.07 Rising ,25,1,NNE,10
Sat Jan 30 03:24:52 2010," US and USA, TN and Tennessee, Nashville, 37201",Snow Showers,26,16,28,24,100,90,30.05 Falling Rapidly ,24,1,NE,10
Sat Jan 30 04:08:48 2010," US and USA, TN and Tennessee, Nashville, 37201",Snow,27,15,28,24,100,83,30.03 Falling ,23,0.3,NE,14
Sat Jan 30 04:52:34 2010," US and USA, TN and Tennessee, Nashville, 37201",Snow,26,16,28,24,100,90,30.03 Steady ,24,0.3,NE,11
Sat Jan 30 05:36:20 2010," US and USA, TN and Tennessee, Nashville, 37201",Snow,26,16,28,24,100,91,29.97 Steady ,24,0.3,NE,11
Sat Jan 30 06:20:24 2010," US and USA, TN and Tennessee, Nashville, 37201",Snow,26,16,28,24,100,91,29.97 Steady ,24,0.3,NE,11
Sat Jan 30 07:06:23 2010," US and USA, TN and Tennessee, Nashville, 37201",Freezing Rain,26,15,28,24,100,91,29.97 Steady ,25,2.1,NNE,13
Sat Jan 30 07:49:04 2010," US and USA, TN and Tennessee, Nashville, 37201",Freezing Rain,26,14,28,24,100,90,29.96 Steady ,24,2.5,NE,14
Sat Jan 30 08:32:18 2010," US and USA, TN and Tennessee, Nashville, 37201",Snow Showers,27,18,28,24,100,91,29.94 Steady ,25,0.8,NE,9
Sat Jan 30 11:14:05 2010," US and USA, TN and Tennessee, Nashville, 37201",Snow Showers,25,14,30,9,70,90,29.90 Steady ,23,2.5,N,12
Sat Jan 30 12:01:54 2010," US and USA, TN and Tennessee, Nashville, 37201",Flurries,25,13,30,9,70,89,29.90 Steady ,22,2.3,N,13
Sat Jan 30 12:45:31 2010," US and USA, TN and Tennessee, Nashville, 37201",Snow Showers,23,11,30,9,70,83,29.91 Rising Rapidly ,19,2.5,N,13
Sat Jan 30 13:28:45 2010," US and USA, TN and Tennessee, Nashville, 37201",Snow Showers,23,11,30,9,70,81,29.92 Rising ,19,2.5,NNE,13
Sat Jan 30 14:12:56 2010," US and USA, TN and Tennessee, Nashville, 37201",Snow Showers,22,12,31,9,70,86,29.92 Steady ,19,2.5,NNE,8
Sat Jan 30 14:57:12 2010," US and USA, TN and Tennessee, Nashville, 37201",Cloudy,21,9,31,9,70,83,29.95 Rising Rapidly ,18,9,N,12
Sat Jan 30 15:42:50 2010," US and USA, TN and Tennessee, Nashville, 37201",Snow,22,10,31,9,60,82,29.95 Steady ,18,0.3,NNE,11
Sat Jan 30 16:27:48 2010," US and USA, TN and Tennessee, Nashville, 37201",Snow Showers,21,11,31,9,60,83,29.95 Steady ,18,4,NNE,9
Sat Jan 30 17:12:15 2010," US and USA, TN and Tennessee, Nashville, 37201",Snow Showers,23,12,31,9,60,81,29.98 Rising ,19,2,N,10
Sat Jan 30 17:55:26 2010," US and USA, TN and Tennessee, Nashville, 37201",Snow Showers,23,11,31,9,60,75,29.99 Rising ,18,9,N,13to18
Sat Jan 30 18:39:26 2010," US and USA, TN and Tennessee, Nashville, 37201",Cloudy,24,12,30,9,60,72,29.99 Steady ,18,9,N,13
Sat Jan 30 19:22:43 2010," US and USA, TN and Tennessee, Nashville, 37201",Cloudy,24,13,28,9,60,73,29.97 Falling ,18,10,N,12
Sat Jan 30 20:06:59 2010," US and USA, TN and Tennessee, Nashville, 37201",Cloudy,24,13,28,9,60,72,29.97 Steady ,18,10,N,11
Sat Jan 30 20:50:04 2010," US and USA, TN and Tennessee, Nashville, 37201",Cloudy,25,14,28,9,60,69,29.98 Steady ,18,10,NNW,12
Sat Jan 30 21:33:50 2010," US and USA, TN and Tennessee, Nashville, 37201",Cloudy,25,13,28,9,20,70,30.01 Steady ,18,10,N,14
Sat Jan 30 22:17:22 2010," US and USA, TN and Tennessee, Nashville, 37201",Cloudy,25,13,28,9,20,69,30.03 Rising Rapidly ,18,10,N,15
Sat Jan 30 23:02:48 2010," US and USA, TN and Tennessee, Nashville, 37201",Cloudy,25,13,28,9,20,71,30.03 Steady ,18,10,N,15
Sat Jan 30 23:47:42 2010," US and USA, TN and Tennessee, Nashville, 37201",Cloudy,25,12,28,9,20,71,30.06 Steady ,18,10,N,14
Sun Jan 31 00:31:41 2010," US and USA, TN and Tennessee, Nashville, 37201",Cloudy,25,15,28,9,20,69,30.09 Steady ,18,10,NNE,9
Sun Jan 31 01:22:07 2010," US and USA, TN and Tennessee, Nashville, 37201",Cloudy,25,14,28,9,20,69,30.12 Rising Rapidly ,18,10,N,13
Sun Jan 31 02:06:08 2010," US and USA, TN and Tennessee, Nashville, 37201",Cloudy,25,14,28,9,20,68,30.12 Steady ,18,10,N,12
Sun Jan 31 02:49:31 2010," US and USA, TN and Tennessee, Nashville, 37201",Cloudy,26,18,28,9,20,65,30.14 Steady ,18,10,N,8
Sun Jan 31 03:33:27 2010," US and USA, TN and Tennessee, Nashville, 37201",Cloudy,25,18,28,9,20,67,30.15 Steady ,18,10,NW,6
Sun Jan 31 04:17:14 2010," US and USA, TN and Tennessee, Nashville, 37201",Partly Cloudy,25,18,28,9,20,66,30.16 Steady ,17,10,NNW,6
Sun Jan 31 05:01:30 2010," US and USA, TN and Tennessee, Nashville, 37201",Partly Cloudy,25,18,28,9,20,65,30.16 Steady ,17,10,NNW,6
Sun Jan 31 05:47:54 2010," US and USA, TN and Tennessee, Nashville, 37201",Mostly Clear,21,14,28,9,20,71,30.17 Steady ,15,10,NW,6
Sun Jan 31 06:32:45 2010," US and USA, TN and Tennessee, Nashville, 37201",Clear,22,16,28,9,20,73,30.18 Rising ,16,10,NNW,5
Sun Jan 31 07:15:37 2010," US and USA, TN and Tennessee, Nashville, 37201",Clear,19,19,28,9,20,81,30.19 Rising ,15,10,CALM,0
Sun Jan 31 08:02:20 2010," US and USA, TN and Tennessee, Nashville, 37201",Clear,14,14,28,9,20,82,30.19 Steady ,10,6,CALM,0
Sun Jan 31 08:47:01 2010," US and USA, TN and Tennessee, Nashville, 37201",Mostly Clear,14,14,28,9,20,90,30.21 Steady ,12,8,CALM,0
Sun Jan 31 09:30:16 2010," US and USA, TN and Tennessee, Nashville, 37201",Clear,19,11,34,12,10,81,30.22 Rising ,15,9,WNW,6
Sun Jan 31 10:13:27 2010," US and USA, TN and Tennessee, Nashville, 37201",Clear,17,10,34,12,10,80,30.24 Rising Rapidly ,13,8,W,5
Sun Jan 31 10:57:14 2010," US and USA, TN and Tennessee, Nashville, 37201",Clear,14,6,34,12,10,87,30.24 Steady ,12,7,WNW,5
Sun Jan 31 11:40:46 2010," US and USA, TN and Tennessee, Nashville, 37201",Mostly Clear,13,13,34,12,10,90,30.24 Steady ,11,6,N,1
Sun Jan 31 12:24:20 2010," US and USA, TN and Tennessee, Nashville, 37201",Partly Cloudy,14,14,34,12,10,90,30.27 Rising Rapidly ,12,6,CALM,0
Sun Jan 31 13:07:44 2010," US and USA, TN and Tennessee, Nashville, 37201",Mostly Clear,11,11,34,12,10,98,30.27 Steady ,11,5,CALM,0
Sun Jan 31 13:51:21 2010," US and USA, TN and Tennessee, Nashville, 37201",Mostly Sunny,14,14,34,12,10,91,30.29 Steady ,12,5,CALM,0
Sun Jan 31 14:34:09 2010," US and USA, TN and Tennessee, Nashville, 37201",Mostly Cloudy,12,4,34,12,10,87,30.30 Steady ,9,5,SSE,4
Sun Jan 31 15:18:14 2010," US and USA, TN and Tennessee, Nashville, 37201",Partly Cloudy,14,14,34,12,10,94,30.32 Rising Rapidly ,13,10,CALM,0
Sun Jan 31 16:01:47 2010," US and USA, TN and Tennessee, Nashville, 37201",Mostly Sunny,17,17,34,12,10,95,30.32 Steady ,16,10,CALM,0
Sun Jan 31 16:51:34 2010," US and USA, TN and Tennessee, Nashville, 37201",Sunny,21,21,34,12,10,93,30.33 Steady ,20,9,CALM,0
Sun Jan 31 17:35:11 2010," US and USA, TN and Tennessee, Nashville, 37201",Sunny,26,26,35,12,10,71,30.34 Steady ,19,9,CALM,0
Sun Jan 31 18:20:11 2010," US and USA, TN and Tennessee, Nashville, 37201",Sunny,28,28,32,12,10,63,30.34 Steady ,19,10,CALM,0
Sun Jan 31 19:03:59 2010," US and USA, TN and Tennessee, Nashville, 37201",Sunny,29,29,32,12,10,61,30.34 Steady ,20,10,CALM,0
Sun Jan 31 19:49:28 2010," US and USA, TN and Tennessee, Nashville, 37201",Sunny,33,33,34,17,0,49,30.32 Steady ,15,10,CALM,0
Sun Jan 31 20:32:18 2010," US and USA, TN and Tennessee, Nashville, 37201",Sunny,33,33,34,17,0,53,30.31 Steady ,18,10,CALM,0
Sun Jan 31 21:16:56 2010," US and USA, TN and Tennessee, Nashville, 37201",Mostly Sunny,36,36,34,17,0,48,30.29 Falling Rapidly ,18,10,CALM,0
Sun Jan 31 21:59:44 2010," US and USA, TN and Tennessee, Nashville, 37201",Sunny,36,36,34,17,10,50,30.29 Steady ,19,9,N,1
Sun Jan 31 22:44:33 2010," US and USA, TN and Tennessee, Nashville, 37201",Sunny,37,37,34,17,10,47,30.29 Steady ,19,9,CALM,0
Sun Jan 31 23:27:53 2010," US and USA, TN and Tennessee, Nashville, 37201",Partly Cloudy,35,35,34,15,10,48,30.30 Rising ,17,10,CALM,0
Mon Feb  1 00:11:51 2010," US and USA, TN and Tennessee, Nashville, 37201",Partly Cloudy,35,35,34,15,10,48,30.30 Steady ,17,10,CALM,0
Mon Feb  1 00:54:46 2010," US and USA, TN and Tennessee, Nashville, 37201",Mostly Clear,33,33,34,19,10,51,30.30 Steady ,16,9,CALM,0
Mon Feb  1 01:41:03 2010," US and USA, TN and Tennessee, Nashville, 37201",Mostly Clear,29,29,34,19,10,67,30.30 Steady ,21,9,SSE,3
Mon Feb  1 02:25:04 2010," US and USA, TN and Tennessee, Nashville, 37201",Mostly Clear,29,29,34,19,10,74,30.31 Rising ,23,10,S,3
Mon Feb  1 03:08:44 2010," US and USA, TN and Tennessee, Nashville, 37201",Clear,25,25,34,19,10,83,30.31 Steady ,22,9,SSW,2
Mon Feb  1 03:53:25 2010," US and USA, TN and Tennessee, Nashville, 37201",Mostly Clear,26,26,34,19,10,82,30.32 Steady ,22,8,CALM,0
Mon Feb  1 04:38:13 2010," US and USA, TN and Tennessee, Nashville, 37201",Partly Cloudy,25,25,34,19,10,82,30.33 Steady ,21,8,CALM,0
Mon Feb  1 05:21:22 2010," US and USA, TN and Tennessee, Nashville, 37201",Partly Cloudy,26,26,34,19,10,85,30.33 Steady ,23,7,CALM,0
Mon Feb  1 06:06:15 2010," US and USA, TN and Tennessee, Nashville, 37201",Mostly Clear,25,25,34,19,10,90,30.33 Steady ,23,5,ENE,1
Mon Feb  1 06:49:25 2010," US and USA, TN and Tennessee, Nashville, 37201",Mostly Clear,22,22,34,19,10,96,30.33 Steady ,22,5,E,2
Mon Feb  1 07:33:15 2010," US and USA, TN and Tennessee, Nashville, 37201",Mostly Clear,21,21,34,19,10,98,30.32 Steady ,21,5,CALM,0
Mon Feb  1 08:16:40 2010," US and USA, TN and Tennessee, Nashville, 37201",Partly Cloudy,25,25,34,19,10,83,30.31 Falling ,21,4,CALM,0
Mon Feb  1 09:00:07 2010," US and USA, TN and Tennessee, Nashville, 37201",Fog,23,23,34,19,10,83,30.32 Steady ,19,1,CALM,0
Mon Feb  1 09:43:05 2010," US and USA, TN and Tennessee, Nashville, 37201",Fog,21,21,45,32,10,100,30.31 Steady ,21,0,ENE,1
Mon Feb  1 10:26:38 2010," US and USA, TN and Tennessee, Nashville, 37201",Fog,20,20,45,32,10,95,30.31 Steady ,19,0.3,CALM,0
Mon Feb  1 11:09:35 2010," US and USA, TN and Tennessee, Nashville, 37201",Fog,19,19,45,32,10,91,30.31 Steady ,18,1,CALM,0
Mon Feb  1 11:53:02 2010," US and USA, TN and Tennessee, Nashville, 37201",Fog,21,21,45,32,10,91,30.30 Steady ,19,0.5,CALM,0
Mon Feb  1 12:36:25 2010," US and USA, TN and Tennessee, Nashville, 37201",Fog,21,21,45,32,10,90,30.29 Steady ,19,0.1,NNE,3
Mon Feb  1 13:19:55 2010," US and USA, TN and Tennessee, Nashville, 37201",Fog,20,20,45,32,10,90,30.30 Rising ,18,0.3,CALM,0
Mon Feb  1 14:03:50 2010," US and USA, TN and Tennessee, Nashville, 37201",Fog,19,19,45,32,10,91,30.29 Falling ,18,0.5,CALM,0
Mon Feb  1 14:48:53 2010," US and USA, TN and Tennessee, Nashville, 37201",Snow Showers,20,20,45,32,10,82,30.29 Steady ,16,0.6,CALM,0
Mon Feb  1 15:32:38 2010," US and USA, TN and Tennessee, Nashville, 37201",Fog,21,21,45,32,10,87,30.31 Steady ,18,1.5,CALM,0
Mon Feb  1 16:17:21 2010," US and USA, TN and Tennessee, Nashville, 37201",Fog,22,22,45,32,10,85,30.31 Steady ,19,1.5,CALM,0
Mon Feb  1 17:02:08 2010," US and USA, TN and Tennessee, Nashville, 37201",Mostly Cloudy,26,26,45,32,10,91,30.32 Steady ,24,5,CALM,0
Mon Feb  1 17:45:56 2010," US and USA, TN and Tennessee, Nashville, 37201",Mostly Cloudy,29,29,45,32,10,83,30.30 Steady ,26,5,NE,1
Mon Feb  1 18:29:25 2010," US and USA, TN and Tennessee, Nashville, 37201",Mostly Cloudy,33,33,43,32,10,72,30.30 Steady ,25,10,S,3
Mon Feb  1 19:13:12 2010," US and USA, TN and Tennessee, Nashville, 37201",Mostly Cloudy,38,38,42,32,10,60,30.28 Falling Rapidly ,25,10,S,3
Mon Feb  1 19:58:02 2010," US and USA, TN and Tennessee, Nashville, 37201",Mostly Cloudy,39,35,42,32,10,60,30.28 Steady ,26,10,SSE,4
Mon Feb  1 20:44:27 2010," US and USA, TN and Tennessee, Nashville, 37201",Mostly Cloudy,41,41,42,32,10,54,30.23 Steady ,25,9,CALM,0
Mon Feb  1 21:29:27 2010," US and USA, TN and Tennessee, Nashville, 37201",Mostly Cloudy,42,38,42,32,20,55,30.20 Falling Rapidly ,27,10,E,6
Mon Feb  1 22:12:47 2010," US and USA, TN and Tennessee, Nashville, 37201",Cloudy,40,37,42,32,20,63,30.19 Falling ,28,10,ESE,5
Mon Feb  1 22:56:07 2010," US and USA, TN and Tennessee, Nashville, 37201",Cloudy,34,30,42,32,20,78,30.19 Steady ,28,8,ESE,5
Mon Feb  1 23:42:13 2010," US and USA, TN and Tennessee, Nashville, 37201",Cloudy,35,31,42,32,20,74,30.19 Steady ,28,9,SE,5
Tue Feb  2 00:29:08 2010," US and USA, TN and Tennessee, Nashville, 37201",Cloudy,39,36,42,32,20,65,30.19 Steady ,28,10,SE,5
Tue Feb  2 01:14:44 2010," US and USA, TN and Tennessee, Nashville, 37201",Cloudy,38,38,42,32,20,70,30.18 Falling ,29,10,CALM,0
Tue Feb  2 01:57:51 2010," US and USA, TN and Tennessee, Nashville, 37201",Cloudy,29,29,42,32,20,98,30.18 Steady ,29,7,CALM,0
Tue Feb  2 02:41:54 2010," US and USA, TN and Tennessee, Nashville, 37201",Cloudy,36,36,42,32,20,80,30.16 Steady ,30,9,CALM,0
Tue Feb  2 03:25:25 2010," US and USA, TN and Tennessee, Nashville, 37201",Cloudy,35,35,42,32,20,82,30.15 Falling ,30,10,CALM,0
Tue Feb  2 04:09:13 2010," US and USA, TN and Tennessee, Nashville, 37201",Cloudy,35,35,42,32,20,86,30.15 Steady ,31,9,CALM,0
Tue Feb  2 04:52:46 2010," US and USA, TN and Tennessee, Nashville, 37201",Cloudy,36,36,42,32,20,82,30.14 Steady ,31,9,CALM,0
Tue Feb  2 05:36:09 2010," US and USA, TN and Tennessee, Nashville, 37201",Rain and Snow,35,35,42,32,20,88,30.15 Steady ,32,2.1,CALM,0
Tue Feb  2 06:19:27 2010," US and USA, TN and Tennessee, Nashville, 37201",Rain and Snow,35,35,42,32,20,93,30.15 Steady ,33,2.4,CALM,0
Tue Feb  2 07:06:34 2010," US and USA, TN and Tennessee, Nashville, 37201",Showers,35,35,42,32,20,89,30.14 Steady ,32,6,CALM,0
Tue Feb  2 07:49:33 2010," US and USA, TN and Tennessee, Nashville, 37201",Showers,34,34,42,32,20,98,30.13 Steady ,33,6,CALM,0
Tue Feb  2 08:32:45 2010," US and USA, TN and Tennessee, Nashville, 37201",Showers,34,34,42,32,20,100,30.12 Steady ,34,2.5,CALM,0
Tue Feb  2 09:16:15 2010," US and USA, TN and Tennessee, Nashville, 37201",Showers,35,35,42,32,20,96,30.11 Falling ,34,2.5,CALM,0
Tue Feb  2 09:59:47 2010," US and USA, TN and Tennessee, Nashville, 37201",Cloudy,35,35,47,28,20,96,30.11 Steady ,34,5,CALM,0
Tue Feb  2 10:43:21 2010," US and USA, TN and Tennessee, Nashville, 37201",Cloudy,36,36,46,28,20,93,30.11 Steady ,34,5,CALM,0
Tue Feb  2 11:27:29 2010," US and USA, TN and Tennessee, Nashville, 37201",Drizzle,35,35,47,28,20,96,30.09 Falling Rapidly ,34,1.3,CALM,0
Tue Feb  2 12:11:29 2010," US and USA, TN and Tennessee, Nashville, 37201",Fog,35,35,46,28,20,96,30.08 Falling ,34,1,SSE,3
Tue Feb  2 12:55:22 2010," US and USA, TN and Tennessee, Nashville, 37201",Fog,36,36,46,28,20,93,30.08 Steady ,34,1.5,CALM,0
Tue Feb  2 13:38:43 2010," US and USA, TN and Tennessee, Nashville, 37201",Fog,34,34,46,28,20,100,30.09 Steady ,34,1.1,S,4
Tue Feb  2 14:22:22 2010," US and USA, TN and Tennessee, Nashville, 37201",Drizzle,36,36,46,28,20,97,30.10 Steady ,35,0.8,CALM,0
Tue Feb  2 15:06:44 2010," US and USA, TN and Tennessee, Nashville, 37201",Fog,36,36,46,28,20,97,30.10 Steady ,35,0.4,NNW,1
Tue Feb  2 15:53:08 2010," US and USA, TN and Tennessee, Nashville, 37201",Mostly Cloudy,36,36,46,28,20,97,30.10 Steady ,35,10,CALM,0
Tue Feb  2 16:45:38 2010," US and USA, TN and Tennessee, Nashville, 37201",Drizzle,37,37,46,28,20,93,30.11 Falling ,36,0.5,CALM,0
Tue Feb  2 17:34:06 2010," US and USA, TN and Tennessee, Nashville, 37201",Fog,38,38,46,28,30,100,30.12 Steady ,38,0.2,CALM,0
Tue Feb  2 18:18:42 2010," US and USA, TN and Tennessee, Nashville, 37201",Fog,38,38,44,28,30,97,30.10 Falling Rapidly ,37,0.5,CALM,0
Tue Feb  2 19:02:52 2010," US and USA, TN and Tennessee, Nashville, 37201",Fog,39,39,44,28,30,93,30.08 Falling Rapidly ,37,0.5,CALM,0
Tue Feb  2 19:52:17 2010," US and USA, TN and Tennessee, Nashville, 37201",Mostly Cloudy,43,39,44,27,30,81,30.06 Falling ,37,7,WNW,7
Tue Feb  2 20:43:27 2010," US and USA, TN and Tennessee, Nashville, 37201",Mostly Cloudy,43,43,44,27,30,72,30.06 Steady ,35,7,WSW,3
Tue Feb  2 21:30:17 2010," US and USA, TN and Tennessee, Nashville, 37201",Mostly Cloudy,45,43,44,27,0,68,30.06 Rising ,35,8,W,5
Tue Feb  2 22:18:40 2010," US and USA, TN and Tennessee, Nashville, 37201",Mostly Cloudy,46,42,44,27,0,58,30.06 Steady ,32,10,WNW,7
Tue Feb  2 23:02:58 2010," US and USA, TN and Tennessee, Nashville, 37201",Mostly Cloudy,45,41,44,27,0,59,30.06 Steady ,32,10,WNW,8
Tue Feb  2 23:48:17 2010," US and USA, TN and Tennessee, Nashville, 37201",Cloudy,41,37,44,27,0,66,30.07 Steady ,31,10,WNW,6
Wed Feb  3 00:32:41 2010," US and USA, TN and Tennessee, Nashville, 37201",Cloudy,44,41,44,27,0,61,30.08 Steady ,31,9,WNW,5
Wed Feb  3 01:19:52 2010," US and USA, TN and Tennessee, Nashville, 37201",Cloudy,43,40,44,27,0,62,30.10 Rising Rapidly ,31,10,WNW,5
Wed Feb  3 02:05:05 2010," US and USA, TN and Tennessee, Nashville, 37201",Cloudy,34,29,44,27,0,87,30.10 Steady ,30,9,NW,5
Wed Feb  3 02:53:22 2010," US and USA, TN and Tennessee, Nashville, 37201",Cloudy,35,27,44,27,0,79,30.12 Steady ,29,9,WNW,9
Wed Feb  3 03:40:11 2010," US and USA, TN and Tennessee, Nashville, 37201",Cloudy,38,38,44,27,0,73,30.14 Steady ,30,10,WNW,4
Wed Feb  3 04:28:20 2010," US and USA, TN and Tennessee, Nashville, 37201",Cloudy,40,34,44,27,0,68,30.17 Rising Rapidly ,30,10,WNW,8
Wed Feb  3 05:15:11 2010," US and USA, TN and Tennessee, Nashville, 37201",Cloudy,39,34,44,27,0,67,30.19 Rising Rapidly ,29,10,NW,7
Wed Feb  3 06:02:58 2010," US and USA, TN and Tennessee, Nashville, 37201",Cloudy,39,33,44,27,0,68,30.19 Steady ,29,10,NW,7
Thu Feb  4 06:05:28 2010," US and USA, TN and Tennessee, Nashville, 37201",Partly Cloudy,33,27,44,28,10,77,30.29 Steady ,26,8,NNE,5
Thu Feb  4 06:48:32 2010," US and USA, TN and Tennessee, Nashville, 37201",Mostly Cloudy,32,25,44,28,10,73,30.27 Steady ,26,7,NE,8
Thu Feb  4 07:32:10 2010," US and USA, TN and Tennessee, Nashville, 37201",Cloudy,32,26,44,28,70,75,30.26 Steady ,26,7,NE,6
Thu Feb  4 08:14:41 2010," US and USA, TN and Tennessee, Nashville, 37201",Cloudy,31,25,44,28,70,78,30.26 Steady ,26,7,NE,6
Thu Feb  4 08:58:22 2010," US and USA, TN and Tennessee, Nashville, 37201",Cloudy,32,27,44,28,70,78,30.28 Steady ,27,7,ENE,5
Thu Feb  4 09:42:18 2010," US and USA, TN and Tennessee, Nashville, 37201",Clear,33,27,46,39,70,79,30.25 Steady ,27,7,NE,7
Thu Feb  4 10:25:57 2010," US and USA, TN and Tennessee, Nashville, 37201",Cloudy,33,29,45,39,70,78,30.26 Rising ,27,8,NE,5
Thu Feb  4 11:11:53 2010," US and USA, TN and Tennessee, Nashville, 37201",Cloudy,33,28,45,39,70,78,30.24 Falling Rapidly ,27,9,NE,6
Thu Feb  4 11:55:24 2010," US and USA, TN and Tennessee, Nashville, 37201",Cloudy,32,27,46,39,70,82,30.24 Steady ,27,9,NE,6
Thu Feb  4 12:38:29 2010," US and USA, TN and Tennessee, Nashville, 37201",Cloudy,32,27,46,39,70,81,30.24 Steady ,27,10,NE,6
Thu Feb  4 13:22:34 2010," US and USA, TN and Tennessee, Nashville, 37201",Cloudy,34,28,45,39,70,75,30.24 Steady ,27,10,ENE,7
Thu Feb  4 14:07:23 2010," US and USA, TN and Tennessee, Nashville, 37201",Cloudy,33,26,45,39,70,77,30.24 Steady ,26,10,E,8
Wed Feb  3 06:49:43 2010," US and USA, TN and Tennessee, Nashville, 37201",Cloudy,35,29,44,27,0,76,30.19 Steady ,28,10,NNW,8
Wed Feb  3 07:34:17 2010," US and USA, TX and Texas, Austin, 73301",Cloudy,50,49,52,46,90,75,30.15 Steady ,42,10,NE,4
Wed Feb  3 09:03:55 2010," US and USA, TX and Texas, Austin, 73301",Cloudy,48,48,52,46,90,87,30.10 Falling Rapidly ,45,8,NNE,3
Wed Feb  3 09:47:45 2010," US and USA, TX and Texas, Austin, 73301",Cloudy,49,47,47,43,100,78,30.09 Steady ,42,7,NE,4
Wed Feb  3 10:31:10 2010," US and USA, TX and Texas, Austin, 73301",Cloudy,49,47,47,43,100,80,30.06 Falling Rapidly ,43,8,ENE,5
Wed Feb  3 11:18:01 2010," US and USA, TX and Texas, Austin, 73301",Showers,48,48,47,43,100,86,30.06 Steady ,44,5,NE,3
Wed Feb  3 12:02:45 2010," US and USA, TX and Texas, Austin, 73301",Showers,48,48,47,43,100,86,30.06 Steady ,44,8,NE,3
Wed Feb  3 12:45:57 2010," US and USA, TX and Texas, Austin, 73301",Rain,46,45,47,43,100,93,30.06 Falling ,45,2.5,NE,4
Wed Feb  3 13:29:40 2010," US and USA, TX and Texas, Austin, 73301",Showers,46,44,47,43,100,93,30.06 Steady ,44,3,NE,4
Wed Feb  3 14:15:48 2010," US and USA, TX and Texas, Austin, 73301",Rain,46,44,47,43,100,93,30.05 Steady ,45,3,NE,5
Wed Feb  3 15:01:49 2010," US and USA, TX and Texas, Austin, 73301",Showers,46,46,47,43,100,94,30.05 Steady ,45,10,NE,4
Wed Feb  3 15:46:37 2010," US and USA, TX and Texas, Austin, 73301",Rain,46,43,47,43,100,93,30.05 Rising ,45,2,NE,6
Wed Feb  3 16:32:29 2010," US and USA, TX and Texas, Austin, 73301",Showers,47,43,47,43,100,97,30.06 Rising ,46,3,ENE,8
Wed Feb  3 17:19:40 2010," US and USA, TX and Texas, Austin, 73301",Showers,47,45,47,43,100,93,30.07 Falling ,45,3,E,5
Wed Feb  3 18:07:57 2010," US and USA, TX and Texas, Austin, 73301",Showers,46,43,47,43,100,93,30.05 Falling Rapidly ,45,2.5,E,6
Wed Feb  3 18:51:05 2010," US and USA, TX and Texas, Austin, 73301",Mostly Cloudy,47,42,47,43,100,92,30.05 Steady ,44,8,E,10
Wed Feb  3 19:35:21 2010," US and USA, TX and Texas, Austin, 73301",Mostly Cloudy,46,44,47,44,100,90,30.03 Steady ,44,4,ENE,6
Wed Feb  3 20:19:25 2010," US and USA, TX and Texas, Austin, 73301",Showers,47,44,47,44,100,90,29.99 Falling Rapidly ,44,5,ENE,6
Wed Feb  3 21:03:44 2010," US and USA, TX and Texas, Austin, 73301",Showers,47,44,47,44,100,83,29.99 Steady ,42,7,ENE,5
Wed Feb  3 21:51:49 2010," US and USA, TX and Texas, Austin, 73301",Showers,46,43,47,44,100,93,29.95 Falling Rapidly ,45,4,E,6
Wed Feb  3 22:37:22 2010," US and USA, TX and Texas, Austin, 73301",Showers,46,45,47,44,100,93,29.95 Falling Rapidly ,45,4,ENE,4
Wed Feb  3 23:28:17 2010," US and USA, TX and Texas, Austin, 73301",Showers,47,44,47,44,100,93,29.93 Falling Rapidly ,45,6,ENE,6
Thu Feb  4 00:13:13 2010," US and USA, TX and Texas, Austin, 73301",Showers,47,42,47,44,100,93,29.92 Steady ,45,3,E,10to18
Thu Feb  4 00:57:16 2010," US and USA, TX and Texas, Austin, 73301",Showers,46,44,47,44,100,93,29.92 Steady ,45,4,ENE,5
Thu Feb  4 01:40:33 2010," US and USA, TX and Texas, Austin, 73301",Cloudy,46,43,47,44,100,93,29.91 Steady ,45,7,ENE,6
Thu Feb  4 02:28:18 2010," US and USA, TX and Texas, Austin, 73301",Cloudy,47,42,47,44,100,93,29.89 Falling Rapidly ,45,6,ENE,10to21
Thu Feb  4 03:11:29 2010," US and USA, TX and Texas, Austin, 73301",Cloudy,47,41,47,44,100,93,29.89 Steady ,45,7,ENE,13to23
Thu Feb  4 03:55:56 2010," US and USA, TX and Texas, Austin, 73301",Cloudy,48,45,47,44,90,93,29.93 Steady ,46,6,ENE,5
Thu Feb  4 04:39:12 2010," US and USA, TX and Texas, Austin, 73301",Cloudy,48,46,47,44,90,93,29.95 Steady ,46,6,ENE,4
Thu Feb  4 05:22:35 2010," US and USA, TX and Texas, Austin, 73301",Showers,47,47,47,44,90,97,29.93 Falling Rapidly ,46,4,ENE,3
Thu Feb  4 15:00:11 2010," US and USA, TX and Texas, Austin, 73301",Cloudy,46,46,47,41,60,96,29.89 Steady ,45,5,NNE,3
Thu Jan 28 15:39:49 2010," US and USA, TX and Texas, Austin, 73301",Cloudy,61,61,63,40,80,90,30.06 Steady ,58,10,ESE,10
Thu Jan 28 16:00:38 2010," US and USA, TX and Texas, Austin, 73301",Cloudy,61,61,63,40,80,90,30.06 Steady ,58,10,ESE,10
Thu Jan 28 16:49:56 2010," US and USA, TX and Texas, Austin, 73301",Cloudy,62,62,63,40,80,90,30.05 Steady ,59,10,SE,10to19
Thu Jan 28 17:14:10 2010," US and USA, TX and Texas, Austin, 73301",Cloudy,63,63,63,40,80,87,30.05 Steady ,59,10,SE,9to19
Thu Jan 28 17:30:11 2010," US and USA, TX and Texas, Austin, 73301",Cloudy,63,63,63,40,80,87,30.05 Steady ,59,10,SE,9to19
Fri Jan 29 08:42:23 2010," US and USA, TX and Texas, Austin, 73301",Rain,55,55,63,40,80,94,29.90 Rising ,54,3,NNW,10to18
Fri Jan 29 09:26:19 2010," US and USA, TX and Texas, Austin, 73301",Rain,55,55,63,40,90,93,29.91 Falling Rapidly ,53,5,NNE,6
Fri Jan 29 11:58:21 2010," US and USA, TX and Texas, Austin, 73301",Showers,44,37,46,31,100,94,29.96 Steady ,42,5,NNW,14to28
Fri Jan 29 12:43:03 2010," US and USA, TX and Texas, Austin, 73301",Showers,45,40,46,31,100,87,29.96 Falling ,41,10,NW,9to19
Fri Jan 29 13:30:46 2010," US and USA, TX and Texas, Austin, 73301",Thunderstorms,43,37,46,31,100,93,29.99 Rising Rapidly ,41,2.5,NW,10to21
Fri Jan 29 14:18:36 2010," US and USA, TX and Texas, Austin, 73301",Rain,41,34,46,31,100,93,30.02 Rising Rapidly ,39,2.5,NNW,12to20
Fri Jan 29 15:03:24 2010," US and USA, TX and Texas, Austin, 73301",Showers,40,33,46,31,100,95,30.04 Steady ,39,3,NNW,12to24
Fri Jan 29 15:48:56 2010," US and USA, TX and Texas, Austin, 73301",Showers,39,31,46,31,100,93,30.03 Steady ,37,7,NNW,13to23
Fri Jan 29 16:36:45 2010," US and USA, TX and Texas, Austin, 73301",Rain,39,33,46,31,100,93,30.07 Rising ,37,4,NNW,9to19
Fri Jan 29 17:21:10 2010," US and USA, TX and Texas, Austin, 73301",Cloudy,40,33,46,31,100,89,30.08 Rising Rapidly ,37,10,WNW,12to23
Fri Jan 29 18:09:38 2010," US and USA, TX and Texas, Austin, 73301",Showers,39,31,47,31,100,87,30.07 Steady ,36,10,NW,14to26
Fri Jan 29 18:54:37 2010," US and USA, TX and Texas, Austin, 73301",Cloudy,43,35,45,31,80,76,30.07 Falling ,36,10,NNW,15to29
Fri Jan 29 19:46:36 2010," US and USA, TX and Texas, Austin, 73301",Mostly Cloudy,43,36,45,31,80,71,30.06 Steady ,34,10,NW,16to31
Fri Jan 29 20:44:26 2010," US and USA, TX and Texas, Austin, 73301",Cloudy,41,34,45,31,80,74,30.05 Steady ,34,10,NW,14to23
Fri Jan 29 21:29:02 2010," US and USA, TX and Texas, Austin, 73301",Cloudy,39,31,45,31,80,73,30.05 Steady ,31,10,WNW,13to23
Fri Jan 29 22:15:39 2010," US and USA, TX and Texas, Austin, 73301",Cloudy,39,33,45,30,10,70,30.03 Falling Rapidly ,30,10,NW,9to19
Fri Jan 29 23:00:34 2010," US and USA, TX and Texas, Austin, 73301",Cloudy,38,31,45,30,10,69,30.03 Steady ,29,10,NW,11to21
Fri Jan 29 23:44:49 2010," US and USA, TX and Texas, Austin, 73301",Cloudy,38,32,45,30,10,67,30.05 Steady ,28,10,NW,10to20
Sat Jan 30 00:28:55 2010," US and USA, TX and Texas, Austin, 73301",Partly Cloudy,39,31,45,30,10,60,30.07 Rising Rapidly ,26,10,NW,14to28
Sat Jan 30 01:13:04 2010," US and USA, TX and Texas, Austin, 73301",Mostly Cloudy,38,32,45,30,10,60,30.08 Rising ,25,10,NNW,8to16
Sat Jan 30 01:57:01 2010," US and USA, TX and Texas, Austin, 73301",Mostly Cloudy,37,30,45,30,10,61,30.08 Steady ,24,10,NNW,9to18
Sat Jan 30 02:41:19 2010," US and USA, TX and Texas, Austin, 73301",Partly Cloudy,35,29,45,30,20,62,30.10 Steady ,24,10,NNW,8to17
Sat Jan 30 03:24:50 2010," US and USA, TX and Texas, Austin, 73301",Cloudy,36,30,45,30,20,62,30.11 Rising ,24,10,NNW,7
Sat Jan 30 04:08:46 2010," US and USA, TX and Texas, Austin, 73301",Cloudy,35,28,45,30,10,63,30.11 Steady ,23,10,NNW,8
Sat Jan 30 04:52:32 2010," US and USA, TX and Texas, Austin, 73301",Mostly Cloudy,35,27,45,30,10,66,30.12 Steady ,24,10,NNW,11to20
Sat Jan 30 05:36:18 2010," US and USA, TX and Texas, Austin, 73301",Mostly Cloudy,34,29,45,30,10,70,30.13 Steady ,25,10,NNW,5
Sat Jan 30 06:20:22 2010," US and USA, TX and Texas, Austin, 73301",Mostly Cloudy,34,29,45,30,0,70,30.13 Steady ,25,10,NNW,5
Sat Jan 30 07:06:21 2010," US and USA, TX and Texas, Austin, 73301",Partly Cloudy,34,26,45,30,0,69,30.13 Steady ,24,10,NNW,10
Sat Jan 30 07:49:02 2010," US and USA, TX and Texas, Austin, 73301",Clear,32,25,45,29,0,72,30.13 Steady ,24,10,NNW,7
Sat Jan 30 08:32:16 2010," US and USA, TX and Texas, Austin, 73301",Clear,31,26,45,29,0,67,30.13 Steady ,23,10,NNW,5
Sat Jan 30 11:14:02 2010," US and USA, TX and Texas, Austin, 73301",Mostly Cloudy,31,26,50,31,0,67,30.14 Rising ,23,10,NW,5
Sat Jan 30 12:01:52 2010," US and USA, TX and Texas, Austin, 73301",Mostly Cloudy,31,26,50,31,0,66,30.14 Steady ,23,10,NNW,5
Sat Jan 30 12:45:29 2010," US and USA, TX and Texas, Austin, 73301",Cloudy,31,25,50,31,0,68,30.15 Steady ,23,10,NNW,5
Sat Jan 30 13:28:42 2010," US and USA, TX and Texas, Austin, 73301",Cloudy,32,25,50,31,0,69,30.16 Rising ,23,10,NW,8
Sat Jan 30 14:12:54 2010," US and USA, TX and Texas, Austin, 73301",Cloudy,32,26,50,31,0,69,30.18 Rising Rapidly ,23,10,NNW,6
Sat Jan 30 14:57:10 2010," US and USA, TX and Texas, Austin, 73301",Partly Cloudy,30,24,50,31,0,69,30.19 Rising ,23,10,N,6
Sat Jan 30 15:42:48 2010," US and USA, TX and Texas, Austin, 73301",Partly Cloudy,30,25,50,31,0,65,30.20 Steady ,22,10,N,5
Sat Jan 30 16:27:46 2010," US and USA, TX and Texas, Austin, 73301",Partly Cloudy,31,25,50,31,0,64,30.20 Steady ,22,10,N,5
Sat Jan 30 17:12:13 2010," US and USA, TX and Texas, Austin, 73301",Mostly Cloudy,36,29,50,31,0,65,30.24 Rising Rapidly ,25,10,NNW,8
Sat Jan 30 17:55:24 2010," US and USA, TX and Texas, Austin, 73301",Partly Cloudy,35,27,50,31,0,62,30.25 Steady ,23,10,NNW,11to20
Sat Jan 30 18:39:24 2010," US and USA, TX and Texas, Austin, 73301",Sunny,39,33,50,31,0,56,30.25 Steady ,24,10,N,8
Sat Jan 30 19:22:41 2010," US and USA, TX and Texas, Austin, 73301",Sunny,38,31,50,31,0,60,30.24 Falling ,25,10,N,9to19
Sat Jan 30 20:06:57 2010," US and USA, TX and Texas, Austin, 73301",Sunny,40,33,50,31,0,58,30.24 Steady ,26,10,N,10to20
Sat Jan 30 20:50:02 2010," US and USA, TX and Texas, Austin, 73301",Sunny,42,36,50,31,0,55,30.21 Steady ,27,10,NNW,11to18
Sat Jan 30 21:33:48 2010," US and USA, TX and Texas, Austin, 73301",Sunny,43,36,50,30,0,54,30.19 Steady ,28,10,NNW,15to21
Sat Jan 30 22:17:19 2010," US and USA, TX and Texas, Austin, 73301",Sunny,45,42,50,30,0,53,30.18 Falling ,29,10,NNW,6
Sat Jan 30 23:02:46 2010," US and USA, TX and Texas, Austin, 73301",Sunny,44,40,50,30,0,56,30.18 Steady ,29,10,N,7
Sat Jan 30 23:47:40 2010," US and USA, TX and Texas, Austin, 73301",Sunny,44,39,50,30,0,56,30.17 Steady ,29,9,NNW,8
Sun Jan 31 00:31:39 2010," US and USA, TX and Texas, Austin, 73301",Sunny,42,38,50,30,0,61,30.17 Steady ,30,9,N,7
Sun Jan 31 01:22:05 2010," US and USA, TX and Texas, Austin, 73301",Sunny,42,38,50,30,0,62,30.18 Rising ,30,10,N,7
Sun Jan 31 02:06:05 2010," US and USA, TX and Texas, Austin, 73301",Clear,40,35,50,30,0,66,30.18 Steady ,30,9,N,8
Sun Jan 31 02:49:29 2010," US and USA, TX and Texas, Austin, 73301",Clear,39,36,50,30,0,67,30.20 Steady ,29,10,NNE,4
Sun Jan 31 03:33:24 2010," US and USA, TX and Texas, Austin, 73301",Clear,37,32,50,30,0,71,30.22 Steady ,29,10,NE,7
Sun Jan 31 04:17:12 2010," US and USA, TX and Texas, Austin, 73301",Clear,35,35,50,30,0,78,30.24 Rising Rapidly ,29,10,NNE,3
Sun Jan 31 05:01:28 2010," US and USA, TX and Texas, Austin, 73301",Clear,34,29,50,30,0,80,30.24 Steady ,28,10,NNE,5
Sun Jan 31 05:47:52 2010," US and USA, TX and Texas, Austin, 73301",Clear,33,28,50,30,0,79,30.26 Steady ,27,10,NE,5
Sun Jan 31 06:32:43 2010," US and USA, TX and Texas, Austin, 73301",Clear,32,32,50,30,0,82,30.25 Falling ,27,10,NNE,3
Sun Jan 31 07:15:35 2010," US and USA, TX and Texas, Austin, 73301",Clear,32,27,50,30,20,82,30.26 Rising ,27,10,NNE,5
Sun Jan 31 08:02:18 2010," US and USA, TX and Texas, Austin, 73301",Clear,32,28,50,30,20,79,30.26 Steady ,27,10,NE,4
Sun Jan 31 08:46:59 2010," US and USA, TX and Texas, Austin, 73301",Mostly Cloudy,30,26,50,30,20,83,30.25 Steady ,27,10,N,5
Sun Jan 31 09:30:14 2010," US and USA, TX and Texas, Austin, 73301",Cloudy,32,28,50,30,20,85,30.25 Steady ,28,8,NNE,4
Sun Jan 31 10:13:25 2010," US and USA, TX and Texas, Austin, 73301",Cloudy,31,31,52,38,20,87,30.25 Steady ,28,8,NE,3
Sun Jan 31 10:57:12 2010," US and USA, TX and Texas, Austin, 73301",Cloudy,32,32,52,38,20,84,30.25 Steady ,28,8,NE,2
Sun Jan 31 11:40:44 2010," US and USA, TX and Texas, Austin, 73301",Cloudy,31,31,52,38,20,81,30.26 Steady ,27,7,NE,3
Sun Jan 31 12:24:18 2010," US and USA, TX and Texas, Austin, 73301",Cloudy,31,31,52,38,20,82,30.26 Steady ,27,7,CALM,0
Sun Jan 31 13:07:41 2010," US and USA, TX and Texas, Austin, 73301",Cloudy,31,31,52,38,20,81,30.26 Steady ,27,7,CALM,0
Sun Jan 31 13:51:18 2010," US and USA, TX and Texas, Austin, 73301",Cloudy,30,26,52,38,20,86,30.27 Steady ,27,6,NE,4
Sun Jan 31 14:34:06 2010," US and USA, TX and Texas, Austin, 73301",Cloudy,30,30,52,38,20,86,30.29 Steady ,27,7,NNE,4
Sun Jan 31 15:18:12 2010," US and USA, TX and Texas, Austin, 73301",Cloudy,31,25,52,38,20,87,30.30 Rising ,28,6,NNE,6
Sun Jan 31 16:01:44 2010," US and USA, TX and Texas, Austin, 73301",Cloudy,31,25,52,38,20,86,30.30 Steady ,28,6,NNE,6
Sun Jan 31 16:51:32 2010," US and USA, TX and Texas, Austin, 73301",Cloudy,31,24,52,38,20,82,30.30 Steady ,27,6,N,7
Sun Jan 31 17:35:09 2010," US and USA, TX and Texas, Austin, 73301",Cloudy,32,27,52,38,20,84,30.30 Steady ,28,7,NE,5
Sun Jan 31 18:20:09 2010," US and USA, TX and Texas, Austin, 73301",Cloudy,32,32,52,38,20,85,30.29 Falling ,28,7,ENE,3
Sun Jan 31 19:03:57 2010," US and USA, TX and Texas, Austin, 73301",Cloudy,33,33,52,38,20,82,30.29 Steady ,29,7,ENE,3
Sun Jan 31 19:49:26 2010," US and USA, TX and Texas, Austin, 73301",Cloudy,33,33,50,36,20,86,30.30 Steady ,29,8,CALM,0
Sun Jan 31 20:32:16 2010," US and USA, TX and Texas, Austin, 73301",Cloudy,33,33,50,36,20,83,30.26 Steady ,29,7,CALM,0
Sun Jan 31 21:16:54 2010," US and USA, TX and Texas, Austin, 73301",Cloudy,34,34,50,36,20,82,30.24 Falling Rapidly ,29,7,CALM,0
Sun Jan 31 21:59:42 2010," US and USA, TX and Texas, Austin, 73301",Cloudy,34,34,50,36,20,80,30.23 Falling ,29,7,ESE,4
Sun Jan 31 22:44:31 2010," US and USA, TX and Texas, Austin, 73301",Cloudy,34,34,50,36,20,82,30.22 Steady ,29,6,SSW,4
Sun Jan 31 23:27:51 2010," US and USA, TX and Texas, Austin, 73301",Cloudy,35,35,50,36,20,82,30.20 Falling Rapidly ,30,6,E,3
Mon Feb  1 00:11:49 2010," US and USA, TX and Texas, Austin, 73301",Cloudy,35,35,50,36,20,82,30.20 Steady ,30,5,CALM,0
Mon Feb  1 00:54:44 2010," US and USA, TX and Texas, Austin, 73301",Cloudy,35,35,50,36,20,82,30.20 Steady ,30,5,CALM,0
Mon Feb  1 01:41:01 2010," US and USA, TX and Texas, Austin, 73301",Cloudy,35,35,50,36,20,82,30.19 Steady ,30,6,ENE,3
Mon Feb  1 02:25:02 2010," US and USA, TX and Texas, Austin, 73301",Cloudy,34,34,50,36,20,85,30.20 Rising ,30,7,E,3
Mon Feb  1 03:08:41 2010," US and USA, TX and Texas, Austin, 73301",Cloudy,34,34,50,36,20,87,30.20 Steady ,30,6,CALM,0
Mon Feb  1 03:53:22 2010," US and USA, TX and Texas, Austin, 73301",Cloudy,34,34,50,36,20,86,30.20 Steady ,30,5,NNE,1
Mon Feb  1 04:38:11 2010," US and USA, TX and Texas, Austin, 73301",Cloudy,34,34,50,33,20,87,30.21 Steady ,30,6,NNW,1
Mon Feb  1 05:21:20 2010," US and USA, TX and Texas, Austin, 73301",Cloudy,34,34,50,33,20,85,30.21 Steady ,30,9,SE,3
Mon Feb  1 06:06:13 2010," US and USA, TX and Texas, Austin, 73301",Cloudy,34,30,50,33,20,86,30.21 Steady ,30,9,SE,4
Mon Feb  1 06:49:23 2010," US and USA, TX and Texas, Austin, 73301",Cloudy,34,34,50,33,20,86,30.21 Steady ,30,9,SSE,4
Mon Feb  1 07:33:13 2010," US and USA, TX and Texas, Austin, 73301",Cloudy,34,34,50,33,20,87,30.19 Falling ,30,8,ESE,3
Mon Feb  1 08:16:37 2010," US and USA, TX and Texas, Austin, 73301",Cloudy,33,33,50,35,20,89,30.19 Steady ,30,8,ESE,4
Mon Feb  1 09:00:05 2010," US and USA, TX and Texas, Austin, 73301",Cloudy,34,34,50,35,20,86,30.18 Steady ,31,8,NNE,1
Mon Feb  1 09:43:02 2010," US and USA, TX and Texas, Austin, 73301",Cloudy,34,30,49,44,20,89,30.17 Steady ,31,9,SSE,5
Mon Feb  1 10:26:36 2010," US and USA, TX and Texas, Austin, 73301",Cloudy,36,36,49,44,20,81,30.15 Steady ,30,8,CALM,0
Mon Feb  1 11:09:32 2010," US and USA, TX and Texas, Austin, 73301",Cloudy,36,36,49,44,20,81,30.16 Steady ,30,8,CALM,0
Mon Feb  1 11:53:00 2010," US and USA, TX and Texas, Austin, 73301",Cloudy,36,36,49,44,20,81,30.14 Falling ,30,9,CALM,0
Mon Feb  1 12:36:22 2010," US and USA, TX and Texas, Austin, 73301",Cloudy,36,36,51,44,20,82,30.14 Steady ,31,9,ENE,1
Mon Feb  1 13:19:53 2010," US and USA, TX and Texas, Austin, 73301",Cloudy,36,36,51,44,20,82,30.13 Falling ,31,9,CALM,0
Mon Feb  1 14:03:47 2010," US and USA, TX and Texas, Austin, 73301",Cloudy,36,36,51,44,20,87,30.13 Steady ,32,7,CALM,0
Mon Feb  1 14:48:51 2010," US and USA, TX and Texas, Austin, 73301",Cloudy,36,36,51,44,20,85,30.13 Steady ,32,6,CALM,0
Mon Feb  1 15:32:35 2010," US and USA, TX and Texas, Austin, 73301",Cloudy,37,37,51,44,20,88,30.13 Steady ,34,5,CALM,0
Mon Feb  1 16:17:18 2010," US and USA, TX and Texas, Austin, 73301",Cloudy,37,37,51,44,30,87,30.13 Steady ,34,4,ESE,3
Mon Feb  1 17:02:06 2010," US and USA, TX and Texas, Austin, 73301",Cloudy,38,38,51,44,30,87,30.14 Steady ,34,5,CALM,0
Mon Feb  1 17:45:53 2010," US and USA, TX and Texas, Austin, 73301",Fog,37,37,49,44,30,93,30.15 Steady ,36,2,CALM,0
Mon Feb  1 18:29:23 2010," US and USA, TX and Texas, Austin, 73301",Fog,39,39,49,44,20,89,30.15 Steady ,36,2,CALM,0
Mon Feb  1 19:13:09 2010," US and USA, TX and Texas, Austin, 73301",Fog,39,39,49,43,20,93,30.13 Falling ,37,1.5,ESE,3
Mon Feb  1 19:57:59 2010," US and USA, TX and Texas, Austin, 73301",Cloudy,41,41,49,43,20,87,30.11 Falling ,37,3,CALM,0
Mon Feb  1 20:44:24 2010," US and USA, TX and Texas, Austin, 73301",Cloudy,41,41,49,43,20,89,30.10 Steady ,38,5,CALM,0
Mon Feb  1 21:29:24 2010," US and USA, TX and Texas, Austin, 73301",Cloudy,43,43,49,43,20,86,30.07 Falling ,39,4,CALM,0
Mon Feb  1 22:12:45 2010," US and USA, TX and Texas, Austin, 73301",Cloudy,45,45,49,43,20,82,30.05 Falling ,40,6,CALM,0
Mon Feb  1 22:56:05 2010," US and USA, TX and Texas, Austin, 73301",Cloudy,46,46,49,43,20,77,30.05 Steady ,40,7,CALM,0
Mon Feb  1 23:42:11 2010," US and USA, TX and Texas, Austin, 73301",Cloudy,45,45,49,43,20,82,30.04 Steady ,40,6,CALM,0
Tue Feb  2 00:29:06 2010," US and USA, TX and Texas, Austin, 73301",Cloudy,45,45,49,43,20,93,30.05 Falling ,43,3,CALM,0
Tue Feb  2 01:14:42 2010," US and USA, TX and Texas, Austin, 73301",Cloudy,45,45,49,43,20,90,30.04 Falling ,42,4,SE,3
Tue Feb  2 01:57:49 2010," US and USA, TX and Texas, Austin, 73301",Cloudy,45,45,49,43,20,93,30.05 Rising ,43,6,SE,3
Tue Feb  2 02:41:52 2010," US and USA, TX and Texas, Austin, 73301",Cloudy,45,45,49,43,20,87,30.06 Rising Rapidly ,41,6,CALM,0
Tue Feb  2 03:25:23 2010," US and USA, TX and Texas, Austin, 73301",Cloudy,45,45,49,43,20,86,30.06 Steady ,41,5,CALM,0
Tue Feb  2 04:09:10 2010," US and USA, TX and Texas, Austin, 73301",Cloudy,45,45,49,43,20,87,30.06 Steady ,41,5,NNE,1
Tue Feb  2 04:52:43 2010," US and USA, TX and Texas, Austin, 73301",Cloudy,45,45,49,43,20,90,30.06 Steady ,42,5,NE,1
Tue Feb  2 05:36:07 2010," US and USA, TX and Texas, Austin, 73301",Cloudy,45,45,49,43,20,93,30.05 Steady ,43,5,SSW,2
Tue Feb  2 06:19:25 2010," US and USA, TX and Texas, Austin, 73301",Cloudy,45,45,49,43,20,93,30.05 Steady ,43,5,SW,2
Tue Feb  2 07:06:32 2010," US and USA, TX and Texas, Austin, 73301",Fog,45,45,49,43,20,94,30.07 Steady ,43,1.5,CALM,0
Tue Feb  2 07:49:31 2010," US and USA, TX and Texas, Austin, 73301",Fog,45,45,49,43,20,93,30.08 Rising ,43,1.8,CALM,0
Tue Feb  2 08:32:43 2010," US and USA, TX and Texas, Austin, 73301",Fog,45,45,49,43,20,93,30.08 Steady ,43,1.5,NNW,1
Tue Feb  2 09:16:13 2010," US and USA, TX and Texas, Austin, 73301",Fog,45,45,49,43,20,97,30.09 Rising ,44,1.5,CALM,0
Tue Feb  2 09:59:45 2010," US and USA, TX and Texas, Austin, 73301",Fog,45,45,52,45,20,96,30.09 Steady ,44,1.5,NNE,1
Tue Feb  2 10:43:19 2010," US and USA, TX and Texas, Austin, 73301",Fog,45,42,51,45,20,93,30.10 Rising ,43,2.5,NNE,5
Tue Feb  2 11:27:26 2010," US and USA, TX and Texas, Austin, 73301",Fog,45,45,51,45,30,93,30.09 Falling ,43,2,CALM,0
Tue Feb  2 12:11:27 2010," US and USA, TX and Texas, Austin, 73301",Fog,45,45,51,45,30,93,30.09 Steady ,43,1.5,NE,1
Tue Feb  2 12:55:20 2010," US and USA, TX and Texas, Austin, 73301",Fog,45,45,51,45,30,92,30.10 Steady ,43,1.5,NNE,3
Tue Feb  2 13:38:41 2010," US and USA, TX and Texas, Austin, 73301",Fog,45,45,51,45,30,93,30.12 Steady ,43,1.5,CALM,0
Tue Feb  2 14:22:20 2010," US and USA, TX and Texas, Austin, 73301",Fog,45,45,51,45,30,97,30.12 Steady ,44,2.5,CALM,0
Tue Feb  2 15:06:42 2010," US and USA, TX and Texas, Austin, 73301",Cloudy,46,46,51,45,30,93,30.15 Rising Rapidly ,45,5,CALM,0
Tue Feb  2 15:53:06 2010," US and USA, TX and Texas, Austin, 73301",Fog,46,46,51,45,30,92,30.15 Steady ,44,1.5,ENE,1
Tue Feb  2 16:45:36 2010," US and USA, TX and Texas, Austin, 73301",Cloudy,47,43,51,45,30,92,30.16 Steady ,45,5,NNE,7
Tue Feb  2 17:34:04 2010," US and USA, TX and Texas, Austin, 73301",Cloudy,50,50,51,45,30,84,30.18 Steady ,45,5,N,1
Tue Feb  2 18:18:39 2010," US and USA, TX and Texas, Austin, 73301",Cloudy,50,50,51,45,30,86,30.21 Rising Rapidly ,46,5,CALM,0
Tue Feb  2 19:02:50 2010," US and USA, TX and Texas, Austin, 73301",Cloudy,51,51,51,45,30,83,30.21 Steady ,46,5,NNE,1
Tue Feb  2 19:52:14 2010," US and USA, TX and Texas, Austin, 73301",Cloudy,50,47,52,46,30,86,30.18 Steady ,46,5,NE,7
Tue Feb  2 20:43:25 2010," US and USA, TX and Texas, Austin, 73301",Cloudy,50,50,52,46,30,85,30.15 Steady ,46,5,NNE,7
Tue Feb  2 21:30:15 2010," US and USA, TX and Texas, Austin, 73301",Cloudy,51,51,52,46,50,83,30.13 Falling Rapidly ,46,4,NNE,8
Tue Feb  2 22:18:38 2010," US and USA, TX and Texas, Austin, 73301",Cloudy,51,51,52,46,50,80,30.10 Falling Rapidly ,45,7,NNE,5
Tue Feb  2 23:02:56 2010," US and USA, TX and Texas, Austin, 73301",Cloudy,52,52,52,46,50,77,30.10 Steady ,45,8,N,4
Tue Feb  2 23:48:14 2010," US and USA, TX and Texas, Austin, 73301",Cloudy,51,51,52,46,50,80,30.13 Steady ,45,6,CALM,0
Wed Feb  3 00:32:39 2010," US and USA, TX and Texas, Austin, 73301",Cloudy,51,51,52,46,50,81,30.14 Steady ,45,6,NE,2
Wed Feb  3 01:19:50 2010," US and USA, TX and Texas, Austin, 73301",Cloudy,51,51,52,46,50,80,30.16 Rising Rapidly ,45,6,CALM,0
Wed Feb  3 02:05:02 2010," US and USA, TX and Texas, Austin, 73301",Mostly Cloudy,52,52,52,46,50,76,30.15 Falling ,45,7,CALM,0
Wed Feb  3 02:53:20 2010," US and USA, TX and Texas, Austin, 73301",Cloudy,52,52,52,46,50,82,30.16 Steady ,46,7,CALM,0
Wed Feb  3 03:40:09 2010," US and USA, TX and Texas, Austin, 73301",Cloudy,51,51,52,46,50,83,30.16 Steady ,46,7,NE,1
Wed Feb  3 04:28:18 2010," US and USA, TX and Texas, Austin, 73301",Cloudy,52,52,52,46,50,80,30.16 Steady ,46,8,NNE,3
Wed Feb  3 05:15:08 2010," US and USA, TX and Texas, Austin, 73301",Partly Cloudy,51,51,52,46,50,80,30.15 Falling ,45,9,NE,4
Wed Feb  3 06:02:56 2010," US and USA, TX and Texas, Austin, 73301",Partly Cloudy,51,51,52,46,50,79,30.15 Steady ,45,9,NE,5
Thu Feb  4 06:05:26 2010," US and USA, TX and Texas, Austin, 73301",Rain,46,46,47,44,90,100,29.95 Rising Rapidly ,46,2,ENE,3
Thu Feb  4 06:48:30 2010," US and USA, TX and Texas, Austin, 73301",Cloudy,47,44,47,44,90,96,29.93 Steady ,46,5,ENE,5
Thu Feb  4 07:32:08 2010," US and USA, TX and Texas, Austin, 73301",Showers,47,47,47,44,60,97,29.91 Falling Rapidly ,46,4,NE,3
Thu Feb  4 08:14:39 2010," US and USA, TX and Texas, Austin, 73301",Showers,46,46,47,44,60,93,29.91 Steady ,45,4,ENE,3
Thu Feb  4 08:58:19 2010," US and USA, TX and Texas, Austin, 73301",Showers,46,46,47,44,60,93,29.89 Falling ,45,2.5,ENE,3
Thu Feb  4 09:42:15 2010," US and USA, TX and Texas, Austin, 73301",Showers,46,46,46,41,100,93,29.89 Falling ,45,2.5,CALM,0
Thu Feb  4 10:25:54 2010," US and USA, TX and Texas, Austin, 73301",Showers,46,46,46,41,60,96,29.88 Steady ,45,3,NNE,3
Thu Feb  4 11:11:50 2010," US and USA, TX and Texas, Austin, 73301",Showers,46,44,46,41,60,93,29.88 Steady ,45,3,N,5
Thu Feb  4 11:55:22 2010," US and USA, TX and Texas, Austin, 73301",Showers,46,44,46,41,60,93,29.86 Steady ,45,4,NNE,5
Thu Feb  4 12:38:27 2010," US and USA, TX and Texas, Austin, 73301",Fog,46,44,47,41,60,96,29.86 Steady ,45,1.5,NE,5
Thu Feb  4 13:22:31 2010," US and USA, TX and Texas, Austin, 73301",Cloudy,46,44,47,41,60,96,29.88 Rising ,45,3,NE,5
Thu Feb  4 14:07:21 2010," US and USA, TX and Texas, Austin, 73301",Cloudy,46,44,47,41,60,95,29.88 Steady ,45,5,NE,4
Wed Feb  3 06:49:40 2010," US and USA, TX and Texas, Austin, 73301",Cloudy,50,47,52,46,50,76,30.16 Steady ,42,10,NE,6
Wed Feb  3 07:34:26 2010," US and USA, TX and Texas, Dallas, 75201",Partly Cloudy,40,40,52,39,60,82,30.22 Steady ,35,10,E,1
Wed Feb  3 08:17:34 2010," US and USA, TX and Texas, Dallas, 75201",Partly Cloudy,39,39,52,39,60,82,30.22 Steady ,34,10,E,1
Wed Feb  3 09:04:05 2010," US and USA, TX and Texas, Dallas, 75201",Partly Cloudy,39,35,52,39,60,83,30.21 Steady ,34,10,NE,4
Wed Feb  3 09:47:54 2010," US and USA, TX and Texas, Dallas, 75201",Partly Cloudy,38,34,49,42,60,86,30.17 Steady ,34,10,E,6
Wed Feb  3 10:31:19 2010," US and USA, TX and Texas, Dallas, 75201",Partly Cloudy,38,38,49,42,60,87,30.15 Falling Rapidly ,34,10,ENE,4
Wed Feb  3 11:18:10 2010," US and USA, TX and Texas, Dallas, 75201",Partly Cloudy,38,33,49,42,60,87,30.15 Falling ,34,10,NE,7
Wed Feb  3 12:02:55 2010," US and USA, TX and Texas, Dallas, 75201",Mostly Cloudy,38,33,49,42,60,86,30.16 Steady ,34,10,NE,7
Wed Feb  3 12:46:06 2010," US and USA, TX and Texas, Dallas, 75201",Mostly Cloudy,39,39,49,42,60,85,30.14 Steady ,34,10,E,2
Wed Feb  3 13:29:49 2010," US and USA, TX and Texas, Dallas, 75201",Mostly Cloudy,39,35,49,42,60,86,30.15 Rising ,35,10,E,4
Wed Feb  3 14:15:57 2010," US and USA, TX and Texas, Dallas, 75201",Cloudy,40,34,49,42,60,85,30.15 Steady ,35,10,ESE,8
Wed Feb  3 15:01:58 2010," US and USA, TX and Texas, Dallas, 75201",Cloudy,40,34,49,42,60,86,30.15 Steady ,36,9,ESE,10
Wed Feb  3 15:46:46 2010," US and USA, TX and Texas, Dallas, 75201",Cloudy,41,36,49,42,60,84,30.17 Steady ,37,8,ESE,9
Wed Feb  3 16:32:39 2010," US and USA, TX and Texas, Dallas, 75201",Cloudy,43,37,49,42,70,81,30.19 Rising Rapidly ,37,8,ESE,9
Wed Feb  3 17:19:50 2010," US and USA, TX and Texas, Dallas, 75201",Cloudy,44,38,49,42,70,81,30.18 Falling ,38,8,ESE,10
Wed Feb  3 18:08:07 2010," US and USA, TX and Texas, Dallas, 75201",Cloudy,45,39,48,42,70,79,30.18 Steady ,39,8,ESE,11
Wed Feb  3 18:51:15 2010," US and USA, TX and Texas, Dallas, 75201",Mostly Cloudy,45,40,48,42,70,77,30.18 Steady ,38,8,E,8
Wed Feb  3 19:35:30 2010," US and USA, TX and Texas, Dallas, 75201",Cloudy,45,40,48,42,70,74,30.14 Steady ,38,9,ESE,12to19
Wed Feb  3 20:19:35 2010," US and USA, TX and Texas, Dallas, 75201",Cloudy,45,40,48,42,70,73,30.07 Falling Rapidly ,37,10,E,11
Wed Feb  3 21:03:54 2010," US and USA, TX and Texas, Dallas, 75201",Showers,45,40,48,42,70,75,30.07 Steady ,37,7,ESE,8
Wed Feb  3 21:51:58 2010," US and USA, TX and Texas, Dallas, 75201",Showers,45,41,48,42,90,78,30.07 Falling ,38,7,ENE,7
Wed Feb  3 22:37:31 2010," US and USA, TX and Texas, Dallas, 75201",Showers,44,38,48,42,90,91,30.02 Falling ,41,5,NE,11
Wed Feb  3 23:28:27 2010," US and USA, TX and Texas, Dallas, 75201",Showers,44,44,48,42,90,85,30.05 Rising Rapidly ,39,9,ENE,4
Thu Feb  4 00:13:23 2010," US and USA, TX and Texas, Dallas, 75201",Cloudy,44,39,48,42,90,86,30.09 Rising Rapidly ,40,5,E,7
Thu Feb  4 00:57:25 2010," US and USA, TX and Texas, Dallas, 75201",Showers,43,40,48,42,90,87,30.09 Steady ,40,7,E,6
Thu Feb  4 01:40:43 2010," US and USA, TX and Texas, Dallas, 75201",Cloudy,43,38,48,42,90,82,30.10 Steady ,38,7,E,8
Thu Feb  4 02:28:27 2010," US and USA, TX and Texas, Dallas, 75201",Cloudy,43,38,48,42,100,80,30.07 Falling Rapidly ,38,8,E,9
Thu Feb  4 03:11:39 2010," US and USA, TX and Texas, Dallas, 75201",Cloudy,44,37,48,42,100,76,30.07 Steady ,36,9,E,11
Thu Feb  4 03:56:06 2010," US and USA, TX and Texas, Dallas, 75201",Cloudy,44,38,48,42,100,70,30.09 Steady ,35,9,ESE,13
Thu Feb  4 04:39:22 2010," US and USA, TX and Texas, Dallas, 75201",Cloudy,43,36,48,42,100,76,30.05 Steady ,36,9,E,15to20
Thu Feb  4 05:22:45 2010," US and USA, TX and Texas, Dallas, 75201",Cloudy,43,37,48,42,100,80,30.08 Rising Rapidly ,38,8,E,13to19
Thu Feb  4 15:00:21 2010," US and USA, TX and Texas, Dallas, 75201",Showers,42,39,43,39,70,93,29.97 Steady ,40,8,NE,4
Thu Jan 28 15:39:59 2010," US and USA, TX and Texas, Dallas, 75201",Cloudy,56,56,56,36,100,87,30.15 Steady ,52,9,SE,12
Thu Jan 28 16:00:47 2010," US and USA, TX and Texas, Dallas, 75201",Cloudy,56,56,56,36,100,87,30.15 Steady ,52,9,SE,12
Thu Jan 28 16:50:06 2010," US and USA, TX and Texas, Dallas, 75201",Cloudy,56,56,56,36,100,87,30.15 Steady ,52,10,ESE,10
Thu Jan 28 17:14:20 2010," US and USA, TX and Texas, Dallas, 75201",Cloudy,56,56,56,36,100,85,30.12 Falling Rapidly ,52,10,E,12
Thu Jan 28 17:30:21 2010," US and USA, TX and Texas, Dallas, 75201",Cloudy,56,56,56,36,100,85,30.12 Falling Rapidly ,52,10,E,12
Fri Jan 29 08:42:33 2010," US and USA, TX and Texas, Dallas, 75201",Showers,42,39,56,36,60,93,30.04 Rising ,40,7,WNW,4
Fri Jan 29 09:26:28 2010," US and USA, TX and Texas, Dallas, 75201",Showers,42,38,56,36,100,96,30.02 Steady ,41,7,NNE,5
Fri Jan 29 11:58:31 2010," US and USA, TX and Texas, Dallas, 75201",Showers,41,36,43,30,100,95,30.00 Steady ,39,7,ENE,6
Fri Jan 29 12:43:13 2010," US and USA, TX and Texas, Dallas, 75201",Showers,40,35,43,30,100,94,30.00 Falling ,39,6,NNE,8
Fri Jan 29 13:30:56 2010," US and USA, TX and Texas, Dallas, 75201",Showers,39,35,43,30,100,95,30.00 Steady ,38,7,N,6
Fri Jan 29 14:18:46 2010," US and USA, TX and Texas, Dallas, 75201",Showers,39,34,43,30,100,94,30.01 Falling Rapidly ,38,6,N,7
Fri Jan 29 15:03:33 2010," US and USA, TX and Texas, Dallas, 75201",Showers,38,33,43,30,100,95,30.02 Steady ,37,6,N,7
Fri Jan 29 15:49:06 2010," US and USA, TX and Texas, Dallas, 75201",Showers,38,38,43,30,100,99,30.04 Steady ,37,3,N,4
Fri Jan 29 16:36:55 2010," US and USA, TX and Texas, Dallas, 75201",Showers,38,32,40,30,100,94,30.06 Rising ,36,7,NNW,8
Fri Jan 29 17:21:20 2010," US and USA, TX and Texas, Dallas, 75201",Showers,38,31,40,30,90,92,30.08 Rising ,36,7,NW,8
Fri Jan 29 18:09:48 2010," US and USA, TX and Texas, Dallas, 75201",Showers,37,32,38,30,90,93,30.08 Falling ,35,7,NNW,7
Fri Jan 29 18:54:47 2010," US and USA, TX and Texas, Dallas, 75201",Cloudy,37,30,38,30,80,92,30.06 Falling Rapidly ,35,7,NW,10
Fri Jan 29 19:46:46 2010," US and USA, TX and Texas, Dallas, 75201",Cloudy,37,29,38,28,100,93,30.04 Steady ,35,7,NW,12
Fri Jan 29 20:44:35 2010," US and USA, TX and Texas, Dallas, 75201",Cloudy,36,28,38,28,100,92,30.02 Steady ,34,10,NW,13
Fri Jan 29 21:29:12 2010," US and USA, TX and Texas, Dallas, 75201",Cloudy,36,28,38,28,70,90,30.00 Falling ,34,5,NW,14to20
Fri Jan 29 22:15:49 2010," US and USA, TX and Texas, Dallas, 75201",Cloudy,35,25,38,28,70,86,30.00 Steady ,31,10,WNW,18to26
Fri Jan 29 23:00:44 2010," US and USA, TX and Texas, Dallas, 75201",Cloudy,34,23,38,28,60,84,30.00 Steady ,30,10,NW,20to28
Fri Jan 29 23:44:59 2010," US and USA, TX and Texas, Dallas, 75201",Cloudy,33,23,38,28,60,86,30.02 Steady ,30,10,NW,15to25
Sat Jan 30 00:29:05 2010," US and USA, TX and Texas, Dallas, 75201",Cloudy,33,22,38,28,60,85,30.04 Rising ,29,10,NW,17to25
Sat Jan 30 01:13:14 2010," US and USA, TX and Texas, Dallas, 75201",Cloudy,33,21,38,28,60,81,30.06 Rising Rapidly ,27,10,NW,20to28
Sat Jan 30 01:57:11 2010," US and USA, TX and Texas, Dallas, 75201",Cloudy,32,20,38,28,60,80,30.06 Steady ,27,10,NW,21to29
Sat Jan 30 02:41:29 2010," US and USA, TX and Texas, Dallas, 75201",Cloudy,31,19,38,28,20,74,30.07 Steady ,25,10,NW,22to29
Sat Jan 30 03:25:00 2010," US and USA, TX and Texas, Dallas, 75201",Cloudy,32,20,38,28,20,74,30.09 Rising ,26,10,NW,18to27
Sat Jan 30 04:08:55 2010," US and USA, TX and Texas, Dallas, 75201",Cloudy,31,19,38,28,20,73,30.09 Steady ,25,10,NW,18to27
Sat Jan 30 04:52:41 2010," US and USA, TX and Texas, Dallas, 75201",Flurries,31,20,38,28,20,74,30.10 Rising ,25,7,NW,16to22
Sat Jan 30 05:36:28 2010," US and USA, TX and Texas, Dallas, 75201",Cloudy,30,20,38,28,20,76,30.11 Steady ,25,10,NW,15
Sat Jan 30 06:20:32 2010," US and USA, TX and Texas, Dallas, 75201",Cloudy,30,20,38,28,20,76,30.11 Steady ,25,10,NW,15
Sat Jan 30 07:06:30 2010," US and USA, TX and Texas, Dallas, 75201",Cloudy,30,19,38,28,20,75,30.11 Steady ,24,10,NNW,15
Sat Jan 30 07:49:11 2010," US and USA, TX and Texas, Dallas, 75201",Cloudy,30,19,38,28,20,72,30.12 Steady ,24,10,NNW,17to25
Sat Jan 30 08:32:25 2010," US and USA, TX and Texas, Dallas, 75201",Cloudy,29,18,38,28,20,75,30.11 Steady ,24,10,NW,16to22
Sat Jan 30 11:14:12 2010," US and USA, TX and Texas, Dallas, 75201",Cloudy,28,15,39,29,20,75,30.13 Steady ,22,10,NNW,17to29
Sat Jan 30 12:02:02 2010," US and USA, TX and Texas, Dallas, 75201",Cloudy,27,15,39,29,20,74,30.14 Rising ,22,10,NW,16to27
Sat Jan 30 12:45:38 2010," US and USA, TX and Texas, Dallas, 75201",Cloudy,28,17,39,29,20,74,30.15 Steady ,22,10,NNW,13
Sat Jan 30 13:28:52 2010," US and USA, TX and Texas, Dallas, 75201",Cloudy,27,16,39,29,20,72,30.16 Rising ,21,10,NNW,15
Sat Jan 30 14:13:03 2010," US and USA, TX and Texas, Dallas, 75201",Cloudy,27,18,39,29,20,72,30.18 Rising ,21,10,NNW,10
Sat Jan 30 14:57:20 2010," US and USA, TX and Texas, Dallas, 75201",Cloudy,27,17,39,29,20,70,30.19 Steady ,20,10,NNW,12
Sat Jan 30 15:42:57 2010," US and USA, TX and Texas, Dallas, 75201",Cloudy,28,18,39,29,20,73,30.22 Rising ,22,10,N,10
Sat Jan 30 16:27:56 2010," US and USA, TX and Texas, Dallas, 75201",Cloudy,28,18,39,29,20,73,30.22 Steady ,22,10,N,11
Sat Jan 30 17:12:23 2010," US and USA, TX and Texas, Dallas, 75201",Cloudy,28,17,39,29,20,70,30.24 Steady ,21,10,NNW,12to16
Sat Jan 30 17:55:33 2010," US and USA, TX and Texas, Dallas, 75201",Cloudy,28,17,39,29,10,69,30.26 Rising ,21,10,NNW,14to18
Sat Jan 30 18:39:33 2010," US and USA, TX and Texas, Dallas, 75201",Cloudy,28,17,39,29,10,71,30.26 Steady ,22,10,N,14
Sat Jan 30 19:22:51 2010," US and USA, TX and Texas, Dallas, 75201",Cloudy,30,19,39,29,10,69,30.26 Steady ,22,10,N,13to23
Sat Jan 30 20:07:06 2010," US and USA, TX and Texas, Dallas, 75201",Cloudy,31,21,39,29,10,66,30.26 Steady ,22,10,NNW,11to17
Sat Jan 30 20:50:11 2010," US and USA, TX and Texas, Dallas, 75201",Cloudy,30,21,39,29,10,70,30.24 Falling ,23,10,NNW,11
Sat Jan 30 21:33:58 2010," US and USA, TX and Texas, Dallas, 75201",Cloudy,31,22,39,29,10,68,30.23 Steady ,23,10,N,10
Sat Jan 30 22:17:29 2010," US and USA, TX and Texas, Dallas, 75201",Cloudy,31,23,39,29,10,70,30.23 Steady ,24,10,NNW,9
Sat Jan 30 23:02:55 2010," US and USA, TX and Texas, Dallas, 75201",Cloudy,31,23,39,29,10,69,30.23 Steady ,24,10,NNW,9
Sat Jan 30 23:47:49 2010," US and USA, TX and Texas, Dallas, 75201",Cloudy,31,24,39,29,10,72,30.24 Rising ,24,10,NNW,7
Sun Jan 31 00:31:48 2010," US and USA, TX and Texas, Dallas, 75201",Cloudy,30,22,39,29,10,77,30.24 Steady ,25,10,N,10
Sun Jan 31 01:22:15 2010," US and USA, TX and Texas, Dallas, 75201",Cloudy,31,24,39,29,10,76,30.25 Rising ,25,10,N,7
Sun Jan 31 02:06:15 2010," US and USA, TX and Texas, Dallas, 75201",Cloudy,30,22,39,29,10,79,30.25 Steady ,26,10,N,8
Sun Jan 31 02:49:38 2010," US and USA, TX and Texas, Dallas, 75201",Cloudy,30,23,39,29,10,77,30.26 Steady ,25,10,NNE,7
Sun Jan 31 03:33:34 2010," US and USA, TX and Texas, Dallas, 75201",Cloudy,31,24,39,29,10,77,30.27 Steady ,26,10,NNW,7
Sun Jan 31 04:17:21 2010," US and USA, TX and Texas, Dallas, 75201",Cloudy,31,23,39,29,10,76,30.27 Steady ,26,10,N,8
Sun Jan 31 05:01:37 2010," US and USA, TX and Texas, Dallas, 75201",Cloudy,31,23,39,29,10,79,30.27 Steady ,26,10,N,9
Sun Jan 31 05:48:01 2010," US and USA, TX and Texas, Dallas, 75201",Cloudy,31,23,39,29,10,78,30.27 Steady ,26,10,NNE,8
Sun Jan 31 06:32:52 2010," US and USA, TX and Texas, Dallas, 75201",Cloudy,31,25,39,29,10,77,30.28 Rising ,26,10,NE,6
Sun Jan 31 07:15:44 2010," US and USA, TX and Texas, Dallas, 75201",Cloudy,30,30,39,29,10,79,30.28 Steady ,26,10,NNE,4
Sun Jan 31 08:02:28 2010," US and USA, TX and Texas, Dallas, 75201",Cloudy,31,31,39,29,10,78,30.28 Steady ,26,10,NE,3
Sun Jan 31 08:47:08 2010," US and USA, TX and Texas, Dallas, 75201",Cloudy,31,31,39,29,10,77,30.28 Steady ,26,10,NNE,4
Sun Jan 31 09:30:23 2010," US and USA, TX and Texas, Dallas, 75201",Cloudy,31,26,47,36,10,79,30.28 Steady ,26,10,ENE,5
Sun Jan 31 10:13:34 2010," US and USA, TX and Texas, Dallas, 75201",Cloudy,31,31,47,36,10,79,30.28 Steady ,27,10,CALM,0
Sun Jan 31 10:57:21 2010," US and USA, TX and Texas, Dallas, 75201",Cloudy,31,31,47,36,10,79,30.28 Steady ,27,10,ESE,1
Sun Jan 31 11:40:53 2010," US and USA, TX and Texas, Dallas, 75201",Cloudy,31,31,47,36,10,80,30.29 Steady ,27,10,ENE,3
Sun Jan 31 12:24:28 2010," US and USA, TX and Texas, Dallas, 75201",Cloudy,31,31,47,36,10,80,30.29 Steady ,27,10,E,1
Sun Jan 31 13:07:51 2010," US and USA, TX and Texas, Dallas, 75201",Cloudy,31,31,47,36,10,80,30.29 Steady ,27,10,CALM,0
Sun Jan 31 13:51:28 2010," US and USA, TX and Texas, Dallas, 75201",Cloudy,31,26,47,36,10,83,30.30 Steady ,27,10,E,5
Sun Jan 31 14:34:16 2010," US and USA, TX and Texas, Dallas, 75201",Cloudy,31,27,47,36,10,81,30.31 Steady ,27,10,SE,4
Sun Jan 31 15:18:22 2010," US and USA, TX and Texas, Dallas, 75201",Cloudy,31,31,47,36,10,80,30.32 Rising ,27,8,ESE,3
Sun Jan 31 16:01:54 2010," US and USA, TX and Texas, Dallas, 75201",Cloudy,32,32,47,36,10,79,30.32 Steady ,27,8,E,3
Sun Jan 31 16:51:42 2010," US and USA, TX and Texas, Dallas, 75201",Cloudy,31,25,46,36,10,82,30.32 Steady ,28,8,SE,7
Sun Jan 31 17:35:19 2010," US and USA, TX and Texas, Dallas, 75201",Cloudy,33,33,46,36,10,81,30.33 Steady ,27,8,SSE,3
Sun Jan 31 18:20:19 2010," US and USA, TX and Texas, Dallas, 75201",Cloudy,32,28,46,36,10,81,30.32 Falling ,27,8,SSE,4
Sun Jan 31 19:04:06 2010," US and USA, TX and Texas, Dallas, 75201",Cloudy,33,33,45,36,10,80,30.32 Steady ,27,8,S,4
Sun Jan 31 19:49:36 2010," US and USA, TX and Texas, Dallas, 75201",Cloudy,34,34,45,35,10,79,30.30 Steady ,28,8,CALM,0
Sun Jan 31 20:32:25 2010," US and USA, TX and Texas, Dallas, 75201",Cloudy,35,32,45,35,10,76,30.27 Steady ,29,8,SSE,4
Sun Jan 31 21:17:03 2010," US and USA, TX and Texas, Dallas, 75201",Cloudy,36,31,45,35,10,75,30.23 Falling Rapidly ,29,8,ENE,5
Sun Jan 31 21:59:51 2010," US and USA, TX and Texas, Dallas, 75201",Cloudy,36,33,45,35,20,75,30.23 Steady ,29,8,E,5
Sun Jan 31 22:44:40 2010," US and USA, TX and Texas, Dallas, 75201",Cloudy,37,34,45,35,20,74,30.22 Steady ,30,8,ESE,4
Sun Jan 31 23:28:01 2010," US and USA, TX and Texas, Dallas, 75201",Cloudy,38,38,45,35,20,73,30.22 Steady ,30,10,S,1
Mon Feb  1 00:11:58 2010," US and USA, TX and Texas, Dallas, 75201",Mostly Cloudy,38,38,45,35,20,76,30.22 Steady ,31,10,SSW,3
Mon Feb  1 00:54:54 2010," US and USA, TX and Texas, Dallas, 75201",Mostly Cloudy,37,37,45,35,20,78,30.21 Falling ,31,10,SSW,3
Mon Feb  1 01:41:11 2010," US and USA, TX and Texas, Dallas, 75201",Mostly Cloudy,36,36,45,35,20,77,30.21 Steady ,29,9,SW,3
Mon Feb  1 02:25:11 2010," US and USA, TX and Texas, Dallas, 75201",Partly Cloudy,35,35,45,35,20,79,30.20 Falling ,29,10,CALM,0
Mon Feb  1 03:08:51 2010," US and USA, TX and Texas, Dallas, 75201",Partly Cloudy,34,34,45,35,20,80,30.20 Steady ,29,10,CALM,0
Mon Feb  1 03:53:32 2010," US and USA, TX and Texas, Dallas, 75201",Partly Cloudy,33,33,45,35,20,84,30.20 Steady ,29,9,WSW,1
Mon Feb  1 04:38:20 2010," US and USA, TX and Texas, Dallas, 75201",Partly Cloudy,33,33,45,32,20,84,30.20 Steady ,29,9,CALM,0
Mon Feb  1 05:21:29 2010," US and USA, TX and Texas, Dallas, 75201",Partly Cloudy,32,32,45,32,20,88,30.20 Steady ,29,9,CALM,0
Mon Feb  1 06:06:23 2010," US and USA, TX and Texas, Dallas, 75201",Partly Cloudy,32,32,45,33,20,89,30.20 Steady ,30,9,CALM,0
Mon Feb  1 06:49:32 2010," US and USA, TX and Texas, Dallas, 75201",Partly Cloudy,33,33,45,33,20,87,30.20 Steady ,29,9,CALM,0
Mon Feb  1 07:33:22 2010," US and USA, TX and Texas, Dallas, 75201",Partly Cloudy,32,32,45,34,20,87,30.19 Steady ,29,6,CALM,0
Mon Feb  1 08:16:47 2010," US and USA, TX and Texas, Dallas, 75201",Partly Cloudy,32,32,45,34,20,87,30.19 Steady ,29,6,CALM,0
Mon Feb  1 09:00:15 2010," US and USA, TX and Texas, Dallas, 75201",Partly Cloudy,34,34,45,34,20,88,30.19 Steady ,30,6,WNW,2
Mon Feb  1 09:43:12 2010," US and USA, TX and Texas, Dallas, 75201",Partly Cloudy,32,32,53,40,20,87,30.18 Steady ,29,6,N,1
Mon Feb  1 10:26:45 2010," US and USA, TX and Texas, Dallas, 75201",Mostly Cloudy,32,32,53,40,20,89,30.18 Steady ,29,6,CALM,0
Mon Feb  1 11:09:42 2010," US and USA, TX and Texas, Dallas, 75201",Mostly Cloudy,32,32,53,40,20,87,30.18 Steady ,29,6,CALM,0
Mon Feb  1 11:53:09 2010," US and USA, TX and Texas, Dallas, 75201",Cloudy,32,32,53,40,20,92,30.17 Steady ,30,5,CALM,0
Mon Feb  1 12:36:32 2010," US and USA, TX and Texas, Dallas, 75201",Cloudy,32,32,53,40,20,93,30.15 Steady ,30,5,CALM,0
Mon Feb  1 13:20:03 2010," US and USA, TX and Texas, Dallas, 75201",Cloudy,32,32,53,40,20,93,30.13 Falling Rapidly ,30,5,ENE,2
Mon Feb  1 14:03:57 2010," US and USA, TX and Texas, Dallas, 75201",Cloudy,31,31,53,40,20,96,30.13 Steady ,30,5,NE,2
Mon Feb  1 14:49:00 2010," US and USA, TX and Texas, Dallas, 75201",Cloudy,33,33,53,40,20,91,30.12 Falling ,31,5,ESE,4
Mon Feb  1 15:32:45 2010," US and USA, TX and Texas, Dallas, 75201",Cloudy,36,31,53,40,20,85,30.12 Steady ,32,5,SE,5
Mon Feb  1 16:17:29 2010," US and USA, TX and Texas, Dallas, 75201",Cloudy,36,32,53,40,20,83,30.12 Steady ,32,5,SE,6
Mon Feb  1 17:02:15 2010," US and USA, TX and Texas, Dallas, 75201",Cloudy,36,36,53,40,20,82,30.14 Steady ,32,5,SSW,3
Mon Feb  1 17:46:03 2010," US and USA, TX and Texas, Dallas, 75201",Cloudy,39,34,52,40,20,78,30.14 Steady ,33,7,S,6
Mon Feb  1 18:29:32 2010," US and USA, TX and Texas, Dallas, 75201",Mostly Cloudy,41,38,52,40,20,74,30.13 Steady ,34,8,S,5
Mon Feb  1 19:13:19 2010," US and USA, TX and Texas, Dallas, 75201",Mostly Cloudy,46,41,52,40,20,66,30.11 Falling ,35,10,S,8
Mon Feb  1 19:58:09 2010," US and USA, TX and Texas, Dallas, 75201",Cloudy,47,43,52,40,20,67,30.10 Steady ,37,9,SSW,9
Mon Feb  1 20:44:34 2010," US and USA, TX and Texas, Dallas, 75201",Cloudy,45,41,52,40,20,71,30.07 Falling Rapidly ,36,10,SW,7
Mon Feb  1 21:29:34 2010," US and USA, TX and Texas, Dallas, 75201",Cloudy,46,43,52,39,20,69,30.05 Falling ,36,10,SSW,5
Mon Feb  1 22:12:54 2010," US and USA, TX and Texas, Dallas, 75201",Cloudy,46,42,52,39,20,69,30.03 Falling Rapidly ,36,10,SW,6
Mon Feb  1 22:56:15 2010," US and USA, TX and Texas, Dallas, 75201",Cloudy,45,41,52,39,20,72,30.03 Steady ,37,10,SW,8
Mon Feb  1 23:42:21 2010," US and USA, TX and Texas, Dallas, 75201",Cloudy,46,43,52,39,20,72,30.02 Steady ,37,10,SSW,5
Tue Feb  2 00:29:15 2010," US and USA, TX and Texas, Dallas, 75201",Cloudy,46,42,52,39,20,72,30.03 Rising ,37,10,SSE,8
Tue Feb  2 01:14:52 2010," US and USA, TX and Texas, Dallas, 75201",Cloudy,45,41,52,39,20,74,30.04 Rising ,37,9,SSE,7
Tue Feb  2 01:57:59 2010," US and USA, TX and Texas, Dallas, 75201",Cloudy,45,42,52,39,20,76,30.04 Steady ,38,9,SSE,6
Tue Feb  2 02:42:02 2010," US and USA, TX and Texas, Dallas, 75201",Cloudy,44,42,52,39,20,81,30.05 Steady ,38,9,S,4
Tue Feb  2 03:25:33 2010," US and USA, TX and Texas, Dallas, 75201",Cloudy,44,41,52,39,20,84,30.06 Rising ,39,9,SSE,5
Tue Feb  2 04:09:20 2010," US and USA, TX and Texas, Dallas, 75201",Cloudy,43,40,52,39,20,88,30.06 Steady ,39,8,SSE,5
Tue Feb  2 04:52:53 2010," US and USA, TX and Texas, Dallas, 75201",Cloudy,43,43,52,39,20,87,30.07 Steady ,39,6,SE,1
Tue Feb  2 05:36:17 2010," US and USA, TX and Texas, Dallas, 75201",Cloudy,43,43,52,39,20,87,30.08 Steady ,40,5,WNW,1
Tue Feb  2 06:19:34 2010," US and USA, TX and Texas, Dallas, 75201",Cloudy,43,43,52,39,20,87,30.08 Steady ,40,5,NW,1
Tue Feb  2 07:06:42 2010," US and USA, TX and Texas, Dallas, 75201",Cloudy,44,44,52,39,10,85,30.09 Steady ,40,6,NNW,2
Tue Feb  2 07:49:41 2010," US and USA, TX and Texas, Dallas, 75201",Cloudy,42,42,52,39,10,87,30.10 Steady ,39,6,N,4
Tue Feb  2 08:32:52 2010," US and USA, TX and Texas, Dallas, 75201",Cloudy,43,40,52,39,10,84,30.12 Rising ,39,5,N,5
Tue Feb  2 09:16:23 2010," US and USA, TX and Texas, Dallas, 75201",Cloudy,41,38,52,39,10,83,30.12 Steady ,37,5,NNE,5
Tue Feb  2 09:59:54 2010," US and USA, TX and Texas, Dallas, 75201",Cloudy,41,38,54,37,10,84,30.12 Steady ,37,5,NNE,5
Tue Feb  2 10:43:29 2010," US and USA, TX and Texas, Dallas, 75201",Cloudy,41,39,54,37,10,85,30.13 Steady ,37,5,NNE,4
Tue Feb  2 11:27:36 2010," US and USA, TX and Texas, Dallas, 75201",Cloudy,42,39,54,37,10,85,30.13 Steady ,37,6,NNE,5
Tue Feb  2 12:11:37 2010," US and USA, TX and Texas, Dallas, 75201",Cloudy,42,38,54,37,10,84,30.13 Steady ,37,6,NNE,6
Tue Feb  2 12:55:29 2010," US and USA, TX and Texas, Dallas, 75201",Cloudy,42,39,53,37,10,83,30.14 Steady ,37,7,N,5
Tue Feb  2 13:38:50 2010," US and USA, TX and Texas, Dallas, 75201",Cloudy,42,42,53,37,10,84,30.16 Steady ,38,8,NNW,2
Tue Feb  2 14:22:30 2010," US and USA, TX and Texas, Dallas, 75201",Cloudy,43,39,53,37,10,79,30.18 Rising Rapidly ,37,8,NNW,7
Tue Feb  2 15:06:51 2010," US and USA, TX and Texas, Dallas, 75201",Cloudy,42,38,53,37,10,80,30.18 Steady ,37,8,N,7
Tue Feb  2 15:53:16 2010," US and USA, TX and Texas, Dallas, 75201",Cloudy,43,38,53,37,10,76,30.20 Steady ,36,9,N,8
Tue Feb  2 16:45:45 2010," US and USA, TX and Texas, Dallas, 75201",Cloudy,44,40,53,37,10,68,30.22 Steady ,34,10,N,7
Tue Feb  2 17:34:13 2010," US and USA, TX and Texas, Dallas, 75201",Cloudy,44,40,53,37,10,69,30.23 Steady ,35,10,N,7
Tue Feb  2 18:18:49 2010," US and USA, TX and Texas, Dallas, 75201",Mostly Cloudy,45,41,53,37,10,67,30.23 Steady ,34,10,N,8
Tue Feb  2 19:02:59 2010," US and USA, TX and Texas, Dallas, 75201",Mostly Cloudy,45,41,53,37,10,67,30.23 Rising ,35,10,NNW,8
Tue Feb  2 19:52:24 2010," US and USA, TX and Texas, Dallas, 75201",Mostly Cloudy,47,47,52,39,10,62,30.23 Falling ,35,10,N,4
Tue Feb  2 20:43:34 2010," US and USA, TX and Texas, Dallas, 75201",Mostly Cloudy,48,45,52,39,10,62,30.21 Steady ,35,10,NNW,6
Tue Feb  2 21:30:24 2010," US and USA, TX and Texas, Dallas, 75201",Partly Cloudy,49,46,52,39,20,58,30.18 Falling Rapidly ,35,10,N,6
Tue Feb  2 22:18:47 2010," US and USA, TX and Texas, Dallas, 75201",Partly Cloudy,50,50,52,39,20,56,30.18 Steady ,35,10,NNW,1
Tue Feb  2 23:03:05 2010," US and USA, TX and Texas, Dallas, 75201",Partly Cloudy,50,50,52,39,20,58,30.17 Falling ,36,10,N,3
Tue Feb  2 23:48:24 2010," US and USA, TX and Texas, Dallas, 75201",Partly Cloudy,50,50,52,39,20,56,30.17 Rising ,35,10,NNE,8
Wed Feb  3 00:32:48 2010," US and USA, TX and Texas, Dallas, 75201",Partly Cloudy,49,45,52,39,20,62,30.16 Steady ,36,9,NNE,8
Wed Feb  3 01:19:59 2010," US and USA, TX and Texas, Dallas, 75201",Partly Cloudy,48,46,52,39,20,62,30.16 Steady ,36,9,NNE,5
Wed Feb  3 02:05:12 2010," US and USA, TX and Texas, Dallas, 75201",Partly Cloudy,47,45,52,39,20,65,30.16 Steady ,36,9,NNE,5
Wed Feb  3 02:53:29 2010," US and USA, TX and Texas, Dallas, 75201",Partly Cloudy,46,46,52,39,20,67,30.21 Steady ,35,9,E,2
Wed Feb  3 03:40:18 2010," US and USA, TX and Texas, Dallas, 75201",Partly Cloudy,43,41,52,39,20,75,30.20 Steady ,36,10,ENE,4
Wed Feb  3 04:28:27 2010," US and USA, TX and Texas, Dallas, 75201",Partly Cloudy,43,40,52,39,20,75,30.21 Rising Rapidly ,36,10,E,6
Wed Feb  3 05:15:18 2010," US and USA, TX and Texas, Dallas, 75201",Clear,41,41,52,39,20,79,30.21 Steady ,35,10,E,3
Wed Feb  3 06:03:05 2010," US and USA, TX and Texas, Dallas, 75201",Clear,41,41,52,39,20,80,30.21 Steady ,35,10,ENE,4
Thu Feb  4 06:05:36 2010," US and USA, TX and Texas, Dallas, 75201",Mostly Cloudy,43,36,48,42,100,87,30.08 Steady ,39,5,E,13to18
Thu Feb  4 06:48:39 2010," US and USA, TX and Texas, Dallas, 75201",Cloudy,42,35,48,42,100,88,30.03 Steady ,39,7,E,14to19
Thu Feb  4 07:32:17 2010," US and USA, TX and Texas, Dallas, 75201",Cloudy,43,36,48,42,70,87,30.01 Falling Rapidly ,39,10,E,11to18
Thu Feb  4 08:14:48 2010," US and USA, TX and Texas, Dallas, 75201",Cloudy,42,35,48,42,70,88,30.00 Falling ,39,6,E,14to21
Thu Feb  4 08:58:29 2010," US and USA, TX and Texas, Dallas, 75201",Showers,42,35,48,42,70,88,29.98 Falling Rapidly ,39,7,E,15to19
Thu Feb  4 09:42:25 2010," US and USA, TX and Texas, Dallas, 75201",Showers,42,34,43,39,70,93,29.97 Steady ,40,7,E,14to23
Thu Feb  4 10:26:04 2010," US and USA, TX and Texas, Dallas, 75201",Showers,42,35,43,39,70,92,29.97 Steady ,40,5,E,12
Thu Feb  4 11:12:00 2010," US and USA, TX and Texas, Dallas, 75201",Showers,41,34,43,39,70,93,29.97 Steady ,39,7,E,13
Thu Feb  4 11:55:31 2010," US and USA, TX and Texas, Dallas, 75201",Showers,42,36,43,39,70,89,29.95 Steady ,39,4,ESE,10
Thu Feb  4 12:38:36 2010," US and USA, TX and Texas, Dallas, 75201",Showers,42,38,43,39,70,89,29.95 Steady ,39,7,E,6
Thu Feb  4 13:22:41 2010," US and USA, TX and Texas, Dallas, 75201",Showers,42,42,43,39,70,93,29.96 Rising ,40,8,NE,1
Thu Feb  4 14:07:30 2010," US and USA, TX and Texas, Dallas, 75201",Showers,42,40,43,39,70,89,29.98 Rising ,39,7,NE,4
Wed Feb  3 06:49:50 2010," US and USA, TX and Texas, Dallas, 75201",Partly Cloudy,40,40,52,39,20,82,30.21 Steady ,35,10,E,4
Wed Feb  3 07:34:13 2010," US and USA, TX and Texas, El Paso, 79901",Cloudy,47,47,62,43,70,77,29.89 Steady ,40,9,CALM,0
Wed Feb  3 09:03:52 2010," US and USA, TX and Texas, El Paso, 79901",Cloudy,46,42,62,43,70,74,29.84 Steady ,39,9,NE,10
Wed Feb  3 09:47:41 2010," US and USA, TX and Texas, El Paso, 79901",Cloudy,46,41,62,43,70,74,29.85 Steady ,38,10,NNE,11
Wed Feb  3 10:31:06 2010," US and USA, TX and Texas, El Paso, 79901",Showers,45,43,52,39,70,80,29.83 Falling Rapidly ,39,8,ENE,5
Wed Feb  3 11:17:58 2010," US and USA, TX and Texas, El Paso, 79901",Showers,45,41,52,39,70,82,29.82 Steady ,40,7,E,8
Wed Feb  3 12:02:41 2010," US and USA, TX and Texas, El Paso, 79901",Mostly Cloudy,45,41,52,39,70,86,29.82 Steady ,40,9,E,7
Wed Feb  3 12:45:53 2010," US and USA, TX and Texas, El Paso, 79901",Showers,44,37,52,39,70,85,29.77 Steady ,40,9,E,16
Wed Feb  3 13:29:37 2010," US and USA, TX and Texas, El Paso, 79901",Showers,43,36,52,39,70,86,29.73 Falling ,39,10,ENE,14
Wed Feb  3 14:15:44 2010," US and USA, TX and Texas, El Paso, 79901",Rain,43,36,52,39,70,86,29.72 Falling ,39,7,E,14
Wed Feb  3 15:01:45 2010," US and USA, TX and Texas, El Paso, 79901",Showers,43,36,52,39,70,83,29.72 Steady ,38,7,E,15
Wed Feb  3 15:46:32 2010," US and USA, TX and Texas, El Paso, 79901",Cloudy,43,39,52,39,70,87,29.74 Steady ,39,5,ESE,7
Wed Feb  3 16:32:26 2010," US and USA, TX and Texas, El Paso, 79901",Cloudy,43,35,52,39,70,82,29.74 Steady ,38,10,E,17to22
Wed Feb  3 17:19:36 2010," US and USA, TX and Texas, El Paso, 79901",Showers,43,37,52,39,70,82,29.75 Rising ,38,6,E,12
Wed Feb  3 18:07:54 2010," US and USA, TX and Texas, El Paso, 79901",Cloudy,42,36,52,39,70,88,29.75 Steady ,39,5,E,11
Wed Feb  3 18:51:02 2010," US and USA, TX and Texas, El Paso, 79901",Cloudy,44,39,52,39,70,85,29.75 Steady ,40,9,ENE,10
Wed Feb  3 19:35:17 2010," US and USA, TX and Texas, El Paso, 79901",Cloudy,44,39,53,39,70,83,29.73 Steady ,39,8,NE,9
Wed Feb  3 20:19:22 2010," US and USA, TX and Texas, El Paso, 79901",Rain,44,39,53,39,70,89,29.71 Falling Rapidly ,41,5,N,9
Wed Feb  3 21:03:41 2010," US and USA, TX and Texas, El Paso, 79901",Showers,44,38,53,39,70,87,29.71 Steady ,40,7,N,11
Wed Feb  3 21:51:45 2010," US and USA, TX and Texas, El Paso, 79901",Showers,43,36,48,39,70,89,29.68 Steady ,40,7,N,13
Wed Feb  3 22:37:18 2010," US and USA, TX and Texas, El Paso, 79901",Rain,43,36,48,39,60,93,29.68 Rising ,41,2,N,13
Wed Feb  3 23:28:13 2010," US and USA, TX and Texas, El Paso, 79901",Showers,43,36,48,39,60,93,29.68 Steady ,41,7,NNE,14
Thu Feb  4 00:13:09 2010," US and USA, TX and Texas, El Paso, 79901",Cloudy,45,38,48,39,60,86,29.69 Rising ,41,10,NNW,14
Thu Feb  4 00:57:12 2010," US and USA, TX and Texas, El Paso, 79901",Cloudy,44,38,48,39,60,88,29.69 Steady ,41,10,NNW,13
Thu Feb  4 01:40:30 2010," US and USA, TX and Texas, El Paso, 79901",Cloudy,44,39,48,39,60,87,29.71 Steady ,41,10,NNW,9
Thu Feb  4 02:28:14 2010," US and USA, TX and Texas, El Paso, 79901",Showers,45,40,48,39,60,86,29.73 Rising Rapidly ,41,7,NNW,10
Thu Feb  4 03:11:25 2010," US and USA, TX and Texas, El Paso, 79901",Cloudy,45,39,48,39,60,87,29.75 Rising Rapidly ,41,10,N,12
Thu Feb  4 03:55:53 2010," US and USA, TX and Texas, El Paso, 79901",Cloudy,44,39,48,39,60,96,29.75 Steady ,42,9,NNW,8
Thu Feb  4 04:39:09 2010," US and USA, TX and Texas, El Paso, 79901",Cloudy,44,44,48,39,60,96,29.78 Steady ,43,9,N,3
Thu Feb  4 05:22:31 2010," US and USA, TX and Texas, El Paso, 79901",Cloudy,44,44,48,39,60,89,29.80 Rising ,41,10,CALM,0
Thu Feb  4 15:00:06 2010," US and USA, TX and Texas, El Paso, 79901",Cloudy,45,45,59,39,30,81,29.84 Rising ,39,10,CALM,0
Thu Jan 28 15:39:45 2010," US and USA, TX and Texas, El Paso, 79901",Cloudy,45,45,46,30,100,92,29.89 Steady ,43,10,NNE,3
Thu Jan 28 16:00:34 2010," US and USA, TX and Texas, El Paso, 79901",Cloudy,45,45,46,30,100,92,29.89 Steady ,43,10,NNE,3
Thu Jan 28 16:49:52 2010," US and USA, TX and Texas, El Paso, 79901",Showers,45,45,46,30,100,92,29.92 Steady ,43,7,N,3
Thu Jan 28 17:14:06 2010," US and USA, TX and Texas, El Paso, 79901",Showers,46,42,46,30,100,89,29.95 Rising ,43,8,NNW,7
Thu Jan 28 17:30:07 2010," US and USA, TX and Texas, El Paso, 79901",Showers,46,42,47,30,90,89,29.95 Rising ,43,8,NNW,7
Fri Jan 29 08:42:19 2010," US and USA, TX and Texas, El Paso, 79901",Snow Showers,30,21,41,29,10,83,30.10 Steady ,27,4,N,12
Fri Jan 29 09:26:15 2010," US and USA, TX and Texas, El Paso, 79901",Snow Showers,30,21,41,28,20,90,30.11 Rising ,28,4,N,10
Fri Jan 29 11:58:17 2010," US and USA, TX and Texas, El Paso, 79901",Cloudy,30,20,51,30,20,75,30.11 Steady ,25,6,N,13to18
Fri Jan 29 12:42:59 2010," US and USA, TX and Texas, El Paso, 79901",Cloudy,30,22,51,30,20,80,30.12 Steady ,26,7,NNW,9to19
Fri Jan 29 13:30:43 2010," US and USA, TX and Texas, El Paso, 79901",Cloudy,30,22,51,30,20,82,30.12 Steady ,26,10,N,9
Fri Jan 29 14:18:32 2010," US and USA, TX and Texas, El Paso, 79901",Cloudy,30,21,51,30,20,77,30.12 Steady ,25,10,NNE,10
Fri Jan 29 15:03:20 2010," US and USA, TX and Texas, El Paso, 79901",Cloudy,30,20,51,30,20,79,30.12 Steady ,25,10,NE,11
Fri Jan 29 15:48:52 2010," US and USA, TX and Texas, El Paso, 79901",Mostly Cloudy,30,23,51,30,20,76,30.14 Rising ,25,10,N,7
Fri Jan 29 16:36:41 2010," US and USA, TX and Texas, El Paso, 79901",Mostly Cloudy,31,31,51,30,20,71,30.15 Rising ,24,10,CALM,0
Fri Jan 29 17:21:06 2010," US and USA, TX and Texas, El Paso, 79901",Mostly Cloudy,32,32,51,30,20,73,30.16 Rising ,24,10,NNE,3
Fri Jan 29 18:09:35 2010," US and USA, TX and Texas, El Paso, 79901",Mostly Cloudy,35,35,51,30,20,65,30.16 Steady ,24,10,NNE,3
Fri Jan 29 18:54:33 2010," US and USA, TX and Texas, El Paso, 79901",Partly Cloudy,37,33,51,30,20,67,30.16 Steady ,27,10,N,5
Fri Jan 29 19:46:32 2010," US and USA, TX and Texas, El Paso, 79901",Mostly Sunny,39,34,49,33,20,67,30.16 Steady ,29,10,NNW,7
Fri Jan 29 20:44:22 2010," US and USA, TX and Texas, El Paso, 79901",Mostly Sunny,42,37,49,33,20,62,30.14 Steady ,29,10,NNW,7
Fri Jan 29 21:28:59 2010," US and USA, TX and Texas, El Paso, 79901",Partly Cloudy,42,38,48,33,10,65,30.10 Falling Rapidly ,31,10,NNW,7
Fri Jan 29 22:15:35 2010," US and USA, TX and Texas, El Paso, 79901",Partly Cloudy,43,40,48,33,10,62,30.08 Falling Rapidly ,31,10,NW,5
Fri Jan 29 23:00:30 2010," US and USA, TX and Texas, El Paso, 79901",Mostly Sunny,44,41,48,33,0,60,30.08 Steady ,31,10,NW,5
Fri Jan 29 23:44:46 2010," US and USA, TX and Texas, El Paso, 79901",Mostly Sunny,46,46,48,33,0,56,30.08 Steady ,31,10,CALM,0
Sat Jan 30 00:28:51 2010," US and USA, TX and Texas, El Paso, 79901",Partly Cloudy,47,45,48,33,0,52,30.08 Steady ,30,10,NNW,5
Sat Jan 30 01:13:00 2010," US and USA, TX and Texas, El Paso, 79901",Mostly Sunny,45,43,48,33,0,60,30.08 Steady ,32,8,N,5
Sat Jan 30 01:56:57 2010," US and USA, TX and Texas, El Paso, 79901",Mostly Clear,46,46,48,28,0,58,30.09 Steady ,32,9,NNW,3
Sat Jan 30 02:41:16 2010," US and USA, TX and Texas, El Paso, 79901",Mostly Clear,43,38,48,28,0,66,30.09 Steady ,32,9,W,8
Sat Jan 30 03:24:46 2010," US and USA, TX and Texas, El Paso, 79901",Clear,44,41,48,28,0,63,30.10 Rising ,32,10,WNW,5
Sat Jan 30 04:08:42 2010," US and USA, TX and Texas, El Paso, 79901",Clear,42,38,48,28,0,70,30.10 Steady ,32,8,WNW,5
Sat Jan 30 04:52:28 2010," US and USA, TX and Texas, El Paso, 79901",Clear,40,34,48,28,0,69,30.11 Steady ,31,10,NE,9
Sat Jan 30 05:36:12 2010," US and USA, TX and Texas, El Paso, 79901",Clear,37,33,48,28,0,78,30.12 Steady ,30,9,NE,4
Sat Jan 30 06:20:19 2010," US and USA, TX and Texas, El Paso, 79901",Clear,37,33,48,28,0,78,30.12 Steady ,30,9,NE,4
Sat Jan 30 07:06:17 2010," US and USA, TX and Texas, El Paso, 79901",Clear,36,31,48,28,0,81,30.11 Steady ,31,9,NNE,6
Sat Jan 30 07:48:58 2010," US and USA, TX and Texas, El Paso, 79901",Clear,36,31,48,28,0,79,30.12 Steady ,30,9,N,5
Sat Jan 30 08:32:12 2010," US and USA, TX and Texas, El Paso, 79901",Mostly Clear,36,36,48,28,0,80,30.12 Steady ,30,10,CALM,0
Sat Jan 30 11:13:59 2010," US and USA, TX and Texas, El Paso, 79901",Clear,31,31,56,36,0,87,30.12 Steady ,28,10,NE,3
Sat Jan 30 12:01:48 2010," US and USA, TX and Texas, El Paso, 79901",Clear,30,30,56,36,0,89,30.12 Steady ,28,10,NE,4
Sat Jan 30 12:45:25 2010," US and USA, TX and Texas, El Paso, 79901",Clear,30,30,56,36,0,92,30.10 Steady ,28,10,CALM,0
Sat Jan 30 13:28:39 2010," US and USA, TX and Texas, El Paso, 79901",Clear,31,31,56,36,0,82,30.10 Steady ,27,10,NNE,3
Sat Jan 30 14:12:50 2010," US and USA, TX and Texas, El Paso, 79901",Clear,31,31,56,36,0,82,30.10 Steady ,27,10,NNE,4
Sat Jan 30 14:57:06 2010," US and USA, TX and Texas, El Paso, 79901",Sunny,30,24,56,36,0,83,30.11 Steady ,27,10,N,6
Sat Jan 30 15:42:44 2010," US and USA, TX and Texas, El Paso, 79901",Sunny,31,24,56,36,0,84,30.11 Steady ,27,10,NNE,6
Sat Jan 30 16:27:42 2010," US and USA, TX and Texas, El Paso, 79901",Sunny,31,26,56,36,0,82,30.11 Steady ,27,10,NNE,6
Sat Jan 30 17:12:09 2010," US and USA, TX and Texas, El Paso, 79901",Sunny,37,32,56,36,0,74,30.14 Steady ,29,10,NE,6
Sat Jan 30 17:55:20 2010," US and USA, TX and Texas, El Paso, 79901",Sunny,38,33,56,36,0,75,30.15 Steady ,31,10,NNE,6
Sat Jan 30 18:39:20 2010," US and USA, TX and Texas, El Paso, 79901",Mostly Sunny,42,42,56,36,0,67,30.16 Steady ,31,10,CALM,0
Sat Jan 30 19:22:37 2010," US and USA, TX and Texas, El Paso, 79901",Partly Cloudy,44,42,54,35,0,63,30.15 Falling ,32,10,SSW,4
Sat Jan 30 20:06:53 2010," US and USA, TX and Texas, El Paso, 79901",Mostly Sunny,46,46,54,35,0,58,30.15 Steady ,32,10,SSW,4
Sat Jan 30 20:49:58 2010," US and USA, TX and Texas, El Paso, 79901",Partly Cloudy,48,48,54,35,0,52,30.12 Steady ,31,10,ESE,1
Sat Jan 30 21:33:45 2010," US and USA, TX and Texas, El Paso, 79901",Partly Cloudy,51,51,53,35,0,47,30.08 Steady ,31,10,NNE,6
Sat Jan 30 22:17:16 2010," US and USA, TX and Texas, El Paso, 79901",Mostly Cloudy,51,51,53,35,0,46,30.06 Falling Rapidly ,31,10,SSW,6
Sat Jan 30 23:02:42 2010," US and USA, TX and Texas, El Paso, 79901",Mostly Cloudy,51,51,53,35,0,46,30.06 Steady ,31,10,SW,8
Sat Jan 30 23:47:36 2010," US and USA, TX and Texas, El Paso, 79901",Mostly Cloudy,52,52,53,35,0,46,30.04 Steady ,31,10,NE,4
Sun Jan 31 00:31:35 2010," US and USA, TX and Texas, El Paso, 79901",Cloudy,52,52,53,35,0,43,30.03 Falling ,30,10,CALM,0
Sun Jan 31 01:22:01 2010," US and USA, TX and Texas, El Paso, 79901",Cloudy,52,52,53,35,0,43,30.03 Steady ,30,10,CALM,0
Sun Jan 31 02:06:02 2010," US and USA, TX and Texas, El Paso, 79901",Cloudy,49,49,53,35,0,52,30.03 Steady ,32,7,CALM,0
Sun Jan 31 02:49:26 2010," US and USA, TX and Texas, El Paso, 79901",Cloudy,49,46,53,35,0,55,30.03 Steady ,33,9,N,6
Sun Jan 31 03:33:21 2010," US and USA, TX and Texas, El Paso, 79901",Mostly Cloudy,46,42,53,35,0,61,30.03 Steady ,33,9,NNE,8
Sun Jan 31 04:17:08 2010," US and USA, TX and Texas, El Paso, 79901",Mostly Cloudy,44,44,53,35,0,68,30.03 Steady ,34,10,NNE,3
Sun Jan 31 05:01:24 2010," US and USA, TX and Texas, El Paso, 79901",Mostly Cloudy,42,42,53,35,0,74,30.03 Steady ,34,9,NNE,3
Sun Jan 31 05:47:48 2010," US and USA, TX and Texas, El Paso, 79901",Partly Cloudy,42,38,53,36,0,68,30.04 Steady ,32,9,ENE,7
Sun Jan 31 06:32:39 2010," US and USA, TX and Texas, El Paso, 79901",Partly Cloudy,42,37,53,36,0,68,30.04 Steady ,32,9,E,7
Sun Jan 31 07:15:31 2010," US and USA, TX and Texas, El Paso, 79901",Mostly Cloudy,42,39,53,36,0,70,30.04 Falling ,33,10,N,5
Sun Jan 31 08:02:15 2010," US and USA, TX and Texas, El Paso, 79901",Mostly Cloudy,42,38,53,36,10,69,30.04 Steady ,32,10,NNE,6
Sun Jan 31 08:46:55 2010," US and USA, TX and Texas, El Paso, 79901",Cloudy,41,38,53,36,10,69,30.04 Steady ,32,10,NE,5
Sun Jan 31 09:30:10 2010," US and USA, TX and Texas, El Paso, 79901",Cloudy,41,36,53,35,10,73,30.03 Falling ,33,10,NNE,7
Sun Jan 31 10:13:21 2010," US and USA, TX and Texas, El Paso, 79901",Cloudy,39,34,53,35,10,79,30.02 Falling ,33,10,N,7
Sun Jan 31 10:57:08 2010," US and USA, TX and Texas, El Paso, 79901",Cloudy,38,33,58,39,10,78,30.02 Steady ,32,10,N,8
Sun Jan 31 11:40:40 2010," US and USA, TX and Texas, El Paso, 79901",Mostly Cloudy,39,34,58,39,10,78,30.02 Steady ,32,10,NNE,7
Sun Jan 31 12:24:15 2010," US and USA, TX and Texas, El Paso, 79901",Cloudy,39,36,58,39,10,79,30.00 Falling Rapidly ,33,10,N,5
Sun Jan 31 13:07:38 2010," US and USA, TX and Texas, El Paso, 79901",Cloudy,39,34,58,39,10,75,30.00 Steady ,31,10,NNW,6
Sun Jan 31 13:51:15 2010," US and USA, TX and Texas, El Paso, 79901",Cloudy,39,33,58,39,10,77,30.00 Steady ,32,10,N,7
Sun Jan 31 14:34:02 2010," US and USA, TX and Texas, El Paso, 79901",Cloudy,39,34,58,39,10,80,30.00 Steady ,33,10,NNE,6
Sun Jan 31 15:18:08 2010," US and USA, TX and Texas, El Paso, 79901",Cloudy,39,35,58,39,10,79,30.01 Rising ,33,10,NNE,6
Sun Jan 31 16:01:40 2010," US and USA, TX and Texas, El Paso, 79901",Cloudy,39,34,58,39,10,78,30.01 Steady ,33,10,NNE,7
Sun Jan 31 16:51:28 2010," US and USA, TX and Texas, El Paso, 79901",Cloudy,39,35,58,39,10,82,30.01 Steady ,34,10,NNE,6
Sun Jan 31 17:35:05 2010," US and USA, TX and Texas, El Paso, 79901",Cloudy,43,39,58,39,10,72,30.02 Steady ,34,10,N,6
Sun Jan 31 18:20:05 2010," US and USA, TX and Texas, El Paso, 79901",Cloudy,44,44,58,39,10,71,30.03 Rising ,35,10,NNW,3
Sun Jan 31 19:03:53 2010," US and USA, TX and Texas, El Paso, 79901",Cloudy,46,46,58,39,10,67,30.03 Steady ,35,10,NW,3
Sun Jan 31 19:49:23 2010," US and USA, TX and Texas, El Paso, 79901",Mostly Cloudy,50,50,58,39,10,55,30.01 Steady ,35,10,CALM,0
Sun Jan 31 20:32:12 2010," US and USA, TX and Texas, El Paso, 79901",Mostly Cloudy,54,54,58,39,10,47,29.98 Steady ,34,10,CALM,0
Sun Jan 31 21:16:50 2010," US and USA, TX and Texas, El Paso, 79901",Mostly Cloudy,54,54,58,39,10,45,29.94 Falling Rapidly ,33,10,SW,3
Sun Jan 31 21:59:38 2010," US and USA, TX and Texas, El Paso, 79901",Mostly Cloudy,55,55,57,39,10,43,29.94 Steady ,33,10,W,3
Sun Jan 31 22:44:27 2010," US and USA, TX and Texas, El Paso, 79901",Mostly Cloudy,55,55,57,39,0,41,29.91 Steady ,32,10,W,3
Sun Jan 31 23:27:48 2010," US and USA, TX and Texas, El Paso, 79901",Mostly Cloudy,57,57,57,39,0,40,29.90 Falling ,33,10,CALM,0
Mon Feb  1 00:11:45 2010," US and USA, TX and Texas, El Paso, 79901",Mostly Cloudy,56,56,57,39,0,42,29.90 Steady ,34,10,NNW,2
Mon Feb  1 00:54:40 2010," US and USA, TX and Texas, El Paso, 79901",Cloudy,55,55,57,39,0,47,29.90 Steady ,35,8,SSE,5
Mon Feb  1 01:40:58 2010," US and USA, TX and Texas, El Paso, 79901",Mostly Cloudy,54,54,57,39,10,48,29.90 Steady ,35,8,SW,4
Mon Feb  1 02:24:58 2010," US and USA, TX and Texas, El Paso, 79901",Mostly Cloudy,55,55,57,39,10,49,29.91 Rising ,36,10,NNE,3
Mon Feb  1 03:08:38 2010," US and USA, TX and Texas, El Paso, 79901",Mostly Cloudy,53,53,57,39,10,53,29.91 Steady ,36,8,NNE,3
Mon Feb  1 03:53:19 2010," US and USA, TX and Texas, El Paso, 79901",Mostly Cloudy,51,51,57,39,10,59,29.92 Steady ,37,9,CALM,0
Mon Feb  1 04:38:07 2010," US and USA, TX and Texas, El Paso, 79901",Partly Cloudy,48,48,57,39,10,67,29.94 Steady ,37,9,CALM,0
Mon Feb  1 05:21:16 2010," US and USA, TX and Texas, El Paso, 79901",Partly Cloudy,50,50,57,39,10,57,29.95 Rising ,35,10,CALM,0
Mon Feb  1 06:06:10 2010," US and USA, TX and Texas, El Paso, 79901",Partly Cloudy,49,49,57,39,10,58,29.95 Steady ,35,9,CALM,0
Mon Feb  1 06:49:19 2010," US and USA, TX and Texas, El Paso, 79901",Partly Cloudy,48,46,57,39,10,63,29.96 Steady ,36,9,WSW,5
Mon Feb  1 07:33:09 2010," US and USA, TX and Texas, El Paso, 79901",Mostly Clear,47,43,57,39,0,66,29.96 Steady ,36,9,SSW,7
Mon Feb  1 08:16:34 2010," US and USA, TX and Texas, El Paso, 79901",Mostly Clear,46,43,57,39,0,67,29.96 Steady ,36,9,SSW,7
Mon Feb  1 09:00:02 2010," US and USA, TX and Texas, El Paso, 79901",Mostly Clear,45,41,57,39,0,70,29.95 Steady ,36,9,WSW,7
Mon Feb  1 09:42:58 2010," US and USA, TX and Texas, El Paso, 79901",Mostly Clear,46,43,57,39,10,70,29.95 Steady ,37,10,SSW,6
Mon Feb  1 10:26:32 2010," US and USA, TX and Texas, El Paso, 79901",Mostly Cloudy,45,42,62,37,10,74,29.96 Rising ,37,10,S,6
Mon Feb  1 11:09:29 2010," US and USA, TX and Texas, El Paso, 79901",Mostly Cloudy,43,39,62,37,10,79,29.96 Steady ,37,9,SSE,6
Mon Feb  1 11:52:56 2010," US and USA, TX and Texas, El Paso, 79901",Mostly Cloudy,45,45,62,37,10,74,29.96 Steady ,38,10,CALM,0
Mon Feb  1 12:36:19 2010," US and USA, TX and Texas, El Paso, 79901",Mostly Cloudy,44,44,62,37,10,80,29.96 Steady ,38,10,NW,1
Mon Feb  1 13:19:49 2010," US and USA, TX and Texas, El Paso, 79901",Mostly Cloudy,43,43,62,37,10,80,29.96 Steady ,37,10,CALM,0
Mon Feb  1 14:03:44 2010," US and USA, TX and Texas, El Paso, 79901",Mostly Cloudy,41,41,62,37,10,81,29.96 Steady ,36,9,NW,2
Mon Feb  1 14:48:47 2010," US and USA, TX and Texas, El Paso, 79901",Mostly Cloudy,41,41,62,37,10,83,29.97 Steady ,36,10,CALM,0
Mon Feb  1 15:32:32 2010," US and USA, TX and Texas, El Paso, 79901",Mostly Cloudy,41,37,62,37,10,86,29.98 Steady ,37,10,SE,5
Mon Feb  1 16:17:15 2010," US and USA, TX and Texas, El Paso, 79901",Mostly Cloudy,41,38,62,37,10,86,29.98 Steady ,37,10,SE,4
Mon Feb  1 17:02:02 2010," US and USA, TX and Texas, El Paso, 79901",Mostly Cloudy,47,47,62,37,10,76,30.00 Steady ,39,10,ESE,3
Mon Feb  1 17:45:50 2010," US and USA, TX and Texas, El Paso, 79901",Mostly Cloudy,50,50,62,37,10,67,30.01 Steady ,40,10,CALM,0
Mon Feb  1 18:29:19 2010," US and USA, TX and Texas, El Paso, 79901",Mostly Cloudy,51,51,61,37,10,66,30.02 Rising ,40,10,ESE,5
Mon Feb  1 19:13:06 2010," US and USA, TX and Texas, El Paso, 79901",Partly Cloudy,56,56,62,38,10,51,30.01 Falling ,38,10,CALM,0
Mon Feb  1 19:57:56 2010," US and USA, TX and Texas, El Paso, 79901",Partly Cloudy,58,58,62,38,10,46,30.01 Steady ,37,10,CALM,0
Mon Feb  1 20:44:21 2010," US and USA, TX and Texas, El Paso, 79901",Partly Cloudy,61,61,62,38,10,29,29.98 Steady ,28,10,WNW,12to21
Mon Feb  1 21:29:21 2010," US and USA, TX and Texas, El Paso, 79901",Partly Cloudy,60,60,60,38,10,35,29.95 Falling Rapidly ,32,10,W,13to18
Mon Feb  1 22:12:41 2010," US and USA, TX and Texas, El Paso, 79901",Partly Cloudy,60,60,60,38,10,34,29.95 Steady ,32,10,WNW,14
Mon Feb  1 22:56:01 2010," US and USA, TX and Texas, El Paso, 79901",Partly Cloudy,60,60,60,38,0,38,29.93 Steady ,34,10,CALM,0
Mon Feb  1 23:42:07 2010," US and USA, TX and Texas, El Paso, 79901",Mostly Cloudy,61,61,60,38,0,32,29.91 Steady ,31,10,W,9
Tue Feb  2 00:29:02 2010," US and USA, TX and Texas, El Paso, 79901",Mostly Cloudy,61,61,60,38,0,31,29.91 Steady ,30,10,W,8
Tue Feb  2 01:14:38 2010," US and USA, TX and Texas, El Paso, 79901",Mostly Cloudy,60,60,60,38,0,32,29.92 Rising ,30,10,WNW,10
Tue Feb  2 01:57:45 2010," US and USA, TX and Texas, El Paso, 79901",Mostly Cloudy,56,56,60,38,0,41,29.92 Steady ,33,5,WNW,9
Tue Feb  2 02:41:48 2010," US and USA, TX and Texas, El Paso, 79901",Cloudy,56,56,60,38,0,41,29.94 Steady ,33,8,WNW,10
Tue Feb  2 03:25:20 2010," US and USA, TX and Texas, El Paso, 79901",Cloudy,57,57,60,38,0,39,29.95 Rising ,32,10,NW,5
Tue Feb  2 04:09:07 2010," US and USA, TX and Texas, El Paso, 79901",Cloudy,54,54,60,38,0,45,29.95 Steady ,33,7,NNW,4
Tue Feb  2 04:52:40 2010," US and USA, TX and Texas, El Paso, 79901",Cloudy,53,53,60,38,0,49,29.96 Steady ,34,9,N,6
Tue Feb  2 05:36:01 2010," US and USA, TX and Texas, El Paso, 79901",Mostly Cloudy,52,52,60,38,0,49,29.96 Steady ,33,9,NNW,4
Tue Feb  2 06:19:21 2010," US and USA, TX and Texas, El Paso, 79901",Mostly Cloudy,52,52,60,38,0,50,29.96 Steady ,33,8,NNW,3
Tue Feb  2 07:06:28 2010," US and USA, TX and Texas, El Paso, 79901",Cloudy,45,43,60,38,0,71,29.96 Steady ,36,8,NE,4
Tue Feb  2 07:49:27 2010," US and USA, TX and Texas, El Paso, 79901",Cloudy,46,46,60,38,0,68,29.98 Steady ,35,9,CALM,0
Tue Feb  2 08:32:39 2010," US and USA, TX and Texas, El Paso, 79901",Mostly Cloudy,44,41,60,38,20,69,29.98 Steady ,34,9,E,4
Tue Feb  2 09:16:10 2010," US and USA, TX and Texas, El Paso, 79901",Mostly Cloudy,45,45,60,38,20,63,29.97 Falling ,33,10,NE,3
Tue Feb  2 09:59:41 2010," US and USA, TX and Texas, El Paso, 79901",Mostly Cloudy,43,43,60,38,10,68,29.97 Steady ,33,9,NE,4
Tue Feb  2 10:43:15 2010," US and USA, TX and Texas, El Paso, 79901",Mostly Cloudy,44,44,63,42,10,62,29.98 Steady ,32,10,CALM,0
Tue Feb  2 11:27:23 2010," US and USA, TX and Texas, El Paso, 79901",Mostly Cloudy,42,37,63,42,10,70,29.99 Rising ,33,10,NNE,8
Tue Feb  2 12:11:24 2010," US and USA, TX and Texas, El Paso, 79901",Mostly Cloudy,43,38,63,42,10,64,29.99 Steady ,31,10,NNE,8
Tue Feb  2 12:55:16 2010," US and USA, TX and Texas, El Paso, 79901",Mostly Cloudy,43,37,63,42,10,66,29.99 Steady ,32,10,NNE,9
Tue Feb  2 13:38:37 2010," US and USA, TX and Texas, El Paso, 79901",Mostly Cloudy,41,36,63,42,10,72,30.00 Steady ,32,10,NNE,8
Tue Feb  2 14:22:16 2010," US and USA, TX and Texas, El Paso, 79901",Mostly Cloudy,41,35,63,42,10,67,30.01 Rising ,31,10,N,10
Tue Feb  2 15:06:38 2010," US and USA, TX and Texas, El Paso, 79901",Mostly Cloudy,40,34,63,42,10,71,30.01 Steady ,31,9,N,10
Tue Feb  2 15:53:02 2010," US and USA, TX and Texas, El Paso, 79901",Mostly Cloudy,41,35,63,42,10,64,30.02 Steady ,30,10,N,10
Tue Feb  2 16:45:32 2010," US and USA, TX and Texas, El Paso, 79901",Partly Cloudy,46,41,63,42,10,52,30.02 Steady ,29,10,N,10
Tue Feb  2 17:34:00 2010," US and USA, TX and Texas, El Paso, 79901",Partly Cloudy,51,51,64,42,10,43,30.04 Steady ,29,10,N,9
Tue Feb  2 18:18:36 2010," US and USA, TX and Texas, El Paso, 79901",Partly Cloudy,52,52,63,42,10,45,30.04 Steady ,31,10,N,6
Tue Feb  2 19:02:46 2010," US and USA, TX and Texas, El Paso, 79901",Partly Cloudy,56,56,63,42,10,40,30.04 Steady ,32,10,NNW,5
Tue Feb  2 19:52:11 2010," US and USA, TX and Texas, El Paso, 79901",Mostly Cloudy,58,58,64,43,10,35,30.03 Steady ,30,10,NNE,7
Tue Feb  2 20:43:21 2010," US and USA, TX and Texas, El Paso, 79901",Mostly Cloudy,60,60,64,43,10,32,29.98 Steady ,30,10,NNE,9
Tue Feb  2 21:30:11 2010," US and USA, TX and Texas, El Paso, 79901",Mostly Cloudy,61,61,62,43,10,31,29.94 Falling Rapidly ,30,10,ESE,12to20
Tue Feb  2 22:18:34 2010," US and USA, TX and Texas, El Paso, 79901",Mostly Cloudy,62,62,62,43,10,30,29.92 Falling Rapidly ,30,10,E,10
Tue Feb  2 23:02:52 2010," US and USA, TX and Texas, El Paso, 79901",Mostly Cloudy,63,63,62,43,70,30,29.92 Steady ,31,10,E,11
Tue Feb  2 23:48:10 2010," US and USA, TX and Texas, El Paso, 79901",Mostly Cloudy,63,63,62,43,70,31,29.90 Steady ,31,10,E,12
Wed Feb  3 00:32:36 2010," US and USA, TX and Texas, El Paso, 79901",Mostly Cloudy,61,61,62,43,70,35,29.88 Steady ,33,8,ESE,10
Wed Feb  3 01:19:46 2010," US and USA, TX and Texas, El Paso, 79901",Mostly Cloudy,61,61,62,43,70,35,29.88 Steady ,33,10,E,13
Wed Feb  3 02:04:59 2010," US and USA, TX and Texas, El Paso, 79901",Mostly Cloudy,58,58,62,43,70,40,29.88 Steady ,34,7,E,16
Wed Feb  3 02:53:16 2010," US and USA, TX and Texas, El Paso, 79901",Cloudy,55,55,62,43,70,49,29.88 Steady ,36,7,ENE,13to17
Wed Feb  3 03:40:05 2010," US and USA, TX and Texas, El Paso, 79901",Cloudy,52,52,62,43,70,54,29.88 Steady ,36,7,ENE,10
Wed Feb  3 04:28:14 2010," US and USA, TX and Texas, El Paso, 79901",Cloudy,53,53,62,43,70,50,29.88 Steady ,35,10,E,12
Wed Feb  3 05:15:05 2010," US and USA, TX and Texas, El Paso, 79901",Cloudy,50,50,62,43,70,61,29.87 Falling ,37,10,E,12
Wed Feb  3 06:02:52 2010," US and USA, TX and Texas, El Paso, 79901",Cloudy,49,44,62,43,70,66,29.87 Steady ,38,9,E,12
Thu Feb  4 06:05:22 2010," US and USA, TX and Texas, El Paso, 79901",Showers,45,45,48,39,60,87,29.80 Steady ,41,10,CALM,0
Thu Feb  4 06:48:26 2010," US and USA, TX and Texas, El Paso, 79901",Cloudy,45,45,48,39,60,87,29.80 Steady ,41,10,CALM,0
Thu Feb  4 07:32:04 2010," US and USA, TX and Texas, El Paso, 79901",Cloudy,44,41,48,39,60,89,29.80 Steady ,41,10,SW,5
Thu Feb  4 08:14:36 2010," US and USA, TX and Texas, El Paso, 79901",Cloudy,43,43,48,39,30,93,29.80 Steady ,41,10,WSW,3
Thu Feb  4 08:58:16 2010," US and USA, TX and Texas, El Paso, 79901",Showers,43,37,48,39,30,87,29.81 Rising ,39,10,SSE,9
Thu Feb  4 09:42:12 2010," US and USA, TX and Texas, El Paso, 79901",Cloudy,43,40,48,40,30,91,29.81 Steady ,40,9,SSW,5
Thu Feb  4 10:25:51 2010," US and USA, TX and Texas, El Paso, 79901",Showers,43,43,59,39,30,93,29.80 Falling ,41,10,SSW,3
Thu Feb  4 11:11:47 2010," US and USA, TX and Texas, El Paso, 79901",Cloudy,43,43,59,39,30,94,29.80 Steady ,41,9,WSW,4
Thu Feb  4 11:55:18 2010," US and USA, TX and Texas, El Paso, 79901",Cloudy,44,39,59,39,30,85,29.81 Steady ,40,10,WSW,8
Thu Feb  4 12:38:23 2010," US and USA, TX and Texas, El Paso, 79901",Cloudy,44,44,59,39,30,87,29.81 Steady ,40,10,CALM,0
Thu Feb  4 13:22:28 2010," US and USA, TX and Texas, El Paso, 79901",Cloudy,44,42,59,39,30,85,29.81 Steady ,40,10,NW,4
Thu Feb  4 14:07:17 2010," US and USA, TX and Texas, El Paso, 79901",Cloudy,44,42,59,39,30,80,29.82 Steady ,39,10,SSW,5
Wed Feb  3 06:49:37 2010," US and USA, TX and Texas, El Paso, 79901",Cloudy,49,43,62,43,70,59,29.89 Steady ,35,9,E,16
Wed Feb  3 07:34:20 2010," US and USA, TX and Texas, Fort Worth, 76101",Clear,39,35,50,36,70,82,30.24 Steady ,34,9,NE,5
Wed Feb  3 08:17:27 2010," US and USA, TX and Texas, Fort Worth, 76101",Clear,38,34,50,36,70,83,30.24 Steady ,33,9,NE,6
Wed Feb  3 09:03:58 2010," US and USA, TX and Texas, Fort Worth, 76101",Clear,38,33,50,36,70,81,30.21 Steady ,33,9,NE,6
Wed Feb  3 09:47:48 2010," US and USA, TX and Texas, Fort Worth, 76101",Clear,38,38,47,40,70,85,30.19 Steady ,34,9,E,1
Wed Feb  3 10:31:13 2010," US and USA, TX and Texas, Fort Worth, 76101",Partly Cloudy,37,33,47,40,70,88,30.17 Falling Rapidly ,34,9,NNE,4
Wed Feb  3 11:18:04 2010," US and USA, TX and Texas, Fort Worth, 76101",Partly Cloudy,36,36,47,40,70,90,30.18 Steady ,33,8,CALM,0
Wed Feb  3 12:02:48 2010," US and USA, TX and Texas, Fort Worth, 76101",Partly Cloudy,36,36,47,40,70,88,30.18 Steady ,33,8,NE,2
Wed Feb  3 12:46:00 2010," US and USA, TX and Texas, Fort Worth, 76101",Partly Cloudy,37,33,47,40,70,88,30.16 Steady ,34,8,NE,5
Wed Feb  3 13:29:43 2010," US and USA, TX and Texas, Fort Worth, 76101",Mostly Cloudy,38,32,47,40,70,87,30.16 Steady ,34,8,ENE,7
Wed Feb  3 14:15:51 2010," US and USA, TX and Texas, Fort Worth, 76101",Mostly Cloudy,38,38,47,40,70,85,30.18 Rising Rapidly ,34,7,NE,2
Wed Feb  3 15:01:51 2010," US and USA, TX and Texas, Fort Worth, 76101",Mostly Cloudy,38,38,47,40,70,85,30.18 Steady ,34,7,E,2
Wed Feb  3 15:46:39 2010," US and USA, TX and Texas, Fort Worth, 76101",Mostly Cloudy,39,39,47,40,70,85,30.19 Steady ,34,7,E,4
Wed Feb  3 16:32:32 2010," US and USA, TX and Texas, Fort Worth, 76101",Mostly Cloudy,41,38,47,40,70,79,30.20 Rising ,35,7,E,5
Wed Feb  3 17:19:43 2010," US and USA, TX and Texas, Fort Worth, 76101",Cloudy,44,40,47,40,70,74,30.19 Falling ,37,7,SE,8
Wed Feb  3 18:08:00 2010," US and USA, TX and Texas, Fort Worth, 76101",Cloudy,46,42,47,40,70,72,30.19 Steady ,37,8,SSE,9
Wed Feb  3 18:51:08 2010," US and USA, TX and Texas, Fort Worth, 76101",Cloudy,46,43,48,40,70,71,30.19 Steady ,37,7,SE,7
Wed Feb  3 19:35:24 2010," US and USA, TX and Texas, Fort Worth, 76101",Cloudy,48,44,48,40,70,66,30.15 Rising Rapidly ,37,6,SE,9
Wed Feb  3 20:19:28 2010," US and USA, TX and Texas, Fort Worth, 76101",Showers,47,43,48,40,70,70,30.09 Falling Rapidly ,37,7,E,9
Wed Feb  3 21:03:47 2010," US and USA, TX and Texas, Fort Worth, 76101",Showers,45,41,48,40,70,80,30.09 Steady ,39,7,E,8
Wed Feb  3 21:51:52 2010," US and USA, TX and Texas, Fort Worth, 76101",Showers,45,41,48,40,90,80,30.08 Steady ,39,6,NE,9
Wed Feb  3 22:37:25 2010," US and USA, TX and Texas, Fort Worth, 76101",Showers,45,40,48,40,90,82,30.04 Steady ,40,6,NE,9
Wed Feb  3 23:28:21 2010," US and USA, TX and Texas, Fort Worth, 76101",Showers,44,42,48,40,90,86,30.09 Rising Rapidly ,40,7,E,5
Thu Feb  4 00:13:16 2010," US and USA, TX and Texas, Fort Worth, 76101",Showers,45,43,48,40,90,84,30.10 Rising ,40,7,E,5
Thu Feb  4 00:57:19 2010," US and USA, TX and Texas, Fort Worth, 76101",Showers,45,45,48,40,90,82,30.10 Steady ,40,7,E,4
Thu Feb  4 01:40:37 2010," US and USA, TX and Texas, Fort Worth, 76101",Mostly Cloudy,44,39,48,40,90,83,30.09 Steady ,39,4,ENE,9
Thu Feb  4 02:28:21 2010," US and USA, TX and Texas, Fort Worth, 76101",Cloudy,44,39,48,40,100,86,30.09 Steady ,40,8,ENE,7
Thu Feb  4 03:11:32 2010," US and USA, TX and Texas, Fort Worth, 76101",Cloudy,44,38,48,40,100,83,30.09 Steady ,39,8,E,10
Thu Feb  4 03:55:59 2010," US and USA, TX and Texas, Fort Worth, 76101",Cloudy,44,39,48,40,100,77,30.08 Falling ,37,9,E,9
Thu Feb  4 04:39:16 2010," US and USA, TX and Texas, Fort Worth, 76101",Cloudy,44,38,48,40,100,75,30.08 Steady ,36,9,E,11
Thu Feb  4 05:22:38 2010," US and USA, TX and Texas, Fort Worth, 76101",Cloudy,43,38,48,40,100,80,30.08 Falling ,38,6,E,10
Thu Feb  4 15:00:14 2010," US and USA, TX and Texas, Fort Worth, 76101",Cloudy,42,39,42,37,60,87,29.98 Falling ,39,9,ENE,5
Thu Jan 28 15:39:52 2010," US and USA, TX and Texas, Fort Worth, 76101",Cloudy,57,57,55,35,100,81,30.15 Steady ,52,9,SE,8
Thu Jan 28 16:00:41 2010," US and USA, TX and Texas, Fort Worth, 76101",Cloudy,57,57,55,35,100,81,30.15 Steady ,52,9,SE,8
Thu Jan 28 16:49:59 2010," US and USA, TX and Texas, Fort Worth, 76101",Cloudy,57,57,57,35,100,81,30.14 Steady ,52,10,SE,8
Thu Jan 28 17:14:13 2010," US and USA, TX and Texas, Fort Worth, 76101",Cloudy,58,58,57,35,100,78,30.14 Rising ,52,10,SE,10
Thu Jan 28 17:30:14 2010," US and USA, TX and Texas, Fort Worth, 76101",Cloudy,58,58,57,35,100,78,30.14 Rising ,52,10,SE,10
Fri Jan 29 08:42:26 2010," US and USA, TX and Texas, Fort Worth, 76101",Showers,47,43,57,30,30,90,30.03 Steady ,44,7,NNE,8
Fri Jan 29 09:26:22 2010," US and USA, TX and Texas, Fort Worth, 76101",Showers,45,40,57,30,100,89,30.04 Rising ,42,7,NNW,8
Fri Jan 29 11:58:24 2010," US and USA, TX and Texas, Fort Worth, 76101",Showers,41,35,40,27,100,90,30.02 Steady ,38,6,NW,11to18
Fri Jan 29 12:43:06 2010," US and USA, TX and Texas, Fort Worth, 76101",Showers,41,34,40,27,100,88,30.04 Steady ,37,3,NW,11
Fri Jan 29 13:30:49 2010," US and USA, TX and Texas, Fort Worth, 76101",Showers,40,31,40,27,100,87,30.04 Steady ,36,4,NW,16to24
Fri Jan 29 14:18:39 2010," US and USA, TX and Texas, Fort Worth, 76101",Showers,38,30,40,27,100,86,30.06 Rising ,34,8,NNW,12
Fri Jan 29 15:03:27 2010," US and USA, TX and Texas, Fort Worth, 76101",Showers,38,30,40,27,100,87,30.07 Rising ,34,7,NNW,13to16
Fri Jan 29 15:48:59 2010," US and USA, TX and Texas, Fort Worth, 76101",Showers,37,30,40,27,100,87,30.07 Steady ,34,5,N,12
Fri Jan 29 16:36:48 2010," US and USA, TX and Texas, Fort Worth, 76101",Showers,37,29,36,27,100,86,30.12 Rising Rapidly ,33,8,N,13
Fri Jan 29 17:21:13 2010," US and USA, TX and Texas, Fort Worth, 76101",Showers,36,26,36,27,100,85,30.13 Rising Rapidly ,31,7,NNW,17to24
Fri Jan 29 18:09:41 2010," US and USA, TX and Texas, Fort Worth, 76101",Showers,35,26,36,27,100,84,30.14 Rising ,31,7,NW,14to20
Fri Jan 29 18:54:40 2010," US and USA, TX and Texas, Fort Worth, 76101",Cloudy,35,26,35,27,60,83,30.13 Steady ,30,5,NW,13to18
Fri Jan 29 19:46:39 2010," US and USA, TX and Texas, Fort Worth, 76101",Cloudy,36,27,35,25,100,78,30.10 Steady ,30,10,NW,15to20
Fri Jan 29 20:44:29 2010," US and USA, TX and Texas, Fort Worth, 76101",Cloudy,36,26,35,25,100,79,30.06 Steady ,30,10,NW,16to21
Fri Jan 29 21:29:05 2010," US and USA, TX and Texas, Fort Worth, 76101",Cloudy,36,27,35,25,100,74,30.05 Falling ,29,10,WNW,17to23
Fri Jan 29 22:15:42 2010," US and USA, TX and Texas, Fort Worth, 76101",Cloudy,35,26,35,25,70,75,30.04 Falling ,28,10,WNW,14to23
Fri Jan 29 23:00:37 2010," US and USA, TX and Texas, Fort Worth, 76101",Cloudy,35,25,35,25,60,74,30.05 Steady ,27,10,WNW,15to23
Fri Jan 29 23:44:53 2010," US and USA, TX and Texas, Fort Worth, 76101",Cloudy,34,24,35,25,60,74,30.06 Steady ,26,10,NW,14to21
Sat Jan 30 00:28:58 2010," US and USA, TX and Texas, Fort Worth, 76101",Cloudy,34,24,35,25,60,74,30.08 Rising Rapidly ,27,10,NNW,14to24
Sat Jan 30 01:13:07 2010," US and USA, TX and Texas, Fort Worth, 76101",Cloudy,33,23,35,25,60,73,30.10 Rising Rapidly ,25,10,NW,16to24
Sat Jan 30 01:57:05 2010," US and USA, TX and Texas, Fort Worth, 76101",Cloudy,33,22,35,25,60,72,30.10 Steady ,24,10,NW,17to24
Sat Jan 30 02:41:22 2010," US and USA, TX and Texas, Fort Worth, 76101",Cloudy,31,21,35,25,20,67,30.12 Steady ,23,10,NW,13to19
Sat Jan 30 03:24:53 2010," US and USA, TX and Texas, Fort Worth, 76101",Cloudy,31,22,35,25,20,68,30.12 Steady ,24,10,NW,12to25
Sat Jan 30 04:08:49 2010," US and USA, TX and Texas, Fort Worth, 76101",Cloudy,31,21,35,25,20,68,30.12 Steady ,23,10,NW,12to22
Sat Jan 30 04:52:35 2010," US and USA, TX and Texas, Fort Worth, 76101",Cloudy,31,21,35,25,20,68,30.14 Steady ,24,10,NW,15to20
Sat Jan 30 05:36:21 2010," US and USA, TX and Texas, Fort Worth, 76101",Cloudy,31,20,35,25,20,68,30.15 Steady ,23,9,NNW,13to18
Sat Jan 30 06:20:25 2010," US and USA, TX and Texas, Fort Worth, 76101",Cloudy,31,20,35,25,20,68,30.15 Steady ,23,9,NNW,13to18
Sat Jan 30 07:06:24 2010," US and USA, TX and Texas, Fort Worth, 76101",Cloudy,30,21,35,25,10,64,30.16 Steady ,22,10,NW,12to18
Sat Jan 30 07:49:05 2010," US and USA, TX and Texas, Fort Worth, 76101",Cloudy,31,20,35,25,10,66,30.15 Steady ,22,10,NW,14to21
Sat Jan 30 08:32:19 2010," US and USA, TX and Texas, Fort Worth, 76101",Cloudy,30,19,35,25,10,65,30.16 Rising ,22,10,NW,17to24
Sat Jan 30 11:14:05 2010," US and USA, TX and Texas, Fort Worth, 76101",Cloudy,28,17,37,26,10,65,30.17 Steady ,19,10,NNW,14to20
Sat Jan 30 12:01:55 2010," US and USA, TX and Texas, Fort Worth, 76101",Cloudy,28,17,37,26,10,64,30.17 Steady ,19,10,NNW,14to19
Sat Jan 30 12:45:32 2010," US and USA, TX and Texas, Fort Worth, 76101",Cloudy,28,16,37,26,10,67,30.18 Steady ,20,10,NNW,15to19
Sat Jan 30 13:28:45 2010," US and USA, TX and Texas, Fort Worth, 76101",Cloudy,27,17,37,26,10,67,30.19 Rising ,19,10,NNW,12
Sat Jan 30 14:12:57 2010," US and USA, TX and Texas, Fort Worth, 76101",Cloudy,27,16,37,26,10,66,30.22 Rising Rapidly ,19,10,NNW,13to19
Sat Jan 30 14:57:13 2010," US and USA, TX and Texas, Fort Worth, 76101",Cloudy,27,16,37,26,10,66,30.22 Steady ,19,10,NNW,14
Sat Jan 30 15:42:51 2010," US and USA, TX and Texas, Fort Worth, 76101",Cloudy,28,17,37,26,10,64,30.25 Rising ,19,10,NNW,12
Sat Jan 30 16:27:49 2010," US and USA, TX and Texas, Fort Worth, 76101",Cloudy,28,18,37,26,10,64,30.25 Steady ,19,10,NNW,12
Sat Jan 30 17:12:16 2010," US and USA, TX and Texas, Fort Worth, 76101",Cloudy,28,18,37,26,10,64,30.27 Steady ,20,10,NNW,12to18
Sat Jan 30 17:55:27 2010," US and USA, TX and Texas, Fort Worth, 76101",Cloudy,29,18,37,26,10,63,30.29 Steady ,20,10,NNW,14
Sat Jan 30 18:39:27 2010," US and USA, TX and Texas, Fort Worth, 76101",Cloudy,30,19,37,26,10,63,30.30 Steady ,21,10,NNW,14to20
Sat Jan 30 19:22:44 2010," US and USA, TX and Texas, Fort Worth, 76101",Cloudy,31,22,37,26,10,62,30.29 Falling ,22,10,NNW,11
Sat Jan 30 20:07:00 2010," US and USA, TX and Texas, Fort Worth, 76101",Cloudy,32,24,37,26,10,60,30.29 Steady ,22,10,NNW,9
Sat Jan 30 20:50:05 2010," US and USA, TX and Texas, Fort Worth, 76101",Cloudy,31,23,37,26,10,62,30.28 Steady ,22,10,N,9
Sat Jan 30 21:33:51 2010," US and USA, TX and Texas, Fort Worth, 76101",Cloudy,32,24,37,27,10,63,30.26 Steady ,22,10,NNW,8
Sat Jan 30 22:17:22 2010," US and USA, TX and Texas, Fort Worth, 76101",Cloudy,32,24,37,27,0,64,30.26 Steady ,23,10,NNW,8
Sat Jan 30 23:02:49 2010," US and USA, TX and Texas, Fort Worth, 76101",Cloudy,32,24,37,27,0,64,30.26 Steady ,23,10,NNW,9
Sat Jan 30 23:47:43 2010," US and USA, TX and Texas, Fort Worth, 76101",Cloudy,32,24,37,27,0,65,30.26 Steady ,23,9,NNW,9
Sun Jan 31 00:31:42 2010," US and USA, TX and Texas, Fort Worth, 76101",Cloudy,31,24,37,27,0,66,30.26 Steady ,23,9,NNW,8
Sun Jan 31 01:22:08 2010," US and USA, TX and Texas, Fort Worth, 76101",Cloudy,31,23,37,27,0,66,30.27 Steady ,23,9,NW,9
Sun Jan 31 02:06:08 2010," US and USA, TX and Texas, Fort Worth, 76101",Cloudy,31,23,37,27,0,68,30.27 Steady ,23,9,NW,9
Sun Jan 31 02:49:32 2010," US and USA, TX and Texas, Fort Worth, 76101",Cloudy,31,23,37,27,0,71,30.28 Steady ,24,9,NNW,9
Sun Jan 31 03:33:27 2010," US and USA, TX and Texas, Fort Worth, 76101",Cloudy,31,26,37,27,0,70,30.29 Steady ,24,9,N,5
Sun Jan 31 04:17:15 2010," US and USA, TX and Texas, Fort Worth, 76101",Cloudy,31,25,37,27,0,69,30.29 Steady ,24,10,NNW,6
Sun Jan 31 05:01:31 2010," US and USA, TX and Texas, Fort Worth, 76101",Cloudy,30,24,37,27,0,73,30.29 Steady ,24,10,N,6
Sun Jan 31 05:47:54 2010," US and USA, TX and Texas, Fort Worth, 76101",Cloudy,31,23,37,27,0,71,30.29 Steady ,24,10,N,8
Sun Jan 31 06:32:46 2010," US and USA, TX and Texas, Fort Worth, 76101",Cloudy,31,26,37,27,0,71,30.30 Rising ,24,10,N,5
Sun Jan 31 07:15:38 2010," US and USA, TX and Texas, Fort Worth, 76101",Cloudy,31,24,37,27,10,74,30.30 Steady ,25,10,NE,7
Sun Jan 31 08:02:21 2010," US and USA, TX and Texas, Fort Worth, 76101",Cloudy,31,26,37,27,10,73,30.30 Steady ,25,10,NE,5
Sun Jan 31 08:47:02 2010," US and USA, TX and Texas, Fort Worth, 76101",Cloudy,30,25,37,27,10,74,30.31 Rising ,24,10,ENE,4
Sun Jan 31 09:30:16 2010," US and USA, TX and Texas, Fort Worth, 76101",Cloudy,30,24,37,27,10,74,30.31 Rising ,24,10,ENE,6
Sun Jan 31 10:13:28 2010," US and USA, TX and Texas, Fort Worth, 76101",Cloudy,30,30,46,34,10,75,30.30 Falling ,25,10,ENE,3
Sun Jan 31 10:57:15 2010," US and USA, TX and Texas, Fort Worth, 76101",Cloudy,30,30,46,34,10,77,30.31 Steady ,25,10,ESE,3
Sun Jan 31 11:40:47 2010," US and USA, TX and Texas, Fort Worth, 76101",Cloudy,30,30,46,34,10,77,30.31 Steady ,25,10,ESE,1
Sun Jan 31 12:24:21 2010," US and USA, TX and Texas, Fort Worth, 76101",Cloudy,30,30,46,34,10,77,30.31 Steady ,25,10,NE,3
Sun Jan 31 13:07:44 2010," US and USA, TX and Texas, Fort Worth, 76101",Cloudy,30,30,46,34,10,77,30.31 Steady ,25,10,ENE,4
Sun Jan 31 13:51:21 2010," US and USA, TX and Texas, Fort Worth, 76101",Cloudy,31,31,46,34,10,74,30.31 Steady ,25,10,NE,2
Sun Jan 31 14:34:09 2010," US and USA, TX and Texas, Fort Worth, 76101",Cloudy,31,26,46,34,10,77,30.32 Steady ,25,10,ESE,5
Sun Jan 31 15:18:15 2010," US and USA, TX and Texas, Fort Worth, 76101",Cloudy,31,31,46,34,10,77,30.33 Rising ,26,8,E,3
Sun Jan 31 16:01:47 2010," US and USA, TX and Texas, Fort Worth, 76101",Cloudy,31,31,46,34,10,76,30.33 Steady ,26,8,E,3
Sun Jan 31 16:51:35 2010," US and USA, TX and Texas, Fort Worth, 76101",Cloudy,32,32,46,34,10,75,30.34 Rising ,26,8,ESE,3
Sun Jan 31 17:35:12 2010," US and USA, TX and Texas, Fort Worth, 76101",Cloudy,32,32,46,34,10,81,30.34 Steady ,27,9,SE,3
Sun Jan 31 18:20:12 2010," US and USA, TX and Texas, Fort Worth, 76101",Cloudy,33,29,46,34,10,80,30.33 Falling ,27,9,SE,4
Sun Jan 31 19:04:00 2010," US and USA, TX and Texas, Fort Worth, 76101",Cloudy,33,28,46,34,10,80,30.33 Steady ,27,9,SE,5
Sun Jan 31 19:49:29 2010," US and USA, TX and Texas, Fort Worth, 76101",Cloudy,34,30,43,34,10,74,30.31 Steady ,27,10,ESE,5
Sun Jan 31 20:32:19 2010," US and USA, TX and Texas, Fort Worth, 76101",Cloudy,35,30,43,34,10,75,30.27 Steady ,27,10,ESE,5
Sun Jan 31 21:16:57 2010," US and USA, TX and Texas, Fort Worth, 76101",Cloudy,35,35,43,34,10,74,30.25 Falling Rapidly ,28,10,E,4
Sun Jan 31 21:59:45 2010," US and USA, TX and Texas, Fort Worth, 76101",Cloudy,36,36,43,34,20,71,30.25 Steady ,27,10,E,3
Sun Jan 31 22:44:34 2010," US and USA, TX and Texas, Fort Worth, 76101",Cloudy,35,35,43,34,20,73,30.24 Steady ,27,9,ESE,4
Sun Jan 31 23:27:54 2010," US and USA, TX and Texas, Fort Worth, 76101",Cloudy,36,36,43,34,20,74,30.24 Steady ,28,9,SE,3
Mon Feb  1 00:11:52 2010," US and USA, TX and Texas, Fort Worth, 76101",Cloudy,35,31,43,34,20,76,30.24 Steady ,28,9,SSE,5
Mon Feb  1 00:54:47 2010," US and USA, TX and Texas, Fort Worth, 76101",Cloudy,35,31,43,34,20,76,30.24 Steady ,28,9,S,5
Mon Feb  1 01:41:04 2010," US and USA, TX and Texas, Fort Worth, 76101",Cloudy,34,34,43,34,20,78,30.23 Steady ,28,8,S,4
Mon Feb  1 02:25:04 2010," US and USA, TX and Texas, Fort Worth, 76101",Cloudy,35,35,43,33,20,75,30.22 Steady ,28,9,CALM,0
Mon Feb  1 03:08:45 2010," US and USA, TX and Texas, Fort Worth, 76101",Cloudy,35,35,43,33,20,75,30.22 Steady ,28,8,CALM,0
Mon Feb  1 03:53:25 2010," US and USA, TX and Texas, Fort Worth, 76101",Partly Cloudy,34,34,43,31,20,78,30.22 Steady ,28,7,SSW,3
Mon Feb  1 04:38:14 2010," US and USA, TX and Texas, Fort Worth, 76101",Clear,32,32,43,32,20,79,30.21 Steady ,27,6,CALM,0
Mon Feb  1 05:21:22 2010," US and USA, TX and Texas, Fort Worth, 76101",Clear,31,31,43,32,20,82,30.22 Rising ,27,6,SSW,2
Mon Feb  1 06:06:16 2010," US and USA, TX and Texas, Fort Worth, 76101",Clear,31,31,43,31,20,81,30.22 Steady ,27,6,SW,1
Mon Feb  1 06:49:26 2010," US and USA, TX and Texas, Fort Worth, 76101",Mostly Clear,32,32,43,31,20,79,30.21 Steady ,27,6,CALM,0
Mon Feb  1 07:33:16 2010," US and USA, TX and Texas, Fort Worth, 76101",Partly Cloudy,32,32,43,31,20,80,30.20 Steady ,27,5,S,1
Mon Feb  1 08:16:40 2010," US and USA, TX and Texas, Fort Worth, 76101",Partly Cloudy,32,32,43,28,20,78,30.20 Steady ,27,5,CALM,0
Mon Feb  1 09:00:08 2010," US and USA, TX and Texas, Fort Worth, 76101",Mostly Clear,32,32,43,28,20,81,30.20 Steady ,27,5,CALM,0
Mon Feb  1 09:43:05 2010," US and USA, TX and Texas, Fort Worth, 76101",Partly Cloudy,31,31,52,38,20,81,30.19 Steady ,27,5,CALM,0
Mon Feb  1 10:26:39 2010," US and USA, TX and Texas, Fort Worth, 76101",Clear,32,32,52,38,20,81,30.19 Steady ,27,5,CALM,0
Mon Feb  1 11:09:35 2010," US and USA, TX and Texas, Fort Worth, 76101",Partly Cloudy,31,31,52,38,20,81,30.19 Steady ,27,5,CALM,0
Mon Feb  1 11:53:03 2010," US and USA, TX and Texas, Fort Worth, 76101",Mostly Cloudy,32,32,52,38,20,83,30.17 Steady ,27,5,CALM,0
Mon Feb  1 12:36:25 2010," US and USA, TX and Texas, Fort Worth, 76101",Partly Cloudy,31,31,52,38,20,83,30.16 Steady ,27,5,ESE,1
Mon Feb  1 13:19:56 2010," US and USA, TX and Texas, Fort Worth, 76101",Mostly Cloudy,29,29,52,38,20,88,30.15 Falling ,26,5,CALM,0
Mon Feb  1 14:03:50 2010," US and USA, TX and Texas, Fort Worth, 76101",Cloudy,29,29,52,38,20,86,30.15 Steady ,27,5,S,1
Mon Feb  1 14:48:54 2010," US and USA, TX and Texas, Fort Worth, 76101",Cloudy,31,31,52,38,20,85,30.14 Steady ,28,5,SSW,2
Mon Feb  1 15:32:38 2010," US and USA, TX and Texas, Fort Worth, 76101",Fog,34,34,52,38,20,85,30.14 Steady ,30,1.5,S,3
Mon Feb  1 16:17:21 2010," US and USA, TX and Texas, Fort Worth, 76101",Fog,35,32,52,38,20,84,30.14 Steady ,31,1.5,S,4
Mon Feb  1 17:02:08 2010," US and USA, TX and Texas, Fort Worth, 76101",Cloudy,36,31,52,38,20,85,30.16 Steady ,32,5,S,6
Mon Feb  1 17:45:56 2010," US and USA, TX and Texas, Fort Worth, 76101",Fog,36,30,52,38,20,88,30.15 Steady ,32,1.5,S,7
Mon Feb  1 18:29:26 2010," US and USA, TX and Texas, Fort Worth, 76101",Cloudy,37,33,52,38,20,85,30.14 Falling ,33,5,SSE,6
Mon Feb  1 19:13:12 2010," US and USA, TX and Texas, Fort Worth, 76101",Cloudy,40,36,52,38,20,80,30.13 Falling ,35,5,S,7
Mon Feb  1 19:58:02 2010," US and USA, TX and Texas, Fort Worth, 76101",Cloudy,41,36,52,38,20,78,30.12 Falling ,35,7,SSW,8
Mon Feb  1 20:44:27 2010," US and USA, TX and Texas, Fort Worth, 76101",Cloudy,44,41,52,38,20,70,30.11 Steady ,35,8,SSW,6
Mon Feb  1 21:29:27 2010," US and USA, TX and Texas, Fort Worth, 76101",Cloudy,44,40,52,38,20,72,30.07 Falling Rapidly ,35,8,SSW,6
Mon Feb  1 22:12:48 2010," US and USA, TX and Texas, Fort Worth, 76101",Cloudy,45,40,52,37,10,72,30.05 Falling Rapidly ,36,8,SSW,8
Mon Feb  1 22:56:08 2010," US and USA, TX and Texas, Fort Worth, 76101",Cloudy,44,39,52,37,10,75,30.05 Steady ,37,8,SSW,9
Mon Feb  1 23:42:14 2010," US and USA, TX and Texas, Fort Worth, 76101",Cloudy,45,41,52,37,10,73,30.04 Steady ,37,8,SW,7
Tue Feb  2 00:29:09 2010," US and USA, TX and Texas, Fort Worth, 76101",Cloudy,45,40,52,37,10,73,30.05 Rising ,37,8,SSW,10
Tue Feb  2 01:14:45 2010," US and USA, TX and Texas, Fort Worth, 76101",Cloudy,45,41,52,37,10,74,30.05 Steady ,37,7,S,7
Tue Feb  2 01:57:52 2010," US and USA, TX and Texas, Fort Worth, 76101",Cloudy,45,41,52,37,10,75,30.05 Steady ,37,6,S,6
Tue Feb  2 02:41:55 2010," US and USA, TX and Texas, Fort Worth, 76101",Cloudy,44,41,52,37,10,77,30.07 Steady ,37,8,S,6
Tue Feb  2 03:25:26 2010," US and USA, TX and Texas, Fort Worth, 76101",Cloudy,44,41,52,37,10,80,30.07 Steady ,38,7,S,5
Tue Feb  2 04:09:13 2010," US and USA, TX and Texas, Fort Worth, 76101",Cloudy,42,39,52,37,10,85,30.07 Steady ,38,6,S,5
Tue Feb  2 04:52:47 2010," US and USA, TX and Texas, Fort Worth, 76101",Cloudy,44,44,52,37,10,79,30.09 Steady ,38,6,SW,3
Tue Feb  2 05:36:10 2010," US and USA, TX and Texas, Fort Worth, 76101",Cloudy,44,44,52,37,10,78,30.10 Steady ,38,6,CALM,0
Tue Feb  2 06:19:27 2010," US and USA, TX and Texas, Fort Worth, 76101",Cloudy,44,44,52,37,10,78,30.10 Steady ,38,6,CALM,0
Tue Feb  2 07:06:35 2010," US and USA, TX and Texas, Fort Worth, 76101",Cloudy,43,40,52,37,10,79,30.11 Steady ,37,6,SSE,5
Tue Feb  2 07:49:34 2010," US and USA, TX and Texas, Fort Worth, 76101",Cloudy,43,43,52,37,10,82,30.12 Steady ,37,6,NE,4
Tue Feb  2 08:32:46 2010," US and USA, TX and Texas, Fort Worth, 76101",Cloudy,42,38,52,37,10,82,30.13 Steady ,37,6,NNE,6
Tue Feb  2 09:16:16 2010," US and USA, TX and Texas, Fort Worth, 76101",Cloudy,42,38,52,37,10,80,30.14 Steady ,36,6,NNE,6
Tue Feb  2 09:59:48 2010," US and USA, TX and Texas, Fort Worth, 76101",Cloudy,42,38,53,36,10,80,30.14 Steady ,36,6,NNE,6
Tue Feb  2 10:43:22 2010," US and USA, TX and Texas, Fort Worth, 76101",Cloudy,41,38,53,36,10,81,30.15 Steady ,36,7,NNE,6
Tue Feb  2 11:27:29 2010," US and USA, TX and Texas, Fort Worth, 76101",Cloudy,41,39,53,36,10,80,30.15 Steady ,36,6,NNE,4
Tue Feb  2 12:11:30 2010," US and USA, TX and Texas, Fort Worth, 76101",Cloudy,41,38,53,36,10,82,30.16 Steady ,36,6,NNE,5
Tue Feb  2 12:55:23 2010," US and USA, TX and Texas, Fort Worth, 76101",Cloudy,42,38,52,36,10,81,30.17 Steady ,36,6,N,5
Tue Feb  2 13:38:44 2010," US and USA, TX and Texas, Fort Worth, 76101",Cloudy,42,42,52,36,10,81,30.19 Rising ,36,7,E,3
Tue Feb  2 14:22:23 2010," US and USA, TX and Texas, Fort Worth, 76101",Cloudy,42,42,52,36,10,81,30.20 Rising ,36,7,N,3
Tue Feb  2 15:06:45 2010," US and USA, TX and Texas, Fort Worth, 76101",Cloudy,42,39,52,36,10,81,30.20 Steady ,37,7,N,4
Tue Feb  2 15:53:09 2010," US and USA, TX and Texas, Fort Worth, 76101",Cloudy,44,40,52,36,10,74,30.21 Steady ,36,7,NNE,6
Tue Feb  2 16:45:39 2010," US and USA, TX and Texas, Fort Worth, 76101",Cloudy,46,43,52,36,10,64,30.24 Steady ,35,8,NNE,6
Tue Feb  2 17:34:07 2010," US and USA, TX and Texas, Fort Worth, 76101",Cloudy,46,42,51,36,10,66,30.25 Steady ,35,8,N,7
Tue Feb  2 18:18:42 2010," US and USA, TX and Texas, Fort Worth, 76101",Cloudy,45,42,51,36,10,67,30.25 Steady ,35,8,N,6
Tue Feb  2 19:02:53 2010," US and USA, TX and Texas, Fort Worth, 76101",Cloudy,47,44,51,36,10,65,30.26 Rising ,36,8,N,6
Tue Feb  2 19:52:17 2010," US and USA, TX and Texas, Fort Worth, 76101",Cloudy,47,45,50,37,10,64,30.27 Steady ,35,8,N,5
Tue Feb  2 20:43:27 2010," US and USA, TX and Texas, Fort Worth, 76101",Cloudy,47,45,50,37,10,64,30.24 Steady ,35,8,N,5
Tue Feb  2 21:30:18 2010," US and USA, TX and Texas, Fort Worth, 76101",Partly Cloudy,48,45,50,37,20,61,30.21 Falling Rapidly ,36,9,NNE,6
Tue Feb  2 22:18:41 2010," US and USA, TX and Texas, Fort Worth, 76101",Partly Cloudy,50,50,50,37,20,59,30.19 Falling Rapidly ,36,8,NNE,4
Tue Feb  2 23:02:59 2010," US and USA, TX and Texas, Fort Worth, 76101",Partly Cloudy,50,50,50,37,20,61,30.19 Steady ,37,8,NNE,5
Tue Feb  2 23:48:17 2010," US and USA, TX and Texas, Fort Worth, 76101",Partly Cloudy,53,53,50,37,20,52,30.19 Steady ,36,7,NE,6
Wed Feb  3 00:32:42 2010," US and USA, TX and Texas, Fort Worth, 76101",Partly Cloudy,52,52,50,37,20,59,30.18 Steady ,38,6,NE,6
Wed Feb  3 01:19:53 2010," US and USA, TX and Texas, Fort Worth, 76101",Partly Cloudy,50,50,50,37,20,58,30.19 Rising ,36,8,NE,5
Wed Feb  3 02:05:05 2010," US and USA, TX and Texas, Fort Worth, 76101",Partly Cloudy,49,47,50,37,20,62,30.18 Steady ,36,7,NE,5
Wed Feb  3 02:53:23 2010," US and USA, TX and Texas, Fort Worth, 76101",Mostly Clear,45,42,50,37,20,67,30.22 Steady ,34,8,NE,5
Wed Feb  3 03:40:12 2010," US and USA, TX and Texas, Fort Worth, 76101",Clear,43,41,50,37,20,70,30.21 Steady ,34,8,NE,4
Wed Feb  3 04:28:21 2010," US and USA, TX and Texas, Fort Worth, 76101",Mostly Clear,42,42,50,37,20,73,30.24 Rising Rapidly ,34,8,NNE,3
Wed Feb  3 05:15:11 2010," US and USA, TX and Texas, Fort Worth, 76101",Partly Cloudy,38,38,50,37,20,83,30.20 Falling Rapidly ,33,8,NNE,1
Wed Feb  3 06:02:59 2010," US and USA, TX and Texas, Fort Worth, 76101",Partly Cloudy,38,38,50,37,20,84,30.20 Steady ,33,8,N,1
Thu Feb  4 06:05:29 2010," US and USA, TX and Texas, Fort Worth, 76101",Cloudy,43,38,48,40,100,84,30.06 Falling Rapidly ,38,6,E,9
Thu Feb  4 06:48:33 2010," US and USA, TX and Texas, Fort Worth, 76101",Showers,43,37,48,40,100,85,30.05 Steady ,39,7,E,11to18
Thu Feb  4 07:32:11 2010," US and USA, TX and Texas, Fort Worth, 76101",Cloudy,43,37,48,40,60,86,30.02 Falling Rapidly ,39,6,E,11to16
Thu Feb  4 08:14:42 2010," US and USA, TX and Texas, Fort Worth, 76101",Cloudy,43,37,48,40,60,83,30.00 Falling ,38,7,E,11to18
Thu Feb  4 08:58:22 2010," US and USA, TX and Texas, Fort Worth, 76101",Mostly Cloudy,43,37,48,40,60,84,30.01 Steady ,38,7,E,10
Thu Feb  4 09:42:19 2010," US and USA, TX and Texas, Fort Worth, 76101",Cloudy,43,38,42,37,70,88,30.00 Steady ,39,5,E,7
Thu Feb  4 10:25:58 2010," US and USA, TX and Texas, Fort Worth, 76101",Showers,43,38,42,37,60,89,29.99 Falling ,40,6,ESE,8
Thu Feb  4 11:11:53 2010," US and USA, TX and Texas, Fort Worth, 76101",Showers,42,37,42,37,60,88,29.98 Falling ,39,3,ESE,8
Thu Feb  4 11:55:25 2010," US and USA, TX and Texas, Fort Worth, 76101",Showers,43,38,42,37,60,89,29.99 Rising ,40,9,E,7
Thu Feb  4 12:38:30 2010," US and USA, TX and Texas, Fort Worth, 76101",Cloudy,43,40,42,37,60,88,29.98 Steady ,40,5,NE,5
Thu Feb  4 13:22:34 2010," US and USA, TX and Texas, Fort Worth, 76101",Cloudy,43,40,42,37,60,88,29.98 Steady ,39,7,ENE,5
Thu Feb  4 14:07:24 2010," US and USA, TX and Texas, Fort Worth, 76101",Cloudy,43,39,42,37,60,85,29.99 Steady ,39,8,ENE,6
Wed Feb  3 06:49:43 2010," US and USA, TX and Texas, Fort Worth, 76101",Partly Cloudy,39,39,50,37,20,79,30.24 Steady ,33,8,E,1
Wed Feb  3 07:34:27 2010," US and USA, TX and Texas, Houston, 77001",Partly Cloudy,52,52,58,48,80,82,30.13 Steady ,47,8,ENE,6
Wed Feb  3 08:17:35 2010," US and USA, TX and Texas, Houston, 77001",Partly Cloudy,52,52,58,48,80,79,30.13 Steady ,46,9,ENE,7
Wed Feb  3 09:04:05 2010," US and USA, TX and Texas, Houston, 77001",Mostly Cloudy,52,52,58,48,80,78,30.12 Steady ,45,10,ENE,9
Wed Feb  3 09:47:55 2010," US and USA, TX and Texas, Houston, 77001",Mostly Cloudy,51,51,54,49,30,81,30.09 Falling ,46,10,E,9
Wed Feb  3 10:31:20 2010," US and USA, TX and Texas, Houston, 77001",Mostly Cloudy,51,51,54,49,70,78,30.07 Falling Rapidly ,45,10,E,9
Wed Feb  3 11:18:11 2010," US and USA, TX and Texas, Houston, 77001",Partly Cloudy,50,46,54,49,70,81,30.06 Falling ,44,6,E,10
Wed Feb  3 12:02:55 2010," US and USA, TX and Texas, Houston, 77001",Cloudy,50,45,54,49,70,81,30.07 Steady ,44,10,E,12
Wed Feb  3 12:46:07 2010," US and USA, TX and Texas, Houston, 77001",Showers,49,45,54,49,70,81,30.08 Steady ,44,7,E,11
Wed Feb  3 13:29:50 2010," US and USA, TX and Texas, Houston, 77001",Showers,49,45,54,49,70,80,30.09 Steady ,44,7,E,10
Wed Feb  3 14:15:58 2010," US and USA, TX and Texas, Houston, 77001",Showers,49,44,54,49,70,81,30.13 Rising Rapidly ,44,10,E,16to21
Wed Feb  3 15:01:59 2010," US and USA, TX and Texas, Houston, 77001",Showers,48,43,54,49,70,86,30.11 Falling ,44,7,E,13to18
Wed Feb  3 15:46:47 2010," US and USA, TX and Texas, Houston, 77001",Showers,48,42,54,49,70,84,30.07 Falling ,43,7,ENE,15to23
Wed Feb  3 16:32:39 2010," US and USA, TX and Texas, Houston, 77001",Showers,48,41,54,49,70,81,30.06 Falling ,42,7,ENE,19to26
Wed Feb  3 17:19:50 2010," US and USA, TX and Texas, Houston, 77001",Showers,48,42,54,49,70,83,30.06 Falling ,43,7,ENE,15to22
Wed Feb  3 18:08:08 2010," US and USA, TX and Texas, Houston, 77001",Cloudy,48,43,54,49,70,82,30.07 Rising ,43,9,ENE,14to21
Wed Feb  3 18:51:15 2010," US and USA, TX and Texas, Houston, 77001",Mostly Cloudy,50,50,55,49,70,79,30.08 Steady ,44,10,ENE,15to22
Wed Feb  3 19:35:31 2010," US and USA, TX and Texas, Houston, 77001",Cloudy,51,51,55,50,100,74,30.06 Falling ,43,10,E,15to21
Wed Feb  3 20:19:36 2010," US and USA, TX and Texas, Houston, 77001",Mostly Cloudy,53,53,55,50,100,70,30.01 Falling Rapidly ,44,10,E,19to30
Wed Feb  3 21:03:55 2010," US and USA, TX and Texas, Houston, 77001",Cloudy,53,53,55,50,100,71,30.00 Steady ,44,10,E,14to27
Wed Feb  3 21:51:59 2010," US and USA, TX and Texas, Houston, 77001",Cloudy,52,52,55,50,100,72,29.99 Steady ,43,10,ESE,16to22
Wed Feb  3 22:37:32 2010," US and USA, TX and Texas, Houston, 77001",Cloudy,52,52,55,50,100,73,29.98 Steady ,43,8,E,12to21
Wed Feb  3 23:28:28 2010," US and USA, TX and Texas, Houston, 77001",Cloudy,52,52,55,50,100,75,29.94 Falling Rapidly ,44,9,E,17to24
Thu Feb  4 00:13:23 2010," US and USA, TX and Texas, Houston, 77001",Showers,52,52,55,50,100,79,29.96 Rising ,45,7,E,14to18
Thu Feb  4 00:57:26 2010," US and USA, TX and Texas, Houston, 77001",Mostly Cloudy,51,51,55,50,100,87,29.96 Steady ,47,8,E,13to20
Thu Feb  4 01:40:44 2010," US and USA, TX and Texas, Houston, 77001",Showers,50,50,55,49,100,88,29.95 Steady ,47,10,ENE,14to21
Thu Feb  4 02:28:28 2010," US and USA, TX and Texas, Houston, 77001",Showers,50,50,55,49,100,86,29.95 Steady ,46,5,ENE,17to26
Thu Feb  4 03:11:39 2010," US and USA, TX and Texas, Houston, 77001",Showers,50,50,55,49,100,89,29.95 Steady ,47,3,ENE,17to24
Thu Feb  4 03:56:06 2010," US and USA, TX and Texas, Houston, 77001",Showers,49,43,55,49,100,93,29.95 Falling ,47,4,ENE,16to25
Thu Feb  4 04:39:23 2010," US and USA, TX and Texas, Houston, 77001",Showers,48,42,55,47,100,95,29.94 Steady ,47,4,ENE,17to25
Thu Feb  4 05:22:45 2010," US and USA, TX and Texas, Houston, 77001",Showers,48,43,55,47,100,95,29.95 Steady ,47,4,ENE,16to24
Thu Feb  4 15:00:22 2010," US and USA, TX and Texas, Houston, 77001",Cloudy,51,51,53,44,100,87,29.86 Rising ,48,10,ENE,8
Thu Jan 28 15:40:00 2010," US and USA, TX and Texas, Houston, 77001",Cloudy,59,59,68,60,10,91,30.14 Steady ,56,9,ESE,13to18
Thu Jan 28 16:00:48 2010," US and USA, TX and Texas, Houston, 77001",Cloudy,59,59,68,60,10,91,30.14 Steady ,56,9,ESE,13to18
Thu Jan 28 16:50:07 2010," US and USA, TX and Texas, Houston, 77001",Mostly Cloudy,60,60,68,60,10,89,30.14 Steady ,57,9,ESE,13to18
Thu Jan 28 17:14:21 2010," US and USA, TX and Texas, Houston, 77001",Mostly Cloudy,60,60,68,60,10,89,30.14 Falling ,57,9,ESE,13to17
Thu Jan 28 17:30:22 2010," US and USA, TX and Texas, Houston, 77001",Mostly Cloudy,60,60,68,60,10,89,30.14 Falling ,57,9,ESE,13to17
Fri Jan 29 08:42:34 2010," US and USA, TX and Texas, Houston, 77001",Cloudy,64,64,68,60,100,96,29.84 Steady ,63,6,SE,17to26
Fri Jan 29 09:26:29 2010," US and USA, TX and Texas, Houston, 77001",Cloudy,64,64,68,60,10,96,29.82 Falling ,63,6,SSE,16to24
Fri Jan 29 11:58:31 2010," US and USA, TX and Texas, Houston, 77001",Cloudy,66,66,60,36,100,96,29.77 Falling ,65,9,S,15to22
Fri Jan 29 12:43:14 2010," US and USA, TX and Texas, Houston, 77001",Thunderstorms,66,66,62,36,100,98,29.77 Rising ,65,7,S,9
Fri Jan 29 13:30:57 2010," US and USA, TX and Texas, Houston, 77001",Thunderstorms,63,63,62,36,100,98,29.78 Rising ,63,2.6,NW,11to18
Fri Jan 29 14:18:47 2010," US and USA, TX and Texas, Houston, 77001",Thunderstorms,59,59,62,36,100,92,29.80 Rising Rapidly ,57,10,NNW,16to22
Fri Jan 29 15:03:34 2010," US and USA, TX and Texas, Houston, 77001",Cloudy,58,58,62,36,100,92,29.82 Rising ,55,9,NNW,16
Fri Jan 29 15:49:07 2010," US and USA, TX and Texas, Houston, 77001",Cloudy,55,55,62,36,100,96,29.84 Rising ,54,7,NNW,15to29
Fri Jan 29 16:36:56 2010," US and USA, TX and Texas, Houston, 77001",Showers,54,54,56,36,70,95,29.89 Rising Rapidly ,53,7,NW,16to26
Fri Jan 29 17:21:21 2010," US and USA, TX and Texas, Houston, 77001",Cloudy,51,51,56,36,70,92,29.94 Rising Rapidly ,49,10,NW,14to26
Fri Jan 29 18:09:49 2010," US and USA, TX and Texas, Houston, 77001",Mostly Cloudy,50,50,53,36,60,91,29.97 Rising Rapidly ,48,9,NNW,16to29
Fri Jan 29 18:54:47 2010," US and USA, TX and Texas, Houston, 77001",Cloudy,49,43,52,36,50,86,29.94 Steady ,45,10,NNW,20to31
Fri Jan 29 19:46:47 2010," US and USA, TX and Texas, Houston, 77001",Cloudy,51,51,52,36,50,85,29.91 Falling ,46,10,N,13to17
Fri Jan 29 20:44:36 2010," US and USA, TX and Texas, Houston, 77001",Cloudy,51,51,52,36,50,84,29.89 Rising ,47,10,NW,13
Fri Jan 29 21:29:13 2010," US and USA, TX and Texas, Houston, 77001",Cloudy,50,44,52,33,20,82,29.89 Steady ,44,10,WNW,18to26
Fri Jan 29 22:15:49 2010," US and USA, TX and Texas, Houston, 77001",Cloudy,45,38,52,33,20,86,29.90 Rising ,41,10,NW,18to27
Fri Jan 29 23:00:44 2010," US and USA, TX and Texas, Houston, 77001",Cloudy,45,38,52,33,20,82,29.91 Steady ,40,10,NW,16to26
Fri Jan 29 23:45:00 2010," US and USA, TX and Texas, Houston, 77001",Cloudy,45,39,52,33,20,81,29.93 Steady ,40,10,NNW,12to24
Sat Jan 30 00:29:06 2010," US and USA, TX and Texas, Houston, 77001",Cloudy,47,41,52,33,20,75,29.94 Rising ,39,10,NW,13to24
Sat Jan 30 01:13:15 2010," US and USA, TX and Texas, Houston, 77001",Cloudy,45,37,52,33,20,76,29.95 Steady ,38,10,NW,17to28
Sat Jan 30 01:57:12 2010," US and USA, TX and Texas, Houston, 77001",Cloudy,43,35,52,33,20,78,29.96 Rising ,37,10,NW,18to26
Sat Jan 30 02:41:30 2010," US and USA, TX and Texas, Houston, 77001",Cloudy,42,34,52,33,20,78,29.98 Rising ,35,10,NW,16to24
Sat Jan 30 03:25:01 2010," US and USA, TX and Texas, Houston, 77001",Cloudy,40,32,52,33,20,74,30.00 Rising Rapidly ,33,10,NW,14to23
Sat Jan 30 04:08:56 2010," US and USA, TX and Texas, Houston, 77001",Cloudy,40,32,52,33,20,73,30.01 Rising ,32,10,NW,14to22
Sat Jan 30 04:52:42 2010," US and USA, TX and Texas, Houston, 77001",Cloudy,38,29,52,33,20,77,30.03 Steady ,31,10,NNW,15to28
Sat Jan 30 05:36:28 2010," US and USA, TX and Texas, Houston, 77001",Cloudy,38,30,52,33,20,77,30.04 Steady ,31,10,NW,13to20
Sat Jan 30 06:20:33 2010," US and USA, TX and Texas, Houston, 77001",Cloudy,38,30,52,33,20,77,30.04 Steady ,31,10,NW,13to20
Sat Jan 30 07:06:31 2010," US and USA, TX and Texas, Houston, 77001",Cloudy,38,29,52,33,10,75,30.05 Steady ,31,10,NW,15to22
Sat Jan 30 07:49:12 2010," US and USA, TX and Texas, Houston, 77001",Cloudy,37,28,52,33,10,75,30.05 Steady ,30,10,NW,15to25
Sat Jan 30 08:32:26 2010," US and USA, TX and Texas, Houston, 77001",Cloudy,36,27,52,33,10,74,30.05 Steady ,29,10,NNW,16to23
Sat Jan 30 11:14:13 2010," US and USA, TX and Texas, Houston, 77001",Mostly Clear,34,26,49,33,10,74,30.06 Rising ,26,10,NW,10to19
Sat Jan 30 12:02:02 2010," US and USA, TX and Texas, Houston, 77001",Mostly Clear,34,25,49,33,10,74,30.06 Steady ,26,10,NW,11to17
Sat Jan 30 12:45:39 2010," US and USA, TX and Texas, Houston, 77001",Mostly Cloudy,33,25,49,33,10,76,30.07 Steady ,27,10,NW,11to16
Sat Jan 30 13:28:53 2010," US and USA, TX and Texas, Houston, 77001",Partly Cloudy,33,25,49,33,10,79,30.09 Rising ,27,10,NW,9
Sat Jan 30 14:13:04 2010," US and USA, TX and Texas, Houston, 77001",Cloudy,34,27,49,33,10,74,30.11 Rising Rapidly ,27,10,NW,10to16
Sat Jan 30 14:57:20 2010," US and USA, TX and Texas, Houston, 77001",Cloudy,34,26,50,33,10,75,30.12 Rising ,27,10,NW,10
Sat Jan 30 15:42:58 2010," US and USA, TX and Texas, Houston, 77001",Cloudy,35,27,50,33,10,72,30.13 Rising ,27,10,NW,11to18
Sat Jan 30 16:27:57 2010," US and USA, TX and Texas, Houston, 77001",Cloudy,36,27,50,33,10,72,30.13 Steady ,27,10,NNW,12to19
Sat Jan 30 17:12:24 2010," US and USA, TX and Texas, Houston, 77001",Cloudy,35,26,50,33,10,73,30.15 Steady ,28,10,NNW,13to17
Sat Jan 30 17:55:34 2010," US and USA, TX and Texas, Houston, 77001",Cloudy,36,28,50,33,10,70,30.17 Steady ,27,10,NNW,13to17
Sat Jan 30 18:39:34 2010," US and USA, TX and Texas, Houston, 77001",Cloudy,37,29,50,33,10,71,30.18 Steady ,29,10,NW,11
Sat Jan 30 19:22:51 2010," US and USA, TX and Texas, Houston, 77001",Cloudy,38,30,50,33,10,65,30.17 Falling ,28,10,NNW,14
Sat Jan 30 20:07:07 2010," US and USA, TX and Texas, Houston, 77001",Cloudy,39,31,50,33,10,68,30.16 Steady ,29,10,NNW,13to18
Sat Jan 30 20:50:12 2010," US and USA, TX and Texas, Houston, 77001",Cloudy,40,32,50,33,10,64,30.14 Steady ,28,10,NNW,14to20
Sat Jan 30 21:33:58 2010," US and USA, TX and Texas, Houston, 77001",Cloudy,39,30,50,33,0,64,30.13 Steady ,28,10,NNW,15to21
Sat Jan 30 22:17:30 2010," US and USA, TX and Texas, Houston, 77001",Cloudy,38,29,50,33,0,67,30.12 Falling ,28,10,NNW,16to24
Sat Jan 30 23:02:56 2010," US and USA, TX and Texas, Houston, 77001",Cloudy,38,29,50,33,0,68,30.13 Rising ,28,10,NNW,15to22
Sat Jan 30 23:47:50 2010," US and USA, TX and Texas, Houston, 77001",Cloudy,37,29,50,33,0,67,30.14 Steady ,27,10,NNW,14to18
Sun Jan 31 00:31:49 2010," US and USA, TX and Texas, Houston, 77001",Cloudy,36,27,50,33,0,74,30.15 Steady ,28,10,NNW,12to17
Sun Jan 31 01:22:15 2010," US and USA, TX and Texas, Houston, 77001",Cloudy,36,28,50,33,0,73,30.16 Steady ,28,10,N,12to16
Sun Jan 31 02:06:15 2010," US and USA, TX and Texas, Houston, 77001",Cloudy,35,27,50,33,0,73,30.16 Steady ,27,9,N,13to18
Sun Jan 31 02:49:39 2010," US and USA, TX and Texas, Houston, 77001",Cloudy,36,27,50,33,0,75,30.18 Steady ,28,10,N,12to16
Sun Jan 31 03:33:34 2010," US and USA, TX and Texas, Houston, 77001",Cloudy,36,28,50,33,0,74,30.19 Steady ,28,10,N,12to20
Sun Jan 31 04:17:22 2010," US and USA, TX and Texas, Houston, 77001",Cloudy,36,28,50,33,0,74,30.21 Rising ,28,10,N,11
Sun Jan 31 05:01:38 2010," US and USA, TX and Texas, Houston, 77001",Cloudy,34,26,50,33,0,78,30.22 Rising ,28,10,N,12
Sun Jan 31 05:48:02 2010," US and USA, TX and Texas, Houston, 77001",Cloudy,34,27,50,33,0,79,30.23 Steady ,28,10,N,10
Sun Jan 31 06:32:53 2010," US and USA, TX and Texas, Houston, 77001",Cloudy,35,27,50,33,0,78,30.23 Steady ,29,10,N,11
Sun Jan 31 07:15:45 2010," US and USA, TX and Texas, Houston, 77001",Cloudy,36,28,50,33,10,75,30.22 Falling ,29,10,N,11
Sun Jan 31 08:02:28 2010," US and USA, TX and Texas, Houston, 77001",Cloudy,36,28,50,33,10,76,30.22 Steady ,29,10,N,11
Sun Jan 31 08:47:09 2010," US and USA, TX and Texas, Houston, 77001",Cloudy,35,29,50,33,10,77,30.23 Steady ,29,10,NNE,8
Sun Jan 31 09:30:24 2010," US and USA, TX and Texas, Houston, 77001",Cloudy,36,29,54,40,10,76,30.23 Steady ,29,10,NE,9
Sun Jan 31 10:13:35 2010," US and USA, TX and Texas, Houston, 77001",Cloudy,34,28,54,40,10,80,30.24 Rising ,28,10,NNE,8
Sun Jan 31 10:57:22 2010," US and USA, TX and Texas, Houston, 77001",Cloudy,34,28,54,40,10,81,30.24 Steady ,29,10,NNE,6
Sun Jan 31 11:40:54 2010," US and USA, TX and Texas, Houston, 77001",Cloudy,34,26,54,40,10,80,30.24 Steady ,28,10,NE,10
Sun Jan 31 12:24:28 2010," US and USA, TX and Texas, Houston, 77001",Cloudy,33,25,54,40,10,83,30.23 Steady ,28,10,NNE,9
Sun Jan 31 13:07:52 2010," US and USA, TX and Texas, Houston, 77001",Cloudy,33,25,54,40,10,82,30.24 Rising ,28,9,NNE,10
Sun Jan 31 13:51:28 2010," US and USA, TX and Texas, Houston, 77001",Cloudy,34,27,54,40,10,83,30.26 Steady ,29,8,N,7
Sun Jan 31 14:34:16 2010," US and USA, TX and Texas, Houston, 77001",Cloudy,34,27,54,40,10,81,30.27 Steady ,28,9,N,7
Sun Jan 31 15:18:22 2010," US and USA, TX and Texas, Houston, 77001",Cloudy,35,28,54,40,10,78,30.28 Rising ,29,9,N,8
Sun Jan 31 16:01:55 2010," US and USA, TX and Texas, Houston, 77001",Cloudy,35,28,54,40,10,78,30.28 Steady ,28,9,NNE,9
Sun Jan 31 17:35:19 2010," US and USA, TX and Texas, Houston, 77001",Cloudy,37,30,54,40,10,77,30.28 Steady ,30,10,NNE,9
Sun Jan 31 18:20:20 2010," US and USA, TX and Texas, Houston, 77001",Cloudy,38,32,54,40,10,75,30.28 Steady ,31,9,NE,8
Sun Jan 31 19:04:07 2010," US and USA, TX and Texas, Houston, 77001",Cloudy,38,31,54,40,10,75,30.28 Steady ,30,9,NNE,9
Sun Jan 31 19:49:36 2010," US and USA, TX and Texas, Houston, 77001",Cloudy,39,39,50,40,10,76,30.26 Steady ,32,9,NE,3
Sun Jan 31 20:32:26 2010," US and USA, TX and Texas, Houston, 77001",Cloudy,40,40,50,40,10,72,30.25 Steady ,32,9,NNE,1
Sun Jan 31 21:17:04 2010," US and USA, TX and Texas, Houston, 77001",Cloudy,41,41,50,40,10,71,30.22 Falling Rapidly ,32,8,CALM,0
Sun Jan 31 21:59:52 2010," US and USA, TX and Texas, Houston, 77001",Cloudy,41,41,50,40,20,71,30.22 Falling ,32,8,NNW,2
Sun Jan 31 22:44:41 2010," US and USA, TX and Texas, Houston, 77001",Cloudy,40,37,50,40,20,72,30.21 Steady ,32,9,NNW,5
Sun Jan 31 23:28:02 2010," US and USA, TX and Texas, Houston, 77001",Mostly Cloudy,42,42,50,40,20,68,30.19 Falling Rapidly ,32,9,E,3
Mon Feb  1 00:11:59 2010," US and USA, TX and Texas, Houston, 77001",Mostly Cloudy,41,41,50,40,20,70,30.21 Rising ,32,9,WSW,2
Mon Feb  1 00:54:54 2010," US and USA, TX and Texas, Houston, 77001",Mostly Cloudy,41,38,50,40,20,69,30.21 Steady ,32,9,WSW,5
Mon Feb  1 01:41:11 2010," US and USA, TX and Texas, Houston, 77001",Partly Cloudy,41,41,50,40,20,70,30.19 Steady ,32,9,WSW,4
Mon Feb  1 02:25:12 2010," US and USA, TX and Texas, Houston, 77001",Partly Cloudy,39,39,50,40,20,76,30.20 Rising ,32,9,SW,2
Mon Feb  1 03:08:52 2010," US and USA, TX and Texas, Houston, 77001",Partly Cloudy,39,39,50,40,20,78,30.20 Rising ,33,9,WSW,2
Mon Feb  1 03:53:33 2010," US and USA, TX and Texas, Houston, 77001",Mostly Clear,38,38,50,37,20,79,30.20 Steady ,32,8,WSW,2
Mon Feb  1 04:38:21 2010," US and USA, TX and Texas, Houston, 77001",Mostly Clear,38,38,50,37,20,80,30.21 Steady ,32,8,W,1
Mon Feb  1 05:21:30 2010," US and USA, TX and Texas, Houston, 77001",Partly Cloudy,38,38,50,37,20,80,30.20 Falling ,32,8,NE,2
Mon Feb  1 06:06:24 2010," US and USA, TX and Texas, Houston, 77001",Partly Cloudy,38,38,50,37,20,80,30.20 Steady ,32,7,NE,2
Mon Feb  1 06:49:33 2010," US and USA, TX and Texas, Houston, 77001",Partly Cloudy,38,38,50,37,20,81,30.21 Steady ,33,6,CALM,0
Mon Feb  1 07:33:23 2010," US and USA, TX and Texas, Houston, 77001",Partly Cloudy,38,38,50,36,40,81,30.21 Steady ,33,7,ENE,2
Mon Feb  1 08:16:48 2010," US and USA, TX and Texas, Houston, 77001",Partly Cloudy,38,38,50,36,40,81,30.21 Steady ,33,7,ENE,2
Mon Feb  1 09:00:15 2010," US and USA, TX and Texas, Houston, 77001",Partly Cloudy,38,34,50,36,40,82,30.18 Falling ,33,6,NE,5
Mon Feb  1 09:43:13 2010," US and USA, TX and Texas, Houston, 77001",Partly Cloudy,38,34,58,47,10,79,30.16 Steady ,32,6,NE,6
Mon Feb  1 10:26:46 2010," US and USA, TX and Texas, Houston, 77001",Partly Cloudy,38,34,58,47,40,81,30.14 Falling Rapidly ,33,7,NE,6
Mon Feb  1 11:09:42 2010," US and USA, TX and Texas, Houston, 77001",Partly Cloudy,38,34,58,47,40,78,30.14 Steady ,32,7,NNE,5
Mon Feb  1 11:53:10 2010," US and USA, TX and Texas, Houston, 77001",Partly Cloudy,38,34,58,47,40,84,30.13 Steady ,33,7,NE,4
Mon Feb  1 12:36:33 2010," US and USA, TX and Texas, Houston, 77001",Partly Cloudy,39,35,58,47,40,79,30.12 Steady ,33,7,NE,5
Mon Feb  1 13:20:03 2010," US and USA, TX and Texas, Houston, 77001",Cloudy,39,35,58,47,50,79,30.13 Rising ,33,7,NE,7
Mon Feb  1 14:03:57 2010," US and USA, TX and Texas, Houston, 77001",Cloudy,40,36,58,47,50,78,30.13 Rising ,33,7,ENE,5
Mon Feb  1 14:49:01 2010," US and USA, TX and Texas, Houston, 77001",Cloudy,41,36,58,47,50,76,30.12 Steady ,34,7,ENE,7
Mon Feb  1 15:32:45 2010," US and USA, TX and Texas, Houston, 77001",Showers,41,38,58,47,50,78,30.12 Steady ,35,7,NE,5
Mon Feb  1 16:17:30 2010," US and USA, TX and Texas, Houston, 77001",Showers,41,38,58,47,50,78,30.12 Steady ,35,7,ENE,5
Mon Feb  1 17:02:16 2010," US and USA, TX and Texas, Houston, 77001",Showers,41,38,58,47,50,85,30.14 Rising ,37,7,ENE,5
Mon Feb  1 17:46:03 2010," US and USA, TX and Texas, Houston, 77001",Showers,42,39,58,47,50,88,30.16 Steady ,38,7,E,5
Mon Feb  1 18:29:33 2010," US and USA, TX and Texas, Houston, 77001",Mostly Cloudy,43,40,58,47,50,89,30.15 Steady ,40,10,E,5
Mon Feb  1 19:13:19 2010," US and USA, TX and Texas, Houston, 77001",Showers,45,42,54,47,50,90,30.11 Falling Rapidly ,42,7,E,5
Mon Feb  1 19:58:09 2010," US and USA, TX and Texas, Houston, 77001",Cloudy,45,42,54,47,40,95,30.10 Falling ,44,5,E,5
Mon Feb  1 20:44:35 2010," US and USA, TX and Texas, Houston, 77001",Cloudy,47,43,54,47,40,90,30.07 Steady ,44,5,E,7
Mon Feb  1 21:29:34 2010," US and USA, TX and Texas, Houston, 77001",Cloudy,49,46,54,47,20,89,30.05 Falling ,45,5,ESE,6
Mon Feb  1 22:12:55 2010," US and USA, TX and Texas, Houston, 77001",Cloudy,49,46,54,47,20,89,30.05 Steady ,46,5,E,6
Mon Feb  1 22:56:16 2010," US and USA, TX and Texas, Houston, 77001",Cloudy,49,46,54,47,20,90,30.05 Steady ,46,5,E,6
Mon Feb  1 23:42:22 2010," US and USA, TX and Texas, Houston, 77001",Cloudy,49,46,54,47,20,90,30.05 Steady ,46,5,ENE,6
Tue Feb  2 00:29:16 2010," US and USA, TX and Texas, Houston, 77001",Cloudy,49,46,54,47,20,90,30.05 Steady ,46,5,ENE,7
Tue Feb  2 01:14:52 2010," US and USA, TX and Texas, Houston, 77001",Cloudy,48,45,54,47,20,92,30.04 Falling ,46,5,ENE,7
Tue Feb  2 01:58:00 2010," US and USA, TX and Texas, Houston, 77001",Cloudy,48,45,54,47,20,91,30.05 Steady ,46,5,ENE,6
Tue Feb  2 02:42:03 2010," US and USA, TX and Texas, Houston, 77001",Cloudy,49,45,54,47,20,91,30.05 Steady ,46,5,ENE,8
Tue Feb  2 03:25:33 2010," US and USA, TX and Texas, Houston, 77001",Cloudy,49,46,54,47,20,91,30.05 Steady ,46,5,ENE,7
Tue Feb  2 04:09:21 2010," US and USA, TX and Texas, Houston, 77001",Cloudy,48,46,54,47,20,91,30.04 Steady ,46,5,NE,6
Tue Feb  2 04:52:54 2010," US and USA, TX and Texas, Houston, 77001",Cloudy,48,45,54,47,20,92,30.03 Falling ,46,5,ENE,7
Tue Feb  2 05:36:17 2010," US and USA, TX and Texas, Houston, 77001",Cloudy,48,45,54,47,20,93,30.03 Steady ,46,5,E,5
Tue Feb  2 06:19:35 2010," US and USA, TX and Texas, Houston, 77001",Cloudy,47,45,54,47,20,94,30.04 Rising ,46,5,E,6
Tue Feb  2 07:06:43 2010," US and USA, TX and Texas, Houston, 77001",Cloudy,48,45,54,47,20,93,30.04 Steady ,46,5,NE,5
Tue Feb  2 07:49:41 2010," US and USA, TX and Texas, Houston, 77001",Cloudy,48,47,54,47,20,91,30.05 Steady ,46,5,ENE,4
Tue Feb  2 08:32:53 2010," US and USA, TX and Texas, Houston, 77001",Cloudy,48,45,54,47,20,91,30.05 Steady ,46,5,ENE,7
Tue Feb  2 09:16:24 2010," US and USA, TX and Texas, Houston, 77001",Cloudy,48,46,54,47,20,90,30.06 Rising ,46,5,NE,6
Tue Feb  2 09:59:55 2010," US and USA, TX and Texas, Houston, 77001",Cloudy,48,47,60,47,20,90,30.06 Steady ,46,5,ENE,5
Tue Feb  2 10:43:29 2010," US and USA, TX and Texas, Houston, 77001",Cloudy,48,45,60,47,20,89,30.06 Steady ,45,5,NE,7
Tue Feb  2 11:27:36 2010," US and USA, TX and Texas, Houston, 77001",Cloudy,48,45,60,47,20,91,30.06 Steady ,46,5,NE,7
Tue Feb  2 12:11:37 2010," US and USA, TX and Texas, Houston, 77001",Cloudy,48,45,60,47,20,93,30.06 Steady ,46,5,NE,6
Tue Feb  2 12:55:30 2010," US and USA, TX and Texas, Houston, 77001",Cloudy,48,44,60,47,20,94,30.07 Steady ,46,9,NNE,7
Tue Feb  2 13:38:51 2010," US and USA, TX and Texas, Houston, 77001",Cloudy,48,45,60,47,20,92,30.08 Steady ,46,5,NE,8
Tue Feb  2 14:22:30 2010," US and USA, TX and Texas, Houston, 77001",Cloudy,48,44,60,47,20,88,30.08 Falling ,45,6,NE,9
Tue Feb  2 15:06:52 2010," US and USA, TX and Texas, Houston, 77001",Cloudy,48,45,60,47,20,88,30.11 Rising Rapidly ,45,5,NNE,7
Tue Feb  2 15:53:16 2010," US and USA, TX and Texas, Houston, 77001",Cloudy,49,45,60,47,20,86,30.12 Rising ,45,5,NNE,9
Tue Feb  2 16:45:46 2010," US and USA, TX and Texas, Houston, 77001",Cloudy,50,46,60,47,20,85,30.13 Steady ,45,6,NNE,10
Tue Feb  2 17:34:14 2010," US and USA, TX and Texas, Houston, 77001",Cloudy,51,51,60,47,20,81,30.15 Steady ,45,9,NE,8
Tue Feb  2 18:18:49 2010," US and USA, TX and Texas, Houston, 77001",Cloudy,52,52,60,47,20,79,30.15 Falling ,46,8,NE,5
Tue Feb  2 19:03:00 2010," US and USA, TX and Texas, Houston, 77001",Cloudy,52,52,58,47,30,81,30.15 Steady ,47,5,ENE,5
Tue Feb  2 19:52:25 2010," US and USA, TX and Texas, Houston, 77001",Cloudy,53,53,58,48,30,83,30.13 Steady ,48,6,NNE,6
Tue Feb  2 20:43:34 2010," US and USA, TX and Texas, Houston, 77001",Cloudy,53,53,58,48,30,87,30.11 Steady ,49,5,N,8
Tue Feb  2 21:30:25 2010," US and USA, TX and Texas, Houston, 77001",Cloudy,55,55,58,48,30,83,30.08 Falling Rapidly ,50,6,NNE,8
Tue Feb  2 22:18:48 2010," US and USA, TX and Texas, Houston, 77001",Cloudy,57,57,58,48,30,77,30.09 Steady ,50,10,NNE,8
Tue Feb  2 23:03:06 2010," US and USA, TX and Texas, Houston, 77001",Cloudy,57,57,58,48,30,75,30.08 Falling ,50,10,NE,9
Tue Feb  2 23:48:25 2010," US and USA, TX and Texas, Houston, 77001",Cloudy,56,56,58,48,30,79,30.10 Steady ,50,9,NE,6
Wed Feb  3 00:32:49 2010," US and USA, TX and Texas, Houston, 77001",Cloudy,57,57,58,48,30,76,30.12 Steady ,49,9,NE,7
Wed Feb  3 01:20:00 2010," US and USA, TX and Texas, Houston, 77001",Cloudy,56,56,58,48,30,78,30.13 Rising ,49,10,ENE,5
Wed Feb  3 02:05:13 2010," US and USA, TX and Texas, Houston, 77001",Cloudy,56,56,58,48,30,76,30.13 Steady ,48,10,NE,5
Wed Feb  3 02:53:30 2010," US and USA, TX and Texas, Houston, 77001",Cloudy,54,54,58,48,30,83,30.14 Steady ,49,9,NE,6
Wed Feb  3 03:40:19 2010," US and USA, TX and Texas, Houston, 77001",Cloudy,55,55,58,48,30,78,30.15 Rising ,48,10,NE,7
Wed Feb  3 04:28:28 2010," US and USA, TX and Texas, Houston, 77001",Cloudy,54,54,58,48,30,81,30.15 Steady ,49,10,NE,6
Wed Feb  3 05:15:19 2010," US and USA, TX and Texas, Houston, 77001",Mostly Cloudy,52,52,58,48,30,83,30.13 Falling ,47,9,NE,9
Wed Feb  3 06:03:06 2010," US and USA, TX and Texas, Houston, 77001",Partly Cloudy,52,52,58,48,30,82,30.13 Steady ,47,5,NE,9
Thu Feb  4 06:05:36 2010," US and USA, TX and Texas, Houston, 77001",Showers,48,43,55,49,100,95,29.96 Rising ,47,5,ENE,13to19
Thu Feb  4 06:48:40 2010," US and USA, TX and Texas, Houston, 77001",Showers,48,43,55,49,100,92,29.96 Steady ,46,7,ENE,14to18
Thu Feb  4 08:14:49 2010," US and USA, TX and Texas, Houston, 77001",Showers,48,42,55,49,70,93,29.94 Steady ,46,7,E,15to22
Thu Feb  4 08:58:30 2010," US and USA, TX and Texas, Houston, 77001",Showers,48,41,55,49,70,93,29.91 Steady ,46,8,E,19to26
Thu Feb  4 09:42:26 2010," US and USA, TX and Texas, Houston, 77001",Showers,48,41,53,44,100,96,29.88 Steady ,47,9,E,20to27
Thu Feb  4 10:26:05 2010," US and USA, TX and Texas, Houston, 77001",Showers,48,40,53,44,70,95,29.82 Falling Rapidly ,47,7,E,25to34
Thu Feb  4 11:12:01 2010," US and USA, TX and Texas, Houston, 77001",Showers,49,42,53,44,70,93,29.81 Falling ,47,7,E,23to32
Thu Feb  4 11:55:32 2010," US and USA, TX and Texas, Houston, 77001",Showers,50,42,53,44,70,93,29.77 Rising ,47,7,E,24to39
Thu Feb  4 12:38:37 2010," US and USA, TX and Texas, Houston, 77001",Mostly Cloudy,51,51,53,44,70,93,29.85 Steady ,50,10,N,6
Thu Feb  4 13:22:41 2010," US and USA, TX and Texas, Houston, 77001",Cloudy,52,52,53,44,70,89,29.86 Steady ,49,10,NE,6
Thu Feb  4 14:07:31 2010," US and USA, TX and Texas, Houston, 77001",Cloudy,52,52,53,44,100,84,29.85 Steady ,48,10,E,18to27
Wed Feb  3 06:49:50 2010," US and USA, TX and Texas, Houston, 77001",Partly Cloudy,52,52,58,48,30,82,30.13 Steady ,47,8,NE,9
Wed Feb  3 07:34:23 2010," US and USA, TX and Texas, San Antonio, 78201",Showers,50,50,52,48,90,94,30.09 Steady ,48,5,ENE,12
Wed Feb  3 08:17:30 2010," US and USA, TX and Texas, San Antonio, 78201",Showers,50,46,52,48,90,94,30.09 Steady ,48,10,ENE,12
Wed Feb  3 09:04:01 2010," US and USA, TX and Texas, San Antonio, 78201",Showers,50,50,52,48,90,94,30.05 Falling Rapidly ,48,4,ENE,8to16
Wed Feb  3 09:47:51 2010," US and USA, TX and Texas, San Antonio, 78201",Showers,50,46,50,44,100,93,30.04 Steady ,48,7,ENE,10
Wed Feb  3 10:31:16 2010," US and USA, TX and Texas, San Antonio, 78201",Showers,50,50,50,44,100,93,30.03 Falling ,48,4,E,9
Wed Feb  3 11:18:07 2010," US and USA, TX and Texas, San Antonio, 78201",Showers,49,45,50,44,100,97,30.01 Falling Rapidly ,48,4,ENE,8
Wed Feb  3 12:02:51 2010," US and USA, TX and Texas, San Antonio, 78201",Showers,49,45,50,44,100,97,30.01 Steady ,48,4,ENE,9
Wed Feb  3 12:46:03 2010," US and USA, TX and Texas, San Antonio, 78201",Showers,49,45,50,44,100,97,30.00 Steady ,48,3,E,9
Wed Feb  3 13:29:46 2010," US and USA, TX and Texas, San Antonio, 78201",Rain,50,50,50,44,100,93,29.98 Falling Rapidly ,48,2.5,ENE,15to21
Wed Feb  3 14:15:54 2010," US and USA, TX and Texas, San Antonio, 78201",Showers,50,50,50,44,100,96,29.97 Falling ,49,5,ENE,10to17
Wed Feb  3 15:01:54 2010," US and USA, TX and Texas, San Antonio, 78201",Rain,50,50,50,44,100,94,29.98 Rising ,48,2.5,ENE,12to18
Wed Feb  3 15:46:42 2010," US and USA, TX and Texas, San Antonio, 78201",Showers,50,46,50,44,100,96,29.99 Steady ,48,4,ENE,8to17
Wed Feb  3 16:32:35 2010," US and USA, TX and Texas, San Antonio, 78201",Rain,50,50,50,44,100,96,30.01 Steady ,49,2.5,ENE,10
Wed Feb  3 17:19:46 2010," US and USA, TX and Texas, San Antonio, 78201",Showers,50,50,50,44,100,96,29.99 Falling Rapidly ,49,4,ENE,13to20
Wed Feb  3 18:08:04 2010," US and USA, TX and Texas, San Antonio, 78201",Cloudy,50,44,50,44,100,95,29.99 Steady ,48,5,ENE,16to23
Wed Feb  3 18:51:11 2010," US and USA, TX and Texas, San Antonio, 78201",Rain,50,50,50,44,100,94,29.96 Falling Rapidly ,48,1.5,E,17to24
Wed Feb  3 19:35:27 2010," US and USA, TX and Texas, San Antonio, 78201",Showers,50,44,50,45,100,96,29.93 Steady ,49,5,E,16to22
Wed Feb  3 20:19:31 2010," US and USA, TX and Texas, San Antonio, 78201",Rain,49,43,50,45,100,97,29.92 Falling ,48,1.5,E,17to23
Wed Feb  3 21:03:50 2010," US and USA, TX and Texas, San Antonio, 78201",Showers,48,41,50,45,100,100,29.91 Steady ,48,3,E,18to22
Wed Feb  3 21:51:55 2010," US and USA, TX and Texas, San Antonio, 78201",Showers,48,42,50,45,100,94,29.87 Rising ,47,6,ENE,18to23
Wed Feb  3 22:37:28 2010," US and USA, TX and Texas, San Antonio, 78201",Cloudy,49,43,50,45,100,93,29.88 Steady ,47,5,E,17
Wed Feb  3 23:28:23 2010," US and USA, TX and Texas, San Antonio, 78201",Showers,49,45,50,45,100,97,29.88 Steady ,48,2,E,10
Thu Feb  4 00:13:19 2010," US and USA, TX and Texas, San Antonio, 78201",Showers,50,50,50,45,100,93,29.88 Steady ,48,6,ENE,8
Thu Feb  4 00:57:22 2010," US and USA, TX and Texas, San Antonio, 78201",Cloudy,50,46,50,45,100,92,29.88 Steady ,48,7,ENE,9
Thu Feb  4 01:40:40 2010," US and USA, TX and Texas, San Antonio, 78201",Cloudy,50,44,50,45,100,92,29.83 Steady ,48,7,E,18to25
Thu Feb  4 02:28:23 2010," US and USA, TX and Texas, San Antonio, 78201",Cloudy,50,50,50,45,90,96,29.88 Rising Rapidly ,49,6,ENE,12to20
Thu Feb  4 03:11:35 2010," US and USA, TX and Texas, San Antonio, 78201",Showers,50,50,50,45,90,94,29.87 Steady ,48,2,ENE,12to20
Thu Feb  4 03:56:02 2010," US and USA, TX and Texas, San Antonio, 78201",Showers,50,45,50,45,70,97,29.87 Steady ,49,7,ENE,12
Thu Feb  4 04:39:18 2010," US and USA, TX and Texas, San Antonio, 78201",Showers,50,50,50,45,60,96,29.88 Steady ,49,3,ENE,9
Thu Feb  4 05:22:41 2010," US and USA, TX and Texas, San Antonio, 78201",Showers,50,50,50,45,60,96,29.90 Rising Rapidly ,49,2,ENE,7
Thu Feb  4 15:00:17 2010," US and USA, TX and Texas, San Antonio, 78201",Fog,48,45,52,42,40,100,29.84 Steady ,48,1.2,NNE,7
Thu Jan 28 15:39:55 2010," US and USA, TX and Texas, San Antonio, 78201",Rain,63,63,67,42,70,100,30.02 Steady ,63,1.5,ESE,21to25
Thu Jan 28 16:00:44 2010," US and USA, TX and Texas, San Antonio, 78201",Rain,63,63,67,42,70,100,30.02 Steady ,63,1.5,ESE,21to25
Thu Jan 28 16:50:02 2010," US and USA, TX and Texas, San Antonio, 78201",Showers,64,64,67,42,70,94,30.00 Falling Rapidly ,63,1.5,SE,28to35
Thu Jan 28 17:14:16 2010," US and USA, TX and Texas, San Antonio, 78201",Showers,64,64,67,42,70,96,30.02 Rising Rapidly ,63,1.5,SE,19
Thu Jan 28 17:30:17 2010," US and USA, TX and Texas, San Antonio, 78201",Showers,64,64,67,42,70,96,30.02 Rising Rapidly ,63,1.5,SE,19
Fri Jan 29 08:42:29 2010," US and USA, TX and Texas, San Antonio, 78201",Showers,55,55,68,42,50,86,29.89 Steady ,51,6,N,23to31
Fri Jan 29 09:26:25 2010," US and USA, TX and Texas, San Antonio, 78201",Showers,56,56,52,31,80,90,29.89 Falling ,53,5,N,13to20
Fri Jan 29 11:58:27 2010," US and USA, TX and Texas, San Antonio, 78201",Showers,46,40,52,31,100,83,29.90 Steady ,42,7,NNW,17to28
Fri Jan 29 12:43:09 2010," US and USA, TX and Texas, San Antonio, 78201",Rain,45,37,52,31,100,87,29.94 Steady ,41,5,NNW,20to26
Fri Jan 29 13:30:52 2010," US and USA, TX and Texas, San Antonio, 78201",Showers,45,38,53,31,100,90,29.98 Rising Rapidly ,42,10,NNW,14to22
Fri Jan 29 14:18:42 2010," US and USA, TX and Texas, San Antonio, 78201",Showers,43,34,53,31,100,93,30.00 Rising Rapidly ,41,10,NNW,21to25
Fri Jan 29 15:03:30 2010," US and USA, TX and Texas, San Antonio, 78201",Rain,41,33,53,31,100,87,30.04 Rising Rapidly ,37,4,NNW,14to22
Fri Jan 29 15:49:02 2010," US and USA, TX and Texas, San Antonio, 78201",Cloudy,40,32,53,31,100,93,30.05 Steady ,39,5,NNW,16to26
Fri Jan 29 16:36:51 2010," US and USA, TX and Texas, San Antonio, 78201",Showers,42,34,53,31,100,85,30.05 Steady ,38,8,NNW,17to25
Fri Jan 29 17:21:16 2010," US and USA, TX and Texas, San Antonio, 78201",Showers,43,34,53,31,90,82,30.06 Rising ,38,10,NNW,21to28
Fri Jan 29 18:09:45 2010," US and USA, TX and Texas, San Antonio, 78201",Mostly Cloudy,46,38,53,31,90,72,30.06 Steady ,38,10,NNW,22to29
Fri Jan 29 18:54:43 2010," US and USA, TX and Texas, San Antonio, 78201",Partly Cloudy,47,39,52,31,60,69,30.07 Steady ,37,10,NNW,25to32
Fri Jan 29 19:46:42 2010," US and USA, TX and Texas, San Antonio, 78201",Partly Cloudy,48,42,51,31,40,67,30.06 Steady ,38,10,NNW,19to24
Fri Jan 29 20:44:32 2010," US and USA, TX and Texas, San Antonio, 78201",Partly Cloudy,49,42,51,31,40,63,30.03 Steady ,37,10,NW,20to26
Fri Jan 29 21:29:08 2010," US and USA, TX and Texas, San Antonio, 78201",Partly Cloudy,49,43,51,31,10,64,30.02 Falling ,37,10,NW,15to24
Fri Jan 29 22:15:45 2010," US and USA, TX and Texas, San Antonio, 78201",Partly Cloudy,48,41,51,31,10,61,30.02 Steady ,35,10,WNW,19to25
Fri Jan 29 23:00:40 2010," US and USA, TX and Texas, San Antonio, 78201",Partly Cloudy,47,39,51,31,10,58,30.02 Steady ,33,10,NW,22to28
Fri Jan 29 23:44:56 2010," US and USA, TX and Texas, San Antonio, 78201",Mostly Sunny,46,39,51,31,10,57,30.03 Steady ,31,10,NNW,16to27
Sat Jan 30 00:29:01 2010," US and USA, TX and Texas, San Antonio, 78201",Partly Cloudy,46,40,51,31,10,56,30.04 Rising ,31,10,NNW,15to24
Sat Jan 30 01:13:10 2010," US and USA, TX and Texas, San Antonio, 78201",Partly Cloudy,44,36,51,31,10,53,30.07 Rising Rapidly ,28,10,NW,17to25
Sat Jan 30 01:57:08 2010," US and USA, TX and Texas, San Antonio, 78201",Partly Cloudy,42,34,51,31,10,55,30.07 Steady ,27,9,NW,19to26
Sat Jan 30 02:41:25 2010," US and USA, TX and Texas, San Antonio, 78201",Mostly Clear,40,32,51,31,10,62,30.08 Steady ,28,10,NNW,15
Sat Jan 30 03:24:56 2010," US and USA, TX and Texas, San Antonio, 78201",Partly Cloudy,40,33,51,31,10,63,30.10 Rising Rapidly ,28,10,NNW,12
Sat Jan 30 04:08:52 2010," US and USA, TX and Texas, San Antonio, 78201",Mostly Clear,38,29,51,31,10,63,30.10 Steady ,26,10,NNW,14
Sat Jan 30 04:52:38 2010," US and USA, TX and Texas, San Antonio, 78201",Mostly Clear,37,31,51,31,0,66,30.10 Steady ,27,10,NNW,9
Sat Jan 30 05:36:24 2010," US and USA, TX and Texas, San Antonio, 78201",Clear,36,30,51,31,0,67,30.12 Steady ,26,10,NNW,8
Sat Jan 30 06:20:28 2010," US and USA, TX and Texas, San Antonio, 78201",Clear,36,30,51,31,0,67,30.12 Steady ,26,10,NNW,8
Sat Jan 30 07:06:27 2010," US and USA, TX and Texas, San Antonio, 78201",Clear,34,27,51,31,0,70,30.14 Steady ,25,10,NNW,9
Sat Jan 30 07:49:08 2010," US and USA, TX and Texas, San Antonio, 78201",Clear,33,26,51,31,0,73,30.14 Steady ,26,10,NNW,8
Sat Jan 30 08:32:22 2010," US and USA, TX and Texas, San Antonio, 78201",Clear,33,25,51,31,0,68,30.12 Steady ,24,10,N,12
Sat Jan 30 11:14:08 2010," US and USA, TX and Texas, San Antonio, 78201",Clear,32,27,53,31,0,73,30.16 Rising Rapidly ,24,10,WNW,5
Sat Jan 30 12:01:58 2010," US and USA, TX and Texas, San Antonio, 78201",Clear,32,25,53,31,0,67,30.16 Steady ,24,10,NW,7
Sat Jan 30 12:45:35 2010," US and USA, TX and Texas, San Antonio, 78201",Clear,31,24,53,31,0,71,30.16 Steady ,24,10,NNW,8
Sat Jan 30 13:28:48 2010," US and USA, TX and Texas, San Antonio, 78201",Partly Cloudy,31,24,53,31,0,71,30.17 Rising ,24,10,NNW,7
Sat Jan 30 14:13:00 2010," US and USA, TX and Texas, San Antonio, 78201",Partly Cloudy,31,31,53,31,0,71,30.18 Rising ,24,10,NNW,3
Sat Jan 30 14:57:16 2010," US and USA, TX and Texas, San Antonio, 78201",Mostly Sunny,32,25,53,31,0,68,30.18 Steady ,24,10,N,8
Sat Jan 30 15:42:54 2010," US and USA, TX and Texas, San Antonio, 78201",Sunny,32,27,53,31,0,75,30.20 Steady ,25,10,NNW,6
Sat Jan 30 16:27:52 2010," US and USA, TX and Texas, San Antonio, 78201",Sunny,33,27,53,31,0,73,30.20 Steady ,25,10,N,7
Sat Jan 30 17:12:19 2010," US and USA, TX and Texas, San Antonio, 78201",Mostly Sunny,37,28,53,31,0,62,30.21 Steady ,25,10,N,12
Sat Jan 30 17:55:30 2010," US and USA, TX and Texas, San Antonio, 78201",Mostly Sunny,39,30,53,31,0,60,30.24 Steady ,26,10,N,14
Sat Jan 30 18:39:29 2010," US and USA, TX and Texas, San Antonio, 78201",Mostly Sunny,41,36,52,31,0,56,30.24 Steady ,27,10,NNW,9
Sat Jan 30 19:22:47 2010," US and USA, TX and Texas, San Antonio, 78201",Partly Cloudy,44,41,50,31,0,53,30.22 Falling Rapidly ,28,10,NNW,6
Sat Jan 30 20:07:03 2010," US and USA, TX and Texas, San Antonio, 78201",Mostly Sunny,46,43,50,31,0,52,30.22 Steady ,29,10,NNW,7
Sat Jan 30 20:50:08 2010," US and USA, TX and Texas, San Antonio, 78201",Mostly Sunny,49,44,50,31,0,50,30.19 Steady ,31,10,NNW,13
Sat Jan 30 21:33:54 2010," US and USA, TX and Texas, San Antonio, 78201",Mostly Sunny,51,51,50,31,0,49,30.16 Steady ,32,10,N,10to17
Sat Jan 30 22:17:25 2010," US and USA, TX and Texas, San Antonio, 78201",Partly Cloudy,52,52,50,31,0,49,30.14 Falling Rapidly ,33,10,N,13to17
Sat Jan 30 23:02:51 2010," US and USA, TX and Texas, San Antonio, 78201",Mostly Sunny,52,52,50,31,0,51,30.14 Steady ,34,9,N,13
Sat Jan 30 23:47:45 2010," US and USA, TX and Texas, San Antonio, 78201",Mostly Sunny,51,51,50,31,0,51,30.13 Steady ,34,9,NNE,8
Sun Jan 31 00:31:45 2010," US and USA, TX and Texas, San Antonio, 78201",Mostly Sunny,50,50,50,31,0,53,30.14 Steady ,33,9,N,11
Sun Jan 31 01:22:11 2010," US and USA, TX and Texas, San Antonio, 78201",Partly Cloudy,50,50,50,31,0,52,30.15 Rising ,33,10,NNE,7
Sun Jan 31 02:06:11 2010," US and USA, TX and Texas, San Antonio, 78201",Mostly Clear,48,44,50,31,0,58,30.15 Steady ,33,8,NNE,9
Sun Jan 31 02:49:35 2010," US and USA, TX and Texas, San Antonio, 78201",Mostly Clear,45,41,50,31,0,62,30.17 Steady ,33,10,NE,8
Sun Jan 31 03:33:30 2010," US and USA, TX and Texas, San Antonio, 78201",Clear,42,37,50,31,0,70,30.19 Steady ,33,10,NE,8
Sun Jan 31 04:17:18 2010," US and USA, TX and Texas, San Antonio, 78201",Clear,41,36,50,31,0,70,30.20 Rising ,32,10,NNE,8
Sun Jan 31 05:01:34 2010," US and USA, TX and Texas, San Antonio, 78201",Clear,39,33,50,31,0,74,30.20 Steady ,32,9,NNE,9
Sun Jan 31 05:47:57 2010," US and USA, TX and Texas, San Antonio, 78201",Clear,38,33,50,31,0,77,30.21 Steady ,32,10,NE,7
Sun Jan 31 06:32:48 2010," US and USA, TX and Texas, San Antonio, 78201",Clear,37,37,50,31,0,79,30.23 Rising Rapidly ,31,10,CALM,0
Sun Jan 31 07:15:41 2010," US and USA, TX and Texas, San Antonio, 78201",Clear,35,30,50,31,10,85,30.24 Rising ,31,10,ENE,6
Sun Jan 31 08:02:24 2010," US and USA, TX and Texas, San Antonio, 78201",Clear,35,29,50,31,10,86,30.24 Steady ,31,10,ENE,6
Sun Jan 31 08:47:05 2010," US and USA, TX and Texas, San Antonio, 78201",Clear,34,28,50,31,10,86,30.23 Steady ,30,10,ENE,6
Sun Jan 31 09:30:20 2010," US and USA, TX and Texas, San Antonio, 78201",Clear,32,27,54,40,10,88,30.23 Steady ,29,10,ENE,5
Sun Jan 31 10:13:31 2010," US and USA, TX and Texas, San Antonio, 78201",Clear,31,31,54,40,10,91,30.23 Steady ,29,8,NE,3
Sun Jan 31 10:57:18 2010," US and USA, TX and Texas, San Antonio, 78201",Cloudy,30,25,54,40,10,90,30.22 Falling ,28,6,NE,5
Sun Jan 31 11:40:49 2010," US and USA, TX and Texas, San Antonio, 78201",Cloudy,32,26,54,40,10,85,30.23 Steady ,28,6,ENE,6
Sun Jan 31 12:24:24 2010," US and USA, TX and Texas, San Antonio, 78201",Cloudy,32,26,54,40,10,88,30.24 Rising ,29,6,ENE,7
Sun Jan 31 13:07:47 2010," US and USA, TX and Texas, San Antonio, 78201",Cloudy,33,26,54,40,10,86,30.24 Steady ,29,6,ENE,8
Sun Jan 31 13:51:24 2010," US and USA, TX and Texas, San Antonio, 78201",Cloudy,32,25,54,40,10,88,30.24 Steady ,29,5,ENE,9
Sun Jan 31 14:34:12 2010," US and USA, TX and Texas, San Antonio, 78201",Cloudy,31,25,54,40,10,90,30.27 Steady ,29,6,NE,7
Sun Jan 31 15:18:18 2010," US and USA, TX and Texas, San Antonio, 78201",Cloudy,31,23,54,40,10,91,30.26 Falling ,29,4,ENE,9
Sun Jan 31 16:01:51 2010," US and USA, TX and Texas, San Antonio, 78201",Cloudy,31,23,54,40,10,89,30.26 Steady ,29,5,ENE,9
Sun Jan 31 16:51:38 2010," US and USA, TX and Texas, San Antonio, 78201",Cloudy,32,26,54,40,10,88,30.27 Rising ,29,4,NE,7
Sun Jan 31 17:35:15 2010," US and USA, TX and Texas, San Antonio, 78201",Cloudy,33,27,54,40,10,89,30.30 Steady ,30,5,ENE,7
Sun Jan 31 18:20:15 2010," US and USA, TX and Texas, San Antonio, 78201",Cloudy,32,26,54,40,10,92,30.30 Steady ,30,4,ENE,7
Sun Jan 31 19:04:03 2010," US and USA, TX and Texas, San Antonio, 78201",Cloudy,34,28,54,40,10,88,30.30 Steady ,31,5,ENE,6
Sun Jan 31 19:49:32 2010," US and USA, TX and Texas, San Antonio, 78201",Cloudy,34,27,52,37,10,85,30.28 Steady ,30,5,ESE,9
Sun Jan 31 20:32:22 2010," US and USA, TX and Texas, San Antonio, 78201",Cloudy,34,34,52,37,10,85,30.26 Steady ,30,5,ENE,4
Sun Jan 31 21:17:00 2010," US and USA, TX and Texas, San Antonio, 78201",Cloudy,34,34,52,37,10,85,30.22 Falling Rapidly ,30,5,E,3
Sun Jan 31 21:59:48 2010," US and USA, TX and Texas, San Antonio, 78201",Cloudy,36,32,52,37,20,80,30.22 Steady ,30,6,E,4
Sun Jan 31 22:44:37 2010," US and USA, TX and Texas, San Antonio, 78201",Cloudy,37,33,52,37,20,80,30.19 Steady ,31,6,NE,5
Sun Jan 31 23:27:57 2010," US and USA, TX and Texas, San Antonio, 78201",Cloudy,37,32,52,37,20,79,30.19 Steady ,31,7,NE,7
Mon Feb  1 00:11:55 2010," US and USA, TX and Texas, San Antonio, 78201",Cloudy,36,30,52,37,20,82,30.17 Falling Rapidly ,31,7,ENE,8
Mon Feb  1 00:54:50 2010," US and USA, TX and Texas, San Antonio, 78201",Cloudy,36,29,52,37,20,84,30.17 Steady ,31,7,ENE,9
Mon Feb  1 01:41:07 2010," US and USA, TX and Texas, San Antonio, 78201",Cloudy,36,30,52,37,20,80,30.17 Steady ,30,7,NE,7
Mon Feb  1 02:25:07 2010," US and USA, TX and Texas, San Antonio, 78201",Cloudy,36,31,52,35,20,82,30.18 Rising ,31,7,E,6
Mon Feb  1 03:08:47 2010," US and USA, TX and Texas, San Antonio, 78201",Cloudy,35,30,52,35,20,86,30.18 Steady ,31,7,E,6
Mon Feb  1 03:53:28 2010," US and USA, TX and Texas, San Antonio, 78201",Cloudy,35,30,52,36,20,84,30.19 Steady ,31,7,NE,6
Mon Feb  1 04:38:17 2010," US and USA, TX and Texas, San Antonio, 78201",Cloudy,36,31,52,35,20,83,30.20 Steady ,31,7,NE,6
Mon Feb  1 05:21:25 2010," US and USA, TX and Texas, San Antonio, 78201",Cloudy,36,31,52,35,20,86,30.19 Falling ,32,5,ENE,6
Mon Feb  1 06:06:19 2010," US and USA, TX and Texas, San Antonio, 78201",Cloudy,36,31,52,35,20,85,30.19 Steady ,32,5,NE,6
Mon Feb  1 06:49:29 2010," US and USA, TX and Texas, San Antonio, 78201",Cloudy,36,32,52,35,20,86,30.19 Steady ,32,5,ENE,5
Mon Feb  1 07:33:18 2010," US and USA, TX and Texas, San Antonio, 78201",Cloudy,36,36,52,35,20,89,30.18 Steady ,33,5,E,3
Mon Feb  1 08:16:43 2010," US and USA, TX and Texas, San Antonio, 78201",Cloudy,36,36,52,35,20,89,30.18 Steady ,33,5,ESE,2
Mon Feb  1 09:00:11 2010," US and USA, TX and Texas, San Antonio, 78201",Cloudy,36,32,52,35,20,89,30.16 Steady ,33,5,E,6
Mon Feb  1 09:43:08 2010," US and USA, TX and Texas, San Antonio, 78201",Cloudy,36,31,49,46,20,89,30.14 Steady ,33,5,NE,7
Mon Feb  1 10:26:42 2010," US and USA, TX and Texas, San Antonio, 78201",Cloudy,36,32,50,46,20,89,30.13 Falling ,33,4,NNE,5
Mon Feb  1 11:09:38 2010," US and USA, TX and Texas, San Antonio, 78201",Cloudy,36,31,50,46,20,89,30.13 Steady ,33,5,NE,7
Mon Feb  1 11:53:06 2010," US and USA, TX and Texas, San Antonio, 78201",Cloudy,36,31,49,46,20,89,30.12 Steady ,33,6,NE,6
Mon Feb  1 12:36:28 2010," US and USA, TX and Texas, San Antonio, 78201",Cloudy,37,34,49,46,20,88,30.12 Steady ,34,5,NE,4
Mon Feb  1 13:19:59 2010," US and USA, TX and Texas, San Antonio, 78201",Drizzle,36,36,49,46,20,100,30.11 Falling ,36,1.5,NE,3
Mon Feb  1 14:03:53 2010," US and USA, TX and Texas, San Antonio, 78201",Fog,36,36,49,46,20,100,30.11 Steady ,36,1.5,NE,3
Mon Feb  1 14:48:57 2010," US and USA, TX and Texas, San Antonio, 78201",Drizzle,37,37,50,46,30,93,30.11 Steady ,36,1.3,CALM,0
Mon Feb  1 15:32:41 2010," US and USA, TX and Texas, San Antonio, 78201",Fog,38,38,49,46,30,93,30.12 Steady ,36,0.9,N,3
Mon Feb  1 16:17:25 2010," US and USA, TX and Texas, San Antonio, 78201",Fog,38,38,49,46,30,93,30.12 Steady ,36,0.6,N,3
Mon Feb  1 17:02:11 2010," US and USA, TX and Texas, San Antonio, 78201",Cloudy,38,34,49,46,30,96,30.13 Steady ,37,5,NE,5
Mon Feb  1 17:45:59 2010," US and USA, TX and Texas, San Antonio, 78201",Cloudy,40,37,49,46,20,89,30.14 Steady ,37,5,E,5
Mon Feb  1 18:29:29 2010," US and USA, TX and Texas, San Antonio, 78201",Drizzle,39,39,49,46,20,100,30.13 Falling ,39,2,CALM,0
Mon Feb  1 19:13:15 2010," US and USA, TX and Texas, San Antonio, 78201",Drizzle,42,42,50,45,20,92,30.12 Steady ,40,2,CALM,0
Mon Feb  1 19:58:05 2010," US and USA, TX and Texas, San Antonio, 78201",Cloudy,44,44,50,45,20,91,30.11 Steady ,42,5,CALM,0
Mon Feb  1 20:44:30 2010," US and USA, TX and Texas, San Antonio, 78201",Drizzle,43,43,50,45,20,93,30.07 Falling ,41,1.8,CALM,0
Mon Feb  1 21:29:30 2010," US and USA, TX and Texas, San Antonio, 78201",Drizzle,45,45,50,45,30,93,30.05 Falling Rapidly ,43,1.3,CALM,0
Mon Feb  1 22:12:51 2010," US and USA, TX and Texas, San Antonio, 78201",Cloudy,45,45,50,45,30,93,30.05 Steady ,43,5,CALM,0
Mon Feb  1 22:56:11 2010," US and USA, TX and Texas, San Antonio, 78201",Drizzle,45,45,50,45,30,93,30.04 Rising ,43,2.5,CALM,0
Mon Feb  1 23:42:18 2010," US and USA, TX and Texas, San Antonio, 78201",Drizzle,45,45,50,45,30,100,30.04 Steady ,45,1.5,ENE,3
Tue Feb  2 00:29:12 2010," US and USA, TX and Texas, San Antonio, 78201",Drizzle,45,45,50,45,30,97,30.04 Steady ,44,1,CALM,0
Tue Feb  2 01:14:48 2010," US and USA, TX and Texas, San Antonio, 78201",Drizzle,46,44,50,45,30,93,30.04 Steady ,44,1,E,5
Tue Feb  2 01:57:55 2010," US and USA, TX and Texas, San Antonio, 78201",Fog,46,43,50,45,30,92,30.04 Steady ,44,1.9,ENE,6
Tue Feb  2 02:41:58 2010," US and USA, TX and Texas, San Antonio, 78201",Cloudy,45,43,50,45,30,97,30.04 Steady ,44,5,E,4
Tue Feb  2 03:25:29 2010," US and USA, TX and Texas, San Antonio, 78201",Drizzle,45,45,50,45,30,97,30.05 Rising ,44,1,ENE,3
Tue Feb  2 04:09:16 2010," US and USA, TX and Texas, San Antonio, 78201",Fog,45,42,50,45,30,95,30.05 Steady ,44,1.6,ENE,5
Tue Feb  2 04:52:50 2010," US and USA, TX and Texas, San Antonio, 78201",Fog,45,45,50,44,30,96,30.05 Steady ,44,1.8,CALM,0
Tue Feb  2 05:36:13 2010," US and USA, TX and Texas, San Antonio, 78201",Cloudy,45,45,50,45,30,96,30.06 Steady ,44,5,NNE,3
Tue Feb  2 06:19:30 2010," US and USA, TX and Texas, San Antonio, 78201",Drizzle,46,44,50,45,30,93,30.06 Steady ,45,0.3,NNE,5
Tue Feb  2 07:06:38 2010," US and USA, TX and Texas, San Antonio, 78201",Cloudy,46,46,50,45,30,95,30.05 Steady ,45,5,CALM,0
Tue Feb  2 07:49:37 2010," US and USA, TX and Texas, San Antonio, 78201",Drizzle,46,46,50,45,30,93,30.06 Steady ,45,0.3,CALM,0
Tue Feb  2 08:32:49 2010," US and USA, TX and Texas, San Antonio, 78201",Cloudy,47,47,50,45,30,92,30.06 Steady ,45,5,CALM,0
Tue Feb  2 09:16:19 2010," US and USA, TX and Texas, San Antonio, 78201",Drizzle,47,47,52,49,30,97,30.07 Rising ,46,0.3,N,3
Tue Feb  2 09:59:51 2010," US and USA, TX and Texas, San Antonio, 78201",Cloudy,47,45,52,49,30,96,30.07 Steady ,46,5,N,4
Tue Feb  2 10:43:25 2010," US and USA, TX and Texas, San Antonio, 78201",Fog,47,44,52,49,30,96,30.06 Steady ,46,1.5,N,6
Tue Feb  2 11:27:32 2010," US and USA, TX and Texas, San Antonio, 78201",Drizzle,47,47,52,49,30,100,30.07 Rising ,47,0.3,NNE,3
Tue Feb  2 12:11:33 2010," US and USA, TX and Texas, San Antonio, 78201",Fog,47,45,52,49,30,99,30.07 Steady ,47,0.9,NNE,4
Tue Feb  2 12:55:26 2010," US and USA, TX and Texas, San Antonio, 78201",Fog,48,48,52,49,30,95,30.08 Steady ,47,1.1,CALM,0
Tue Feb  2 13:38:47 2010," US and USA, TX and Texas, San Antonio, 78201",Fog,48,46,52,49,30,95,30.08 Steady ,47,1.1,NNE,5
Tue Feb  2 14:22:26 2010," US and USA, TX and Texas, San Antonio, 78201",Drizzle,48,46,52,49,30,96,30.10 Rising Rapidly ,47,0.3,NE,5
Tue Feb  2 15:06:48 2010," US and USA, TX and Texas, San Antonio, 78201",Fog,48,46,52,49,30,94,30.10 Steady ,46,1.1,NE,4
Tue Feb  2 15:53:12 2010," US and USA, TX and Texas, San Antonio, 78201",Fog,48,44,52,49,30,95,30.11 Steady ,47,0.9,NE,9
Tue Feb  2 16:45:42 2010," US and USA, TX and Texas, San Antonio, 78201",Fog,48,45,52,49,30,93,30.14 Rising ,46,1.6,NE,8
Tue Feb  2 17:34:10 2010," US and USA, TX and Texas, San Antonio, 78201",Cloudy,49,44,52,49,30,95,30.16 Steady ,47,5,NNE,9
Tue Feb  2 18:18:45 2010," US and USA, TX and Texas, San Antonio, 78201",Fog,49,46,52,49,30,97,30.17 Steady ,48,1.3,NE,7
Tue Feb  2 19:02:56 2010," US and USA, TX and Texas, San Antonio, 78201",Fog,50,50,52,49,30,93,30.16 Steady ,48,1.5,NE,8
Tue Feb  2 19:52:21 2010," US and USA, TX and Texas, San Antonio, 78201",Fog,53,53,52,49,30,84,30.12 Steady ,48,1.5,NE,10
Tue Feb  2 20:43:30 2010," US and USA, TX and Texas, San Antonio, 78201",Cloudy,52,52,52,49,30,88,30.11 Steady ,49,5,NE,11
Tue Feb  2 21:30:21 2010," US and USA, TX and Texas, San Antonio, 78201",Cloudy,53,53,52,49,80,86,30.09 Falling Rapidly ,49,6,NNE,9
Tue Feb  2 22:18:44 2010," US and USA, TX and Texas, San Antonio, 78201",Cloudy,53,53,52,49,80,86,30.09 Steady ,49,6,ENE,9
Tue Feb  2 23:03:02 2010," US and USA, TX and Texas, San Antonio, 78201",Cloudy,53,53,52,49,80,85,30.09 Steady ,48,6,NE,9
Tue Feb  2 23:48:20 2010," US and USA, TX and Texas, San Antonio, 78201",Cloudy,52,52,52,49,80,90,30.10 Steady ,49,6,NE,10
Wed Feb  3 00:32:45 2010," US and USA, TX and Texas, San Antonio, 78201",Drizzle,52,52,52,49,80,88,30.12 Steady ,48,3,NE,13
Wed Feb  3 01:19:55 2010," US and USA, TX and Texas, San Antonio, 78201",Drizzle,51,51,52,49,80,89,30.12 Steady ,48,3,NE,10
Wed Feb  3 02:05:08 2010," US and USA, TX and Texas, San Antonio, 78201",Fog,51,51,52,49,80,91,30.12 Steady ,48,1.5,NE,10
Wed Feb  3 02:53:26 2010," US and USA, TX and Texas, San Antonio, 78201",Fog,51,51,52,49,80,89,30.12 Steady ,48,1.5,NE,9
Wed Feb  3 03:40:14 2010," US and USA, TX and Texas, San Antonio, 78201",Cloudy,52,52,52,49,80,82,30.11 Falling ,46,6,NE,12
Wed Feb  3 04:28:23 2010," US and USA, TX and Texas, San Antonio, 78201",Cloudy,51,51,52,49,80,86,30.12 Rising ,47,9,NE,10
Wed Feb  3 05:15:14 2010," US and USA, TX and Texas, San Antonio, 78201",Showers,51,51,52,49,80,86,30.12 Steady ,47,8,NE,9
Wed Feb  3 06:03:02 2010," US and USA, TX and Texas, San Antonio, 78201",Cloudy,51,51,52,49,80,86,30.12 Steady ,47,8,NE,10
Thu Feb  4 06:05:32 2010," US and USA, TX and Texas, San Antonio, 78201",Showers,50,50,50,45,60,96,29.90 Steady ,49,3,NE,6
Thu Feb  4 06:48:36 2010," US and USA, TX and Texas, San Antonio, 78201",Cloudy,50,47,50,45,60,92,29.89 Steady ,48,5,NE,7
Thu Feb  4 07:32:13 2010," US and USA, TX and Texas, San Antonio, 78201",Showers,49,45,50,45,50,97,29.88 Falling ,48,2,NE,8
Thu Feb  4 08:14:45 2010," US and USA, TX and Texas, San Antonio, 78201",Fog,48,44,50,45,50,99,29.86 Steady ,48,1.5,ENE,8
Thu Feb  4 08:58:25 2010," US and USA, TX and Texas, San Antonio, 78201",Mostly Cloudy,49,45,50,45,50,95,29.86 Steady ,47,3,ENE,8
Thu Feb  4 09:42:22 2010," US and USA, TX and Texas, San Antonio, 78201",Mostly Cloudy,49,45,52,42,40,96,29.86 Steady ,48,3,NE,8
Thu Feb  4 10:26:01 2010," US and USA, TX and Texas, San Antonio, 78201",Fog,49,46,52,42,40,97,29.85 Falling ,48,2,NE,7
Thu Feb  4 11:11:56 2010," US and USA, TX and Texas, San Antonio, 78201",Showers,48,46,52,42,40,100,29.83 Falling Rapidly ,48,4,ENE,6
Thu Feb  4 11:55:28 2010," US and USA, TX and Texas, San Antonio, 78201",Cloudy,49,47,52,42,40,96,29.83 Steady ,48,5,ENE,6
Thu Feb  4 12:38:33 2010," US and USA, TX and Texas, San Antonio, 78201",Cloudy,50,50,52,42,40,93,29.84 Steady ,48,5,NE,7
Thu Feb  4 13:22:37 2010," US and USA, TX and Texas, San Antonio, 78201",Showers,49,46,52,42,40,97,29.83 Steady ,48,2,NE,6
Thu Feb  4 14:07:27 2010," US and USA, TX and Texas, San Antonio, 78201",Cloudy,49,47,52,42,40,96,29.83 Steady ,48,5,NE,5
Wed Feb  3 06:49:46 2010," US and USA, TX and Texas, San Antonio, 78201",Rain,50,50,52,49,80,94,30.11 Steady ,48,2,ENE,10
Wed Feb  3 07:34:28 2010," US and USA, WA and Washington, Seattle, 98101",Partly Cloudy,47,47,54,42,50,72,29.76 Steady ,38,10,CALM,0
Wed Feb  3 08:17:35 2010," US and USA, WA and Washington, Seattle, 98101",Partly Cloudy,47,47,54,42,50,72,29.76 Steady ,38,10,CALM,0
Wed Feb  3 09:04:06 2010," US and USA, WA and Washington, Seattle, 98101",Partly Cloudy,45,45,54,42,50,74,29.76 Steady ,37,10,CALM,0
Wed Feb  3 09:47:56 2010," US and USA, WA and Washington, Seattle, 98101",Mostly Cloudy,44,44,54,42,50,76,29.76 Steady ,37,10,CALM,0
Wed Feb  3 10:31:21 2010," US and USA, WA and Washington, Seattle, 98101",Mostly Cloudy,44,44,54,42,50,79,29.75 Falling ,38,10,CALM,0
Wed Feb  3 11:18:12 2010," US and USA, WA and Washington, Seattle, 98101",Cloudy,42,42,51,43,50,85,29.74 Falling ,38,10,CALM,0
Wed Feb  3 12:02:56 2010," US and USA, WA and Washington, Seattle, 98101",Cloudy,42,42,51,43,50,85,29.74 Steady ,38,10,SE,1
Wed Feb  3 12:46:08 2010," US and USA, WA and Washington, Seattle, 98101",Cloudy,42,42,51,43,50,86,29.74 Steady ,38,10,ENE,1
Wed Feb  3 13:29:51 2010," US and USA, WA and Washington, Seattle, 98101",Cloudy,42,42,51,43,50,89,29.73 Falling ,39,10,CALM,0
Wed Feb  3 14:15:59 2010," US and USA, WA and Washington, Seattle, 98101",Showers,46,46,51,43,50,86,29.72 Falling ,42,7,NNW,3
Wed Feb  3 15:02:00 2010," US and USA, WA and Washington, Seattle, 98101",Cloudy,46,46,51,43,50,87,29.72 Steady ,42,7,NNW,3
Wed Feb  3 15:46:47 2010," US and USA, WA and Washington, Seattle, 98101",Partly Cloudy,43,43,51,43,50,87,29.71 Steady ,39,10,CALM,0
Wed Feb  3 16:32:40 2010," US and USA, WA and Washington, Seattle, 98101",Mostly Cloudy,42,42,51,43,50,89,29.72 Rising ,39,10,CALM,0
Wed Feb  3 17:19:51 2010," US and USA, WA and Washington, Seattle, 98101",Cloudy,45,45,51,43,50,82,29.72 Steady ,40,10,CALM,0
Wed Feb  3 18:08:09 2010," US and USA, WA and Washington, Seattle, 98101",Mostly Cloudy,46,46,51,43,50,80,29.72 Steady ,40,10,W,1
Wed Feb  3 18:51:16 2010," US and USA, WA and Washington, Seattle, 98101",Cloudy,47,47,50,43,50,85,29.74 Steady ,42,9,WNW,1
Wed Feb  3 19:35:32 2010," US and USA, WA and Washington, Seattle, 98101",Showers,46,43,51,43,50,89,29.76 Steady ,43,3,SSE,6
Wed Feb  3 20:19:36 2010," US and USA, WA and Washington, Seattle, 98101",Showers,45,45,51,43,50,90,29.76 Steady ,42,8,SE,3
Wed Feb  3 21:03:55 2010," US and USA, WA and Washington, Seattle, 98101",Rain,45,45,51,43,50,92,29.76 Steady ,42,2.6,E,1
Wed Feb  3 21:52:00 2010," US and USA, WA and Washington, Seattle, 98101",Showers,45,45,51,43,50,89,29.75 Steady ,42,9,CALM,0
Wed Feb  3 22:37:33 2010," US and USA, WA and Washington, Seattle, 98101",Showers,46,43,50,43,50,89,29.74 Steady ,43,7,SE,6
Wed Feb  3 23:28:29 2010," US and USA, WA and Washington, Seattle, 98101",Showers,47,47,50,43,40,90,29.72 Falling Rapidly ,44,9,CALM,0
Thu Feb  4 00:13:24 2010," US and USA, WA and Washington, Seattle, 98101",Showers,49,47,50,43,40,83,29.70 Falling Rapidly ,44,10,NE,5
Thu Feb  4 00:57:26 2010," US and USA, WA and Washington, Seattle, 98101",Mostly Cloudy,49,47,50,43,40,82,29.70 Steady ,44,10,NE,5
Thu Feb  4 01:40:44 2010," US and USA, WA and Washington, Seattle, 98101",Mostly Cloudy,49,49,50,43,40,78,29.70 Steady ,43,10,CALM,0
Thu Feb  4 02:28:29 2010," US and USA, WA and Washington, Seattle, 98101",Mostly Cloudy,50,50,50,43,40,77,29.70 Steady ,43,10,ENE,3
Thu Feb  4 03:11:40 2010," US and USA, WA and Washington, Seattle, 98101",Cloudy,49,49,50,43,40,78,29.70 Steady ,42,10,CALM,0
Thu Feb  4 03:56:07 2010," US and USA, WA and Washington, Seattle, 98101",Showers,47,43,50,43,40,89,29.72 Steady ,44,7,W,8
Thu Feb  4 04:39:24 2010," US and USA, WA and Washington, Seattle, 98101",Rain,46,46,50,43,40,93,29.73 Falling ,45,4,CALM,0
Thu Feb  4 05:22:46 2010," US and USA, WA and Washington, Seattle, 98101",Cloudy,47,47,50,43,40,90,29.73 Steady ,44,10,E,3
Thu Feb  4 15:00:22 2010," US and USA, WA and Washington, Seattle, 98101",Mostly Cloudy,43,43,54,46,30,90,29.74 Steady ,40,10,SSE,1
Thu Jan 28 15:40:01 2010," US and USA, WA and Washington, Seattle, 98101",Cloudy,43,43,54,45,10,91,30.07 Steady ,40,10,CALM,0
Thu Jan 28 16:00:49 2010," US and USA, WA and Washington, Seattle, 98101",Cloudy,43,43,54,45,10,91,30.07 Steady ,40,10,CALM,0
Thu Jan 28 16:50:07 2010," US and USA, WA and Washington, Seattle, 98101",Cloudy,43,43,54,45,10,88,30.06 Steady ,40,10,CALM,0
Thu Jan 28 17:14:22 2010," US and USA, WA and Washington, Seattle, 98101",Cloudy,45,45,54,45,10,82,30.06 Steady ,40,10,CALM,0
Thu Jan 28 17:30:22 2010," US and USA, WA and Washington, Seattle, 98101",Cloudy,45,45,54,45,10,82,30.06 Steady ,40,10,CALM,0
Fri Jan 29 08:42:34 2010," US and USA, WA and Washington, Seattle, 98101",Partly Cloudy,47,47,53,45,30,60,30.00 Steady ,33,10,SE,3
Fri Jan 29 09:26:30 2010," US and USA, WA and Washington, Seattle, 98101",Partly Cloudy,46,46,53,44,50,63,30.00 Steady ,34,10,CALM,0
Fri Jan 29 11:58:32 2010," US and USA, WA and Washington, Seattle, 98101",Partly Cloudy,43,43,55,44,50,73,29.97 Steady ,35,9,SSE,1
Fri Jan 29 12:43:14 2010," US and USA, WA and Washington, Seattle, 98101",Mostly Cloudy,45,45,55,44,50,72,29.96 Steady ,36,10,ESE,1
Fri Jan 29 13:30:58 2010," US and USA, WA and Washington, Seattle, 98101",Mostly Cloudy,44,44,55,44,50,73,29.96 Steady ,36,10,CALM,0
Fri Jan 29 14:18:47 2010," US and USA, WA and Washington, Seattle, 98101",Mostly Cloudy,45,45,55,44,50,76,29.96 Steady ,38,10,CALM,0
Fri Jan 29 15:03:35 2010," US and USA, WA and Washington, Seattle, 98101",Mostly Cloudy,45,45,55,44,50,76,29.96 Steady ,38,10,CALM,0
Fri Jan 29 15:49:07 2010," US and USA, WA and Washington, Seattle, 98101",Mostly Cloudy,43,43,55,44,50,79,29.97 Steady ,37,10,S,1
Fri Jan 29 16:36:57 2010," US and USA, WA and Washington, Seattle, 98101",Mostly Cloudy,45,41,55,44,50,71,29.96 Falling ,36,10,SE,7
Fri Jan 29 17:21:21 2010," US and USA, WA and Washington, Seattle, 98101",Cloudy,46,46,55,44,50,68,29.98 Rising Rapidly ,36,10,CALM,0
Fri Jan 29 18:09:50 2010," US and USA, WA and Washington, Seattle, 98101",Cloudy,46,46,55,44,50,72,29.98 Steady ,37,9,CALM,0
Fri Jan 29 18:54:48 2010," US and USA, WA and Washington, Seattle, 98101",Cloudy,50,50,55,44,50,61,29.99 Steady ,37,10,CALM,0
Fri Jan 29 19:46:47 2010," US and USA, WA and Washington, Seattle, 98101",Cloudy,51,51,54,43,50,63,29.98 Steady ,38,10,CALM,0
Fri Jan 29 20:44:37 2010," US and USA, WA and Washington, Seattle, 98101",Cloudy,53,53,54,43,50,58,29.99 Steady ,38,10,CALM,0
Fri Jan 29 21:29:14 2010," US and USA, WA and Washington, Seattle, 98101",Cloudy,54,54,54,43,50,53,29.98 Falling ,37,10,CALM,0
Fri Jan 29 22:15:50 2010," US and USA, WA and Washington, Seattle, 98101",Cloudy,54,54,56,43,50,53,29.96 Falling Rapidly ,37,10,CALM,0
Fri Jan 29 23:00:45 2010," US and USA, WA and Washington, Seattle, 98101",Cloudy,54,54,56,43,50,52,29.96 Steady ,37,10,CALM,0
Fri Jan 29 23:45:00 2010," US and USA, WA and Washington, Seattle, 98101",Partly Cloudy,55,55,56,43,70,52,29.95 Steady ,37,10,CALM,0
Sat Jan 30 00:29:06 2010," US and USA, WA and Washington, Seattle, 98101",Mostly Cloudy,56,56,56,43,70,49,29.95 Steady ,37,10,CALM,0
Sat Jan 30 01:13:15 2010," US and USA, WA and Washington, Seattle, 98101",Mostly Cloudy,54,54,56,43,70,54,29.95 Steady ,38,9,SSW,2
Sat Jan 30 01:57:13 2010," US and USA, WA and Washington, Seattle, 98101",Cloudy,53,53,56,43,70,55,29.96 Steady ,37,10,CALM,0
Sat Jan 30 02:41:30 2010," US and USA, WA and Washington, Seattle, 98101",Cloudy,53,53,56,43,70,58,29.96 Steady ,38,10,CALM,0
Sat Jan 30 03:25:01 2010," US and USA, WA and Washington, Seattle, 98101",Cloudy,52,52,56,43,70,63,29.96 Steady ,40,10,CALM,0
Sat Jan 30 04:08:57 2010," US and USA, WA and Washington, Seattle, 98101",Cloudy,51,51,56,43,70,68,29.96 Steady ,41,8,CALM,0
Sat Jan 30 04:52:43 2010," US and USA, WA and Washington, Seattle, 98101",Cloudy,53,53,56,43,70,63,29.96 Steady ,41,10,CALM,0
Sat Jan 30 05:36:29 2010," US and USA, WA and Washington, Seattle, 98101",Cloudy,51,51,56,43,70,76,29.96 Steady ,43,10,NNW,4
Sat Jan 30 06:20:33 2010," US and USA, WA and Washington, Seattle, 98101",Cloudy,51,51,56,43,70,76,29.96 Steady ,43,10,NNW,4
Sat Jan 30 07:06:32 2010," US and USA, WA and Washington, Seattle, 98101",Cloudy,50,50,56,43,70,77,29.97 Steady ,43,10,CALM,0
Sat Jan 30 07:49:13 2010," US and USA, WA and Washington, Seattle, 98101",Mostly Cloudy,49,49,56,43,70,84,29.98 Steady ,44,10,E,1
Sat Jan 30 08:32:27 2010," US and USA, WA and Washington, Seattle, 98101",Showers,49,47,56,43,70,77,29.98 Steady ,42,7,SE,5
Sat Jan 30 11:14:14 2010," US and USA, WA and Washington, Seattle, 98101",Showers,46,46,50,45,60,89,29.98 Steady ,43,10,SE,3
Sat Jan 30 12:02:03 2010," US and USA, WA and Washington, Seattle, 98101",Showers,46,46,50,45,60,91,29.98 Steady ,43,7,SSE,3
Sat Jan 30 12:45:40 2010," US and USA, WA and Washington, Seattle, 98101",Mostly Cloudy,46,46,50,45,60,90,29.98 Steady ,43,10,S,4
Sat Jan 30 13:28:53 2010," US and USA, WA and Washington, Seattle, 98101",Showers,45,43,50,45,60,90,29.97 Falling ,42,9,SE,5
Sat Jan 30 14:13:05 2010," US and USA, WA and Washington, Seattle, 98101",Cloudy,45,43,50,45,60,91,29.97 Steady ,42,9,SE,5
Sat Jan 30 14:57:21 2010," US and USA, WA and Washington, Seattle, 98101",Cloudy,46,46,50,45,60,86,29.97 Steady ,42,9,CALM,0
Sat Jan 30 15:42:59 2010," US and USA, WA and Washington, Seattle, 98101",Showers,45,45,50,45,60,90,29.97 Steady ,42,7,CALM,0
Sat Jan 30 16:27:57 2010," US and USA, WA and Washington, Seattle, 98101",Showers,45,45,50,45,60,90,29.97 Steady ,42,7,CALM,0
Sat Jan 30 17:12:25 2010," US and USA, WA and Washington, Seattle, 98101",Showers,44,44,50,45,60,93,29.97 Steady ,42,7,SE,4
Sat Jan 30 17:55:35 2010," US and USA, WA and Washington, Seattle, 98101",Showers,45,45,50,45,60,90,29.97 Steady ,42,7,SE,4
Sat Jan 30 18:39:34 2010," US and USA, WA and Washington, Seattle, 98101",Showers,45,45,50,45,60,93,29.98 Steady ,43,7,SSE,3
Sat Jan 30 19:22:52 2010," US and USA, WA and Washington, Seattle, 98101",Cloudy,46,44,51,46,60,89,29.99 Rising ,43,10,SSE,5
Sat Jan 30 20:07:08 2010," US and USA, WA and Washington, Seattle, 98101",Cloudy,46,44,51,46,60,89,29.99 Steady ,43,10,SSE,5
Sat Jan 30 20:50:13 2010," US and USA, WA and Washington, Seattle, 98101",Cloudy,47,47,51,46,60,84,29.99 Steady ,43,10,SE,3
Sat Jan 30 21:33:59 2010," US and USA, WA and Washington, Seattle, 98101",Cloudy,48,48,51,46,50,87,29.99 Steady ,45,10,SE,3
Sat Jan 30 22:17:30 2010," US and USA, WA and Washington, Seattle, 98101",Cloudy,48,46,50,46,50,86,29.98 Falling ,44,10,SE,5
Sat Jan 30 23:02:56 2010," US and USA, WA and Washington, Seattle, 98101",Mostly Cloudy,48,45,50,46,40,87,29.98 Steady ,44,10,SSE,6
Sat Jan 30 23:47:51 2010," US and USA, WA and Washington, Seattle, 98101",Showers,49,47,50,46,40,85,29.97 Steady ,45,7,SE,5
Sun Jan 31 00:31:50 2010," US and USA, WA and Washington, Seattle, 98101",Showers,48,48,50,46,40,86,29.97 Steady ,44,10,SE,3
Sun Jan 31 01:22:16 2010," US and USA, WA and Washington, Seattle, 98101",Showers,48,48,50,46,40,86,29.97 Steady ,44,8,CALM,0
Sun Jan 31 02:06:16 2010," US and USA, WA and Washington, Seattle, 98101",Showers,48,48,50,46,40,87,29.97 Steady ,45,10,SSE,3
Sun Jan 31 02:49:40 2010," US and USA, WA and Washington, Seattle, 98101",Cloudy,46,46,50,46,40,93,29.97 Steady ,45,9,CALM,0
Sun Jan 31 03:33:35 2010," US and USA, WA and Washington, Seattle, 98101",Cloudy,46,44,50,46,40,87,29.97 Steady ,43,9,S,4
Sun Jan 31 04:17:23 2010," US and USA, WA and Washington, Seattle, 98101",Cloudy,47,47,50,46,40,90,29.98 Steady ,44,10,CALM,0
Sun Jan 31 05:01:39 2010," US and USA, WA and Washington, Seattle, 98101",Cloudy,47,47,50,45,40,90,29.98 Steady ,44,10,NW,1
Sun Jan 31 05:48:02 2010," US and USA, WA and Washington, Seattle, 98101",Cloudy,47,47,50,46,40,90,29.97 Steady ,44,10,SE,3
Sun Jan 31 06:32:53 2010," US and USA, WA and Washington, Seattle, 98101",Cloudy,47,47,50,46,40,90,29.97 Steady ,44,10,SE,3
Sun Jan 31 07:15:46 2010," US and USA, WA and Washington, Seattle, 98101",Cloudy,47,47,50,46,40,90,29.98 Rising ,44,10,SSW,3
Sun Jan 31 08:02:29 2010," US and USA, WA and Washington, Seattle, 98101",Cloudy,47,47,50,45,30,90,29.98 Steady ,44,10,SSW,3
Sun Jan 31 08:47:10 2010," US and USA, WA and Washington, Seattle, 98101",Cloudy,47,47,50,45,30,89,29.98 Steady ,44,10,SSW,1
Sun Jan 31 09:30:25 2010," US and USA, WA and Washington, Seattle, 98101",Cloudy,47,47,50,45,30,90,29.98 Steady ,44,10,SSE,3
Sun Jan 31 10:13:36 2010," US and USA, WA and Washington, Seattle, 98101",Showers,47,47,50,45,30,90,29.97 Falling ,44,10,S,3
Sun Jan 31 10:57:23 2010," US and USA, WA and Washington, Seattle, 98101",Cloudy,47,47,50,45,30,89,29.97 Steady ,44,10,S,4
Sun Jan 31 11:40:54 2010," US and USA, WA and Washington, Seattle, 98101",Cloudy,47,47,51,40,30,90,29.98 Steady ,44,7,S,4
Sun Jan 31 12:24:29 2010," US and USA, WA and Washington, Seattle, 98101",Showers,47,47,51,40,30,90,29.98 Steady ,44,9,SE,3
Sun Jan 31 13:07:52 2010," US and USA, WA and Washington, Seattle, 98101",Cloudy,47,47,51,40,30,89,29.98 Steady ,44,10,SSE,4
Sun Jan 31 13:51:29 2010," US and USA, WA and Washington, Seattle, 98101",Cloudy,47,45,51,40,30,89,29.97 Steady ,44,10,ESE,5
Sun Jan 31 14:34:17 2010," US and USA, WA and Washington, Seattle, 98101",Cloudy,47,47,51,40,30,90,29.98 Steady ,44,8,SE,4
Sun Jan 31 15:18:23 2010," US and USA, WA and Washington, Seattle, 98101",Showers,47,45,51,40,30,90,29.98 Steady ,44,10,SE,5
Sun Jan 31 16:01:55 2010," US and USA, WA and Washington, Seattle, 98101",Cloudy,47,45,51,40,30,90,29.98 Steady ,44,10,SE,5
Sun Jan 31 16:51:43 2010," US and USA, WA and Washington, Seattle, 98101",Cloudy,47,47,51,40,30,90,29.98 Steady ,44,10,CALM,0
Sun Jan 31 17:35:20 2010," US and USA, WA and Washington, Seattle, 98101",Cloudy,47,47,51,40,30,86,29.99 Steady ,43,10,CALM,0
Sun Jan 31 18:20:20 2010," US and USA, WA and Washington, Seattle, 98101",Cloudy,47,47,51,40,30,86,30.00 Rising ,43,10,CALM,0
Sun Jan 31 19:04:08 2010," US and USA, WA and Washington, Seattle, 98101",Cloudy,48,48,51,40,30,84,30.00 Steady ,43,10,CALM,0
Sun Jan 31 19:49:37 2010," US and USA, WA and Washington, Seattle, 98101",Cloudy,49,49,51,40,30,85,30.01 Steady ,45,10,S,3
Sun Jan 31 20:32:27 2010," US and USA, WA and Washington, Seattle, 98101",Mostly Cloudy,49,49,51,40,30,83,30.01 Steady ,44,10,SSE,3
Sun Jan 31 21:17:05 2010," US and USA, WA and Washington, Seattle, 98101",Cloudy,48,45,50,40,30,86,30.01 Steady ,44,10,SSE,6
Sun Jan 31 21:59:53 2010," US and USA, WA and Washington, Seattle, 98101",Cloudy,48,45,50,40,20,85,30.01 Steady ,43,10,SSE,6
Sun Jan 31 22:44:42 2010," US and USA, WA and Washington, Seattle, 98101",Cloudy,49,46,50,40,20,80,29.98 Steady ,43,10,SSE,6
Sun Jan 31 23:28:02 2010," US and USA, WA and Washington, Seattle, 98101",Cloudy,50,50,50,40,10,77,29.97 Falling ,43,10,SW,5
Mon Feb  1 00:12:00 2010," US and USA, WA and Washington, Seattle, 98101",Cloudy,50,48,50,40,10,77,29.97 Steady ,43,10,SW,5
Mon Feb  1 00:54:55 2010," US and USA, WA and Washington, Seattle, 98101",Cloudy,49,47,50,40,10,78,29.97 Steady ,43,10,S,6
Mon Feb  1 01:41:12 2010," US and USA, WA and Washington, Seattle, 98101",Cloudy,50,50,50,40,10,74,29.97 Steady ,42,10,SSW,3
Mon Feb  1 02:25:12 2010," US and USA, WA and Washington, Seattle, 98101",Mostly Cloudy,50,50,50,40,10,74,29.97 Steady ,42,10,CALM,0
Mon Feb  1 03:08:52 2010," US and USA, WA and Washington, Seattle, 98101",Mostly Cloudy,49,49,50,40,10,77,29.97 Steady ,42,10,SW,1
Mon Feb  1 03:53:33 2010," US and USA, WA and Washington, Seattle, 98101",Cloudy,48,48,50,40,10,78,29.97 Steady ,42,10,CALM,0
Mon Feb  1 04:38:22 2010," US and USA, WA and Washington, Seattle, 98101",Cloudy,46,46,50,40,10,88,29.98 Steady ,43,10,SSE,1
Mon Feb  1 05:21:30 2010," US and USA, WA and Washington, Seattle, 98101",Cloudy,48,48,50,40,10,83,29.97 Falling ,43,10,CALM,0
Mon Feb  1 06:06:24 2010," US and USA, WA and Washington, Seattle, 98101",Cloudy,48,48,50,40,10,82,29.97 Steady ,43,10,CALM,0
Mon Feb  1 06:49:34 2010," US and USA, WA and Washington, Seattle, 98101",Cloudy,48,48,50,40,10,83,29.97 Steady ,43,10,WSW,1
Mon Feb  1 07:33:24 2010," US and USA, WA and Washington, Seattle, 98101",Mostly Cloudy,47,47,50,40,10,87,29.97 Steady ,43,10,CALM,0
Mon Feb  1 08:16:48 2010," US and USA, WA and Washington, Seattle, 98101",Mostly Cloudy,47,47,50,40,10,87,29.97 Steady ,43,10,CALM,0
Mon Feb  1 09:00:16 2010," US and USA, WA and Washington, Seattle, 98101",Cloudy,46,46,50,40,60,87,29.96 Steady ,43,10,E,1
Mon Feb  1 09:43:13 2010," US and USA, WA and Washington, Seattle, 98101",Cloudy,46,44,50,40,60,87,29.96 Steady ,42,8,SE,4
Mon Feb  1 10:26:46 2010," US and USA, WA and Washington, Seattle, 98101",Mostly Cloudy,47,47,50,40,60,86,29.95 Falling ,43,10,CALM,0
Mon Feb  1 11:09:43 2010," US and USA, WA and Washington, Seattle, 98101",Mostly Cloudy,47,47,50,40,60,87,29.95 Steady ,43,10,SSE,1
Mon Feb  1 11:53:11 2010," US and USA, WA and Washington, Seattle, 98101",Partly Cloudy,45,45,51,43,60,86,29.94 Steady ,41,10,S,1
Mon Feb  1 12:36:33 2010," US and USA, WA and Washington, Seattle, 98101",Partly Cloudy,42,42,51,43,60,86,29.93 Steady ,39,9,CALM,0
Mon Feb  1 13:20:04 2010," US and USA, WA and Washington, Seattle, 98101",Partly Cloudy,42,42,51,43,60,85,29.92 Falling ,38,3,CALM,0
Mon Feb  1 14:03:58 2010," US and USA, WA and Washington, Seattle, 98101",Partly Cloudy,42,42,51,43,60,85,29.92 Steady ,38,5,CALM,0
Mon Feb  1 14:49:01 2010," US and USA, WA and Washington, Seattle, 98101",Partly Cloudy,39,39,51,43,60,93,29.90 Steady ,37,9,CALM,0
Mon Feb  1 15:32:46 2010," US and USA, WA and Washington, Seattle, 98101",Partly Cloudy,39,39,51,43,60,87,29.91 Rising ,36,10,CALM,0
Mon Feb  1 16:17:30 2010," US and USA, WA and Washington, Seattle, 98101",Partly Cloudy,39,39,51,43,60,87,29.91 Steady ,35,10,CALM,0
Mon Feb  1 17:02:16 2010," US and USA, WA and Washington, Seattle, 98101",Partly Cloudy,39,39,51,43,60,89,29.91 Steady ,37,9,CALM,0
Mon Feb  1 17:46:04 2010," US and USA, WA and Washington, Seattle, 98101",Fog,39,39,51,43,60,91,29.90 Steady ,37,1.5,CALM,0
Mon Feb  1 18:29:34 2010," US and USA, WA and Washington, Seattle, 98101",Mostly Cloudy,42,42,51,43,60,89,29.89 Falling ,39,10,CALM,0
Mon Feb  1 19:13:20 2010," US and USA, WA and Washington, Seattle, 98101",Cloudy,45,45,51,43,60,84,29.89 Steady ,40,10,CALM,0
Mon Feb  1 19:58:10 2010," US and USA, WA and Washington, Seattle, 98101",Mostly Cloudy,45,45,50,43,60,86,29.89 Steady ,41,10,SW,2
Mon Feb  1 20:44:35 2010," US and USA, WA and Washington, Seattle, 98101",Cloudy,46,46,50,43,60,81,29.90 Steady ,41,10,SSW,1
Mon Feb  1 21:29:35 2010," US and USA, WA and Washington, Seattle, 98101",Cloudy,48,48,49,43,60,77,29.88 Falling Rapidly ,41,10,CALM,0
Mon Feb  1 22:12:56 2010," US and USA, WA and Washington, Seattle, 98101",Cloudy,49,49,49,43,60,72,29.88 Steady ,41,10,CALM,0
Mon Feb  1 22:56:16 2010," US and USA, WA and Washington, Seattle, 98101",Mostly Cloudy,50,50,50,43,60,65,29.86 Steady ,39,10,CALM,0
Mon Feb  1 23:42:23 2010," US and USA, WA and Washington, Seattle, 98101",Cloudy,49,49,50,43,70,72,29.84 Steady ,40,10,W,1
Tue Feb  2 00:29:17 2010," US and USA, WA and Washington, Seattle, 98101",Cloudy,50,50,50,43,70,66,29.84 Steady ,39,10,CALM,0
Tue Feb  2 01:14:53 2010," US and USA, WA and Washington, Seattle, 98101",Showers,49,49,50,43,70,69,29.84 Steady ,39,10,CALM,0
Tue Feb  2 01:58:00 2010," US and USA, WA and Washington, Seattle, 98101",Showers,47,47,50,43,70,73,29.84 Steady ,39,7,CALM,0
Tue Feb  2 02:42:04 2010," US and USA, WA and Washington, Seattle, 98101",Showers,48,48,50,43,70,81,29.84 Steady ,42,7,CALM,0
Tue Feb  2 03:25:34 2010," US and USA, WA and Washington, Seattle, 98101",Showers,48,48,50,43,70,80,29.85 Rising ,42,10,CALM,0
Tue Feb  2 04:09:21 2010," US and USA, WA and Washington, Seattle, 98101",Cloudy,48,48,50,43,70,81,29.85 Steady ,42,9,ESE,1
Tue Feb  2 04:52:55 2010," US and USA, WA and Washington, Seattle, 98101",Cloudy,47,44,50,43,70,87,29.85 Steady ,43,5,S,6
Tue Feb  2 05:36:18 2010," US and USA, WA and Washington, Seattle, 98101",Cloudy,47,47,50,43,70,86,29.84 Steady ,43,10,SSW,1
Tue Feb  2 06:19:35 2010," US and USA, WA and Washington, Seattle, 98101",Cloudy,47,47,50,43,70,85,29.84 Steady ,43,10,SSW,1
Tue Feb  2 07:06:43 2010," US and USA, WA and Washington, Seattle, 98101",Cloudy,47,47,50,43,70,86,29.85 Steady ,43,9,SSE,1
Tue Feb  2 07:49:42 2010," US and USA, WA and Washington, Seattle, 98101",Mostly Cloudy,46,46,50,43,70,90,29.85 Steady ,43,10,SE,1
Tue Feb  2 08:32:54 2010," US and USA, WA and Washington, Seattle, 98101",Showers,46,43,50,43,70,90,29.87 Steady ,43,6,SE,5
Tue Feb  2 09:16:25 2010," US and USA, WA and Washington, Seattle, 98101",Showers,46,44,50,44,40,89,29.86 Falling ,43,7,ESE,5
Tue Feb  2 09:59:55 2010," US and USA, WA and Washington, Seattle, 98101",Showers,46,43,50,44,40,87,29.86 Steady ,43,7,SSE,6
Tue Feb  2 10:43:30 2010," US and USA, WA and Washington, Seattle, 98101",Cloudy,45,42,50,44,40,92,29.87 Steady ,43,7,SSE,5
Tue Feb  2 11:27:37 2010," US and USA, WA and Washington, Seattle, 98101",Showers,45,42,55,41,40,93,29.87 Steady ,43,5,ESE,6
Tue Feb  2 12:11:38 2010," US and USA, WA and Washington, Seattle, 98101",Cloudy,45,42,55,41,40,93,29.87 Steady ,43,5,ESE,5
Tue Feb  2 12:55:30 2010," US and USA, WA and Washington, Seattle, 98101",Cloudy,44,40,55,41,40,90,29.87 Steady ,42,10,S,7
Tue Feb  2 13:38:52 2010," US and USA, WA and Washington, Seattle, 98101",Cloudy,44,40,55,41,40,90,29.87 Steady ,42,9,SE,7
Tue Feb  2 14:22:31 2010," US and USA, WA and Washington, Seattle, 98101",Mostly Cloudy,42,38,55,41,40,92,29.86 Falling ,40,10,SE,6
Tue Feb  2 15:06:53 2010," US and USA, WA and Washington, Seattle, 98101",Mostly Cloudy,42,38,55,41,40,91,29.86 Steady ,40,10,SE,8
Tue Feb  2 15:53:17 2010," US and USA, WA and Washington, Seattle, 98101",Mostly Cloudy,42,39,55,41,40,93,29.87 Steady ,41,10,SE,6
Tue Feb  2 16:45:47 2010," US and USA, WA and Washington, Seattle, 98101",Mostly Cloudy,41,39,55,41,40,93,29.87 Steady ,40,10,SE,4
Tue Feb  2 17:34:15 2010," US and USA, WA and Washington, Seattle, 98101",Partly Cloudy,40,40,56,41,40,90,29.88 Steady ,38,10,SE,1
Tue Feb  2 18:18:50 2010," US and USA, WA and Washington, Seattle, 98101",Partly Cloudy,44,42,55,41,40,89,29.89 Rising ,41,10,S,4
Tue Feb  2 19:03:01 2010," US and USA, WA and Washington, Seattle, 98101",Partly Cloudy,47,45,55,41,30,81,29.89 Steady ,41,10,S,5
Tue Feb  2 19:52:26 2010," US and USA, WA and Washington, Seattle, 98101",Mostly Cloudy,49,49,55,42,20,80,29.89 Steady ,43,10,CALM,0
Tue Feb  2 20:43:35 2010," US and USA, WA and Washington, Seattle, 98101",Mostly Cloudy,49,47,55,42,20,77,29.89 Steady ,42,10,SSE,5
Tue Feb  2 21:30:26 2010," US and USA, WA and Washington, Seattle, 98101",Mostly Cloudy,50,50,54,42,20,71,29.87 Falling Rapidly ,41,10,S,3
Tue Feb  2 22:18:49 2010," US and USA, WA and Washington, Seattle, 98101",Mostly Cloudy,52,52,54,42,20,61,29.84 Falling Rapidly ,39,10,CALM,0
Tue Feb  2 23:03:07 2010," US and USA, WA and Washington, Seattle, 98101",Mostly Cloudy,53,53,54,42,20,59,29.84 Steady ,39,10,CALM,0
Tue Feb  2 23:48:25 2010," US and USA, WA and Washington, Seattle, 98101",Partly Cloudy,54,54,54,42,50,58,29.82 Steady ,40,10,NE,5
Wed Feb  3 00:32:50 2010," US and USA, WA and Washington, Seattle, 98101",Mostly Cloudy,54,54,54,42,50,50,29.80 Steady ,36,10,ENE,5
Wed Feb  3 01:20:01 2010," US and USA, WA and Washington, Seattle, 98101",Mostly Cloudy,54,54,54,42,50,59,29.80 Steady ,40,10,NW,3
Wed Feb  3 02:05:13 2010," US and USA, WA and Washington, Seattle, 98101",Mostly Cloudy,52,52,54,42,50,63,29.80 Steady ,40,9,W,2
Wed Feb  3 02:53:31 2010," US and USA, WA and Washington, Seattle, 98101",Mostly Cloudy,50,50,54,42,50,65,29.79 Steady ,39,9,NW,5
Wed Feb  3 03:40:20 2010," US and USA, WA and Washington, Seattle, 98101",Clear,51,51,54,42,50,63,29.78 Steady ,39,10,WSW,5
Wed Feb  3 04:28:28 2010," US and USA, WA and Washington, Seattle, 98101",Mostly Cloudy,50,50,54,42,50,66,29.77 Falling ,39,10,CALM,0
Wed Feb  3 05:15:19 2010," US and USA, WA and Washington, Seattle, 98101",Partly Cloudy,49,49,54,42,50,69,29.77 Steady ,39,10,CALM,0
Wed Feb  3 06:03:07 2010," US and USA, WA and Washington, Seattle, 98101",Partly Cloudy,49,49,54,42,50,68,29.77 Steady ,39,10,CALM,0
Thu Feb  4 06:05:37 2010," US and USA, WA and Washington, Seattle, 98101",Cloudy,47,47,50,43,40,89,29.73 Steady ,44,10,ESE,4
Thu Feb  4 06:48:41 2010," US and USA, WA and Washington, Seattle, 98101",Cloudy,46,46,50,43,40,90,29.73 Steady ,44,9,CALM,0
Thu Feb  4 07:32:19 2010," US and USA, WA and Washington, Seattle, 98101",Showers,47,45,50,43,30,90,29.74 Rising ,44,10,ESE,5
Thu Feb  4 08:14:50 2010," US and USA, WA and Washington, Seattle, 98101",Cloudy,47,45,50,43,30,89,29.74 Steady ,44,10,ESE,4
Thu Feb  4 08:58:31 2010," US and USA, WA and Washington, Seattle, 98101",Cloudy,46,46,50,43,30,86,29.75 Steady ,42,10,E,1
Thu Feb  4 09:42:26 2010," US and USA, WA and Washington, Seattle, 98101",Cloudy,44,44,50,43,30,85,29.74 Steady ,40,10,CALM,0
Thu Feb  4 10:26:06 2010," US and USA, WA and Washington, Seattle, 98101",Showers,45,45,50,43,30,86,29.75 Rising ,41,10,CALM,0
Thu Feb  4 11:12:01 2010," US and USA, WA and Washington, Seattle, 98101",Cloudy,45,45,50,43,30,86,29.75 Steady ,41,8,ESE,1
Thu Feb  4 11:55:33 2010," US and USA, WA and Washington, Seattle, 98101",Cloudy,44,44,54,46,30,89,29.75 Steady ,41,10,E,1
Thu Feb  4 12:38:38 2010," US and USA, WA and Washington, Seattle, 98101",Mostly Cloudy,43,43,54,46,30,90,29.75 Steady ,40,10,ENE,1
Thu Feb  4 13:22:42 2010," US and USA, WA and Washington, Seattle, 98101",Mostly Cloudy,40,40,54,46,30,93,29.75 Steady ,38,10,CALM,0
Thu Feb  4 14:07:32 2010," US and USA, WA and Washington, Seattle, 98101",Mostly Cloudy,40,40,54,46,30,91,29.75 Steady ,38,10,CALM,0
Wed Feb  3 06:49:51 2010," US and USA, WA and Washington, Seattle, 98101",Partly Cloudy,46,46,54,42,50,77,29.77 Steady ,39,10,CALM,0
Wed Feb  3 07:34:29 2010," US and USA, WI and Wisconsin, Milwaukee, 53201",Cloudy,28,24,31,23,20,87,30.05 Steady ,26,5,WNW,4
Wed Feb  3 08:17:36 2010," US and USA, WI and Wisconsin, Milwaukee, 53201",Cloudy,28,24,31,23,20,88,30.06 Rising ,26,5,NW,4
Wed Feb  3 09:04:07 2010," US and USA, WI and Wisconsin, Milwaukee, 53201",Cloudy,28,21,31,23,20,84,30.07 Steady ,25,6,NW,6
Wed Feb  3 09:47:56 2010," US and USA, WI and Wisconsin, Milwaukee, 53201",Cloudy,28,19,27,20,20,78,30.09 Steady ,23,5,NW,9
Wed Feb  3 10:31:21 2010," US and USA, WI and Wisconsin, Milwaukee, 53201",Cloudy,28,21,27,20,20,75,30.11 Steady ,22,6,WNW,6
Wed Feb  3 11:18:13 2010," US and USA, WI and Wisconsin, Milwaukee, 53201",Cloudy,26,18,27,20,20,79,30.13 Rising Rapidly ,22,6,NW,7
Wed Feb  3 12:02:57 2010," US and USA, WI and Wisconsin, Milwaukee, 53201",Cloudy,25,15,27,20,20,72,30.14 Steady ,19,8,WNW,11
Wed Feb  3 12:46:09 2010," US and USA, WI and Wisconsin, Milwaukee, 53201",Cloudy,24,15,27,20,20,77,30.16 Rising ,19,7,NW,9
Wed Feb  3 13:29:51 2010," US and USA, WI and Wisconsin, Milwaukee, 53201",Cloudy,25,16,27,20,20,77,30.17 Rising ,19,8,WNW,8
Wed Feb  3 14:16:00 2010," US and USA, WI and Wisconsin, Milwaukee, 53201",Cloudy,24,14,27,20,20,77,30.18 Rising ,18,8,NW,8
Wed Feb  3 15:02:00 2010," US and USA, WI and Wisconsin, Milwaukee, 53201",Cloudy,23,14,27,20,20,77,30.19 Rising ,18,8,NW,8
Wed Feb  3 15:46:48 2010," US and USA, WI and Wisconsin, Milwaukee, 53201",Cloudy,23,14,27,20,20,77,30.21 Rising ,18,7,NW,8
Wed Feb  3 16:32:41 2010," US and USA, WI and Wisconsin, Milwaukee, 53201",Cloudy,24,14,27,20,20,77,30.24 Rising Rapidly ,19,5,WNW,9
Wed Feb  3 17:19:52 2010," US and USA, WI and Wisconsin, Milwaukee, 53201",Cloudy,25,16,28,20,20,73,30.27 Rising Rapidly ,19,7,NW,9
Wed Feb  3 18:08:10 2010," US and USA, WI and Wisconsin, Milwaukee, 53201",Cloudy,25,16,27,20,20,73,30.27 Steady ,19,7,NW,9
Wed Feb  3 18:51:17 2010," US and USA, WI and Wisconsin, Milwaukee, 53201",Mostly Cloudy,27,19,28,20,20,60,30.29 Steady ,17,8,NNW,8
Wed Feb  3 19:35:32 2010," US and USA, WI and Wisconsin, Milwaukee, 53201",Mostly Cloudy,27,20,28,20,20,61,30.31 Steady ,17,8,NNW,6
Wed Feb  3 20:19:37 2010," US and USA, WI and Wisconsin, Milwaukee, 53201",Mostly Cloudy,26,21,28,20,20,60,30.29 Falling Rapidly ,17,9,NW,5
Wed Feb  3 21:03:56 2010," US and USA, WI and Wisconsin, Milwaukee, 53201",Mostly Cloudy,26,21,28,20,20,59,30.29 Steady ,16,9,NW,4
Wed Feb  3 21:52:00 2010," US and USA, WI and Wisconsin, Milwaukee, 53201",Partly Cloudy,29,29,28,20,20,51,30.26 Steady ,16,10,NNE,2
Wed Feb  3 22:37:34 2010," US and USA, WI and Wisconsin, Milwaukee, 53201",Mostly Sunny,27,27,28,20,20,57,30.28 Rising Rapidly ,16,10,E,2
Wed Feb  3 23:28:30 2010," US and USA, WI and Wisconsin, Milwaukee, 53201",Sunny,26,26,28,20,20,56,30.29 Rising ,15,9,E,3
Thu Feb  4 00:13:25 2010," US and USA, WI and Wisconsin, Milwaukee, 53201",Mostly Sunny,25,25,28,20,20,60,30.32 Rising Rapidly ,15,9,E,2
Thu Feb  4 00:57:27 2010," US and USA, WI and Wisconsin, Milwaukee, 53201",Mostly Clear,24,24,28,20,20,62,30.32 Steady ,15,9,E,2
Thu Feb  4 01:40:45 2010," US and USA, WI and Wisconsin, Milwaukee, 53201",Clear,21,21,28,20,20,67,30.34 Steady ,14,9,CALM,0
Thu Feb  4 02:28:29 2010," US and USA, WI and Wisconsin, Milwaukee, 53201",Clear,21,21,28,20,20,73,30.35 Rising ,15,9,S,2
Thu Feb  4 03:11:41 2010," US and USA, WI and Wisconsin, Milwaukee, 53201",Clear,19,19,28,20,20,75,30.35 Steady ,14,9,S,2
Thu Feb  4 03:56:08 2010," US and USA, WI and Wisconsin, Milwaukee, 53201",Mostly Clear,19,19,28,20,20,74,30.37 Rising ,13,9,SSW,3
Thu Feb  4 04:39:24 2010," US and USA, WI and Wisconsin, Milwaukee, 53201",Mostly Clear,19,19,28,17,20,76,30.38 Steady ,14,8,CALM,0
Thu Feb  4 05:22:47 2010," US and USA, WI and Wisconsin, Milwaukee, 53201",Mostly Clear,18,18,28,17,20,82,30.38 Steady ,14,7,SW,2
Thu Feb  4 15:00:23 2010," US and USA, WI and Wisconsin, Milwaukee, 53201",Cloudy,21,21,33,29,10,86,30.37 Steady ,18,5,CALM,0
Thu Jan 28 15:40:02 2010," US and USA, WI and Wisconsin, Milwaukee, 53201",Partly Cloudy,5,-12,10,6,10,53,30.33 Steady ,-6,10,NW,14to26
Thu Jan 28 16:00:50 2010," US and USA, WI and Wisconsin, Milwaukee, 53201",Partly Cloudy,5,-12,10,6,10,53,30.33 Steady ,-6,10,NW,14to26
Thu Jan 28 16:50:08 2010," US and USA, WI and Wisconsin, Milwaukee, 53201",Mostly Sunny,5,-12,10,6,10,49,30.35 Steady ,-7,10,NNW,15to30
Thu Jan 28 17:14:23 2010," US and USA, WI and Wisconsin, Milwaukee, 53201",Mostly Sunny,6,-11,10,6,0,44,30.37 Rising Rapidly ,-8,10,NW,15to28
Thu Jan 28 17:30:23 2010," US and USA, WI and Wisconsin, Milwaukee, 53201",Mostly Sunny,6,-11,10,6,0,44,30.37 Rising Rapidly ,-8,10,NW,15to28
Fri Jan 29 08:42:35 2010," US and USA, WI and Wisconsin, Milwaukee, 53201",Clear,0,0,11,4,10,45,30.51 Steady ,-14,9,NW,4
Fri Jan 29 09:26:31 2010," US and USA, WI and Wisconsin, Milwaukee, 53201",Clear,-1,-11,11,4,0,48,30.52 Rising ,-13,10,NW,5
Fri Jan 29 11:58:33 2010," US and USA, WI and Wisconsin, Milwaukee, 53201",Mostly Clear,0,-11,15,5,10,51,30.49 Steady ,-11,10,NW,6
Fri Jan 29 12:43:15 2010," US and USA, WI and Wisconsin, Milwaukee, 53201",Mostly Clear,-1,-12,15,5,10,56,30.50 Steady ,-11,9,WNW,5
Fri Jan 29 13:30:59 2010," US and USA, WI and Wisconsin, Milwaukee, 53201",Mostly Clear,-2,-14,15,5,10,56,30.51 Rising ,-12,9,W,5
Fri Jan 29 14:18:48 2010," US and USA, WI and Wisconsin, Milwaukee, 53201",Partly Cloudy,0,-9,15,5,10,58,30.51 Steady ,-9,10,WNW,4
Fri Jan 29 15:03:36 2010," US and USA, WI and Wisconsin, Milwaukee, 53201",Partly Cloudy,-1,-11,15,5,10,59,30.51 Steady ,-10,7,WNW,4
Fri Jan 29 15:49:08 2010," US and USA, WI and Wisconsin, Milwaukee, 53201",Mostly Sunny,1,-12,15,5,10,54,30.51 Steady ,-10,10,NW,7
Fri Jan 29 16:36:57 2010," US and USA, WI and Wisconsin, Milwaukee, 53201",Mostly Sunny,3,-8,16,5,10,55,30.49 Falling Rapidly ,-7,10,NW,6
Fri Jan 29 17:21:22 2010," US and USA, WI and Wisconsin, Milwaukee, 53201",Mostly Sunny,8,8,16,5,10,46,30.50 Rising ,-6,10,NW,4
Fri Jan 29 18:09:51 2010," US and USA, WI and Wisconsin, Milwaukee, 53201",Mostly Sunny,9,0,15,5,10,42,30.50 Steady ,-7,10,NW,4
Fri Jan 29 18:54:49 2010," US and USA, WI and Wisconsin, Milwaukee, 53201",Mostly Sunny,10,10,15,5,10,40,30.52 Steady ,-6,10,CALM,0
Fri Jan 29 19:46:48 2010," US and USA, WI and Wisconsin, Milwaukee, 53201",Partly Cloudy,12,12,15,5,10,35,30.50 Steady ,-7,10,CALM,0
Fri Jan 29 20:44:38 2010," US and USA, WI and Wisconsin, Milwaukee, 53201",Mostly Sunny,13,13,15,5,10,32,30.47 Steady ,-8,9,CALM,0
Fri Jan 29 21:29:15 2010," US and USA, WI and Wisconsin, Milwaukee, 53201",Partly Cloudy,14,14,15,5,10,37,30.43 Falling Rapidly ,-4,9,ENE,3
Fri Jan 29 22:15:51 2010," US and USA, WI and Wisconsin, Milwaukee, 53201",Partly Cloudy,14,14,15,9,10,38,30.41 Falling Rapidly ,-3,9,NE,4
Fri Jan 29 23:00:46 2010," US and USA, WI and Wisconsin, Milwaukee, 53201",Partly Cloudy,13,13,15,9,10,44,30.41 Steady ,-2,7,ENE,3
Fri Jan 29 23:45:01 2010," US and USA, WI and Wisconsin, Milwaukee, 53201",Partly Cloudy,12,4,15,9,10,49,30.41 Steady ,-1,8,E,5
Sat Jan 30 00:29:07 2010," US and USA, WI and Wisconsin, Milwaukee, 53201",Mostly Clear,12,4,15,9,10,48,30.41 Steady ,-1,9,NE,4
Sat Jan 30 01:13:16 2010," US and USA, WI and Wisconsin, Milwaukee, 53201",Mostly Clear,11,11,15,9,10,54,30.41 Steady ,-1,9,NNE,2
Sat Jan 30 01:57:13 2010," US and USA, WI and Wisconsin, Milwaukee, 53201",Mostly Clear,8,8,15,9,10,57,30.41 Steady ,-2,8,NE,1
Sat Jan 30 02:41:31 2010," US and USA, WI and Wisconsin, Milwaukee, 53201",Partly Cloudy,10,3,15,9,10,57,30.40 Steady ,0,10,NNW,4
Sat Jan 30 03:25:02 2010," US and USA, WI and Wisconsin, Milwaukee, 53201",Partly Cloudy,9,9,15,9,10,62,30.37 Falling Rapidly ,1,10,NNW,3
Sat Jan 30 04:08:58 2010," US and USA, WI and Wisconsin, Milwaukee, 53201",Cloudy,11,11,15,9,10,60,30.37 Steady ,2,10,NNW,3
Sat Jan 30 04:52:44 2010," US and USA, WI and Wisconsin, Milwaukee, 53201",Cloudy,12,12,15,9,10,55,30.37 Steady ,1,9,NW,4
Sat Jan 30 05:36:30 2010," US and USA, WI and Wisconsin, Milwaukee, 53201",Cloudy,14,7,15,9,10,51,30.35 Steady ,2,10,WNW,5
Sat Jan 30 06:20:34 2010," US and USA, WI and Wisconsin, Milwaukee, 53201",Cloudy,14,7,15,9,10,51,30.35 Steady ,2,10,WNW,5
Sat Jan 30 07:06:33 2010," US and USA, WI and Wisconsin, Milwaukee, 53201",Cloudy,15,5,15,9,10,48,30.34 Steady ,2,10,NW,7
Sat Jan 30 07:49:14 2010," US and USA, WI and Wisconsin, Milwaukee, 53201",Cloudy,14,1,15,9,10,52,30.34 Falling ,2,10,NW,10
Sat Jan 30 08:32:28 2010," US and USA, WI and Wisconsin, Milwaukee, 53201",Cloudy,14,2,15,9,10,55,30.32 Steady ,3,9,N,9
Sat Jan 30 11:14:14 2010," US and USA, WI and Wisconsin, Milwaukee, 53201",Cloudy,16,8,22,10,10,63,30.28 Falling Rapidly ,7,7,N,5
Sat Jan 30 12:02:04 2010," US and USA, WI and Wisconsin, Milwaukee, 53201",Flurries,17,8,23,10,20,60,30.28 Steady ,7,7,N,7
Sat Jan 30 12:45:41 2010," US and USA, WI and Wisconsin, Milwaukee, 53201",Cloudy,17,8,23,10,20,64,30.27 Steady ,9,7,N,7
Sat Jan 30 13:28:54 2010," US and USA, WI and Wisconsin, Milwaukee, 53201",Cloudy,17,8,22,10,20,67,30.27 Steady ,10,8,N,7
Sat Jan 30 14:13:06 2010," US and USA, WI and Wisconsin, Milwaukee, 53201",Cloudy,16,9,22,10,30,71,30.26 Steady ,10,8,N,5
Sat Jan 30 14:57:22 2010," US and USA, WI and Wisconsin, Milwaukee, 53201",Cloudy,15,7,22,10,30,72,30.26 Steady ,9,8,NNW,5
Sat Jan 30 15:43:00 2010," US and USA, WI and Wisconsin, Milwaukee, 53201",Snow Showers,16,9,22,10,30,68,30.26 Steady ,9,5,NW,5
Sat Jan 30 16:27:58 2010," US and USA, WI and Wisconsin, Milwaukee, 53201",Snow Showers,16,9,22,10,30,69,30.26 Steady ,9,5,NW,5
Sat Jan 30 17:12:25 2010," US and USA, WI and Wisconsin, Milwaukee, 53201",Snow Showers,18,18,22,10,30,74,30.27 Rising ,12,0.8,NW,4
Sat Jan 30 17:55:35 2010," US and USA, WI and Wisconsin, Milwaukee, 53201",Snow Showers,19,19,22,10,20,73,30.27 Steady ,13,1.6,N,3
Sat Jan 30 18:39:35 2010," US and USA, WI and Wisconsin, Milwaukee, 53201",Snow Showers,20,20,22,10,20,79,30.25 Steady ,16,2.6,NNW,2
Sat Jan 30 19:22:53 2010," US and USA, WI and Wisconsin, Milwaukee, 53201",Snow Showers,21,21,23,14,30,77,30.23 Falling Rapidly ,16,3,N,1
Sat Jan 30 20:07:08 2010," US and USA, WI and Wisconsin, Milwaukee, 53201",Cloudy,23,23,23,14,30,73,30.23 Steady ,17,5,N,1
Sat Jan 30 20:50:13 2010," US and USA, WI and Wisconsin, Milwaukee, 53201",Cloudy,23,23,23,14,30,69,30.20 Steady ,16,5,CALM,0
Sat Jan 30 21:34:00 2010," US and USA, WI and Wisconsin, Milwaukee, 53201",Cloudy,22,22,23,14,30,64,30.19 Steady ,14,10,WNW,1
Sat Jan 30 22:17:31 2010," US and USA, WI and Wisconsin, Milwaukee, 53201",Cloudy,22,22,23,14,20,66,30.18 Falling ,14,10,S,4
Sat Jan 30 23:02:57 2010," US and USA, WI and Wisconsin, Milwaukee, 53201",Cloudy,21,21,23,14,20,68,30.18 Steady ,14,10,S,3
Sat Jan 30 23:47:51 2010," US and USA, WI and Wisconsin, Milwaukee, 53201",Cloudy,22,22,23,14,20,66,30.19 Steady ,14,9,SSW,3
Sun Jan 31 00:31:50 2010," US and USA, WI and Wisconsin, Milwaukee, 53201",Cloudy,22,14,23,14,20,64,30.18 Steady ,13,10,SW,6
Sun Jan 31 01:22:17 2010," US and USA, WI and Wisconsin, Milwaukee, 53201",Cloudy,21,14,23,14,20,65,30.17 Falling ,13,10,SW,5
Sun Jan 31 02:06:17 2010," US and USA, WI and Wisconsin, Milwaukee, 53201",Cloudy,20,13,23,14,20,67,30.17 Steady ,13,9,SW,5
Sun Jan 31 02:49:41 2010," US and USA, WI and Wisconsin, Milwaukee, 53201",Cloudy,20,13,23,14,20,66,30.18 Steady ,13,10,WSW,6
Sun Jan 31 03:33:36 2010," US and USA, WI and Wisconsin, Milwaukee, 53201",Cloudy,20,14,23,14,20,70,30.16 Steady ,14,10,WSW,5
Sun Jan 31 04:17:24 2010," US and USA, WI and Wisconsin, Milwaukee, 53201",Cloudy,20,14,23,14,20,66,30.16 Steady ,12,10,W,5
Sun Jan 31 05:01:40 2010," US and USA, WI and Wisconsin, Milwaukee, 53201",Cloudy,20,20,23,14,20,64,30.16 Steady ,12,10,W,3
Sun Jan 31 05:48:03 2010," US and USA, WI and Wisconsin, Milwaukee, 53201",Mostly Cloudy,18,18,23,14,20,66,30.15 Steady ,11,10,WSW,4
Sun Jan 31 06:32:54 2010," US and USA, WI and Wisconsin, Milwaukee, 53201",Cloudy,18,18,23,14,20,69,30.15 Steady ,11,10,WSW,4
Sun Jan 31 07:15:46 2010," US and USA, WI and Wisconsin, Milwaukee, 53201",Partly Cloudy,17,10,23,14,10,70,30.15 Steady ,10,10,WSW,4
Sun Jan 31 08:02:30 2010," US and USA, WI and Wisconsin, Milwaukee, 53201",Partly Cloudy,18,11,23,14,10,65,30.15 Rising ,9,10,WSW,5
Sun Jan 31 08:47:10 2010," US and USA, WI and Wisconsin, Milwaukee, 53201",Partly Cloudy,16,9,23,14,10,70,30.14 Steady ,9,9,WSW,4
Sun Jan 31 09:30:25 2010," US and USA, WI and Wisconsin, Milwaukee, 53201",Mostly Cloudy,15,7,23,14,10,71,30.15 Rising ,9,9,WSW,5
Sun Jan 31 10:13:36 2010," US and USA, WI and Wisconsin, Milwaukee, 53201",Partly Cloudy,14,5,22,12,10,71,30.13 Falling Rapidly ,7,9,WSW,5
Sun Jan 31 10:57:23 2010," US and USA, WI and Wisconsin, Milwaukee, 53201",Partly Cloudy,14,14,22,12,10,70,30.13 Steady ,7,9,W,4
Sun Jan 31 11:40:55 2010," US and USA, WI and Wisconsin, Milwaukee, 53201",Partly Cloudy,13,5,22,12,10,67,30.13 Steady ,5,9,WSW,5
Sun Jan 31 12:24:30 2010," US and USA, WI and Wisconsin, Milwaukee, 53201",Partly Cloudy,12,2,22,12,10,67,30.14 Rising ,5,9,WSW,7
Sun Jan 31 13:07:53 2010," US and USA, WI and Wisconsin, Milwaukee, 53201",Partly Cloudy,12,2,22,12,10,66,30.14 Steady ,4,10,W,6
Sun Jan 31 13:51:30 2010," US and USA, WI and Wisconsin, Milwaukee, 53201",Cloudy,13,3,22,12,10,66,30.13 Steady ,5,9,W,6
Sun Jan 31 14:34:18 2010," US and USA, WI and Wisconsin, Milwaukee, 53201",Cloudy,13,4,22,12,10,64,30.14 Steady ,5,10,W,6
Sun Jan 31 15:18:24 2010," US and USA, WI and Wisconsin, Milwaukee, 53201",Cloudy,13,3,22,12,10,60,30.14 Steady ,4,9,W,7
Sun Jan 31 16:01:56 2010," US and USA, WI and Wisconsin, Milwaukee, 53201",Cloudy,13,3,22,12,10,60,30.14 Steady ,4,9,W,7
Sun Jan 31 16:51:44 2010," US and USA, WI and Wisconsin, Milwaukee, 53201",Sunny,15,3,21,12,10,58,30.16 Steady ,5,9,W,9
Sun Jan 31 17:35:21 2010," US and USA, WI and Wisconsin, Milwaukee, 53201",Mostly Sunny,16,4,21,12,10,50,30.16 Steady ,4,9,W,11
Sun Jan 31 18:20:21 2010," US and USA, WI and Wisconsin, Milwaukee, 53201",Sunny,18,5,21,12,10,46,30.16 Steady ,4,9,W,12to17
Sun Jan 31 19:04:09 2010," US and USA, WI and Wisconsin, Milwaukee, 53201",Sunny,18,5,21,12,10,46,30.16 Steady ,4,9,WNW,13to18
Sun Jan 31 19:49:38 2010," US and USA, WI and Wisconsin, Milwaukee, 53201",Sunny,21,9,22,12,10,40,30.15 Steady ,4,9,W,12to19
Sun Jan 31 20:32:28 2010," US and USA, WI and Wisconsin, Milwaukee, 53201",Sunny,22,10,22,12,10,38,30.14 Rising ,4,10,W,12to17
Sun Jan 31 21:17:06 2010," US and USA, WI and Wisconsin, Milwaukee, 53201",Cloudy,23,11,22,12,10,37,30.15 Rising ,5,10,W,13to22
Sun Jan 31 21:59:54 2010," US and USA, WI and Wisconsin, Milwaukee, 53201",Cloudy,23,10,22,12,10,37,30.15 Steady ,4,10,WNW,13to23
Sun Jan 31 22:44:42 2010," US and USA, WI and Wisconsin, Milwaukee, 53201",Partly Cloudy,22,9,22,12,10,39,30.18 Rising ,4,8,NW,14to22
Sun Jan 31 23:28:03 2010," US and USA, WI and Wisconsin, Milwaukee, 53201",Partly Cloudy,22,10,22,12,10,41,30.20 Rising Rapidly ,5,8,NW,11
Mon Feb  1 00:12:00 2010," US and USA, WI and Wisconsin, Milwaukee, 53201",Mostly Cloudy,20,8,22,12,10,42,30.22 Rising Rapidly ,4,9,WNW,11
Mon Feb  1 00:54:56 2010," US and USA, WI and Wisconsin, Milwaukee, 53201",Mostly Cloudy,20,8,22,12,10,43,30.22 Steady ,4,9,WNW,11
Mon Feb  1 01:41:13 2010," US and USA, WI and Wisconsin, Milwaukee, 53201",Clear,18,8,22,12,10,48,30.24 Steady ,4,9,WNW,8
Mon Feb  1 02:25:13 2010," US and USA, WI and Wisconsin, Milwaukee, 53201",Clear,17,8,22,12,20,51,30.25 Rising ,5,10,NW,6
Mon Feb  1 03:08:53 2010," US and USA, WI and Wisconsin, Milwaukee, 53201",Clear,15,5,22,12,20,55,30.25 Steady ,4,9,WNW,6
Mon Feb  1 03:53:34 2010," US and USA, WI and Wisconsin, Milwaukee, 53201",Clear,15,7,22,12,20,54,30.27 Rising ,3,9,NW,5
Mon Feb  1 04:38:23 2010," US and USA, WI and Wisconsin, Milwaukee, 53201",Partly Cloudy,13,4,22,12,20,55,30.27 Steady ,2,9,NW,6
Mon Feb  1 05:21:31 2010," US and USA, WI and Wisconsin, Milwaukee, 53201",Mostly Clear,13,3,22,12,10,56,30.29 Rising ,2,9,WNW,6
Mon Feb  1 06:06:25 2010," US and USA, WI and Wisconsin, Milwaukee, 53201",Mostly Clear,12,3,22,11,20,57,30.29 Steady ,2,9,NW,6
Mon Feb  1 06:49:34 2010," US and USA, WI and Wisconsin, Milwaukee, 53201",Mostly Clear,11,2,22,11,20,57,30.29 Steady ,1,10,NW,5
Mon Feb  1 07:33:24 2010," US and USA, WI and Wisconsin, Milwaukee, 53201",Partly Cloudy,10,1,22,11,30,58,30.29 Steady ,1,10,NW,6
Mon Feb  1 08:16:49 2010," US and USA, WI and Wisconsin, Milwaukee, 53201",Partly Cloudy,10,0,22,12,30,60,30.29 Steady ,0,10,WNW,6
Mon Feb  1 09:00:17 2010," US and USA, WI and Wisconsin, Milwaukee, 53201",Mostly Clear,9,9,22,12,30,60,30.30 Steady ,0,9,NW,2
Mon Feb  1 09:43:14 2010," US and USA, WI and Wisconsin, Milwaukee, 53201",Mostly Clear,9,9,25,22,30,63,30.30 Steady ,0,10,WNW,1
Mon Feb  1 10:26:47 2010," US and USA, WI and Wisconsin, Milwaukee, 53201",Partly Cloudy,8,8,25,22,30,66,30.29 Falling ,1,10,CALM,0
Mon Feb  1 11:09:44 2010," US and USA, WI and Wisconsin, Milwaukee, 53201",Mostly Clear,8,8,25,22,30,66,30.29 Steady ,0,10,CALM,0
Mon Feb  1 11:53:11 2010," US and USA, WI and Wisconsin, Milwaukee, 53201",Clear,9,9,25,22,30,64,30.30 Steady ,1,10,WNW,2
Mon Feb  1 12:36:34 2010," US and USA, WI and Wisconsin, Milwaukee, 53201",Mostly Cloudy,11,11,25,22,30,60,30.29 Steady ,2,9,WNW,1
Mon Feb  1 13:20:05 2010," US and USA, WI and Wisconsin, Milwaukee, 53201",Cloudy,12,12,25,22,30,60,30.29 Steady ,2,9,WNW,1
Mon Feb  1 14:03:59 2010," US and USA, WI and Wisconsin, Milwaukee, 53201",Cloudy,14,14,25,22,30,60,30.29 Steady ,5,8,NW,1
Mon Feb  1 14:49:02 2010," US and USA, WI and Wisconsin, Milwaukee, 53201",Cloudy,14,14,25,22,30,60,30.30 Steady ,4,9,WNW,2
Mon Feb  1 15:32:47 2010," US and USA, WI and Wisconsin, Milwaukee, 53201",Cloudy,14,14,25,22,30,61,30.32 Steady ,5,9,WSW,1
Mon Feb  1 16:17:31 2010," US and USA, WI and Wisconsin, Milwaukee, 53201",Cloudy,16,16,25,22,30,62,30.32 Steady ,7,9,WSW,2
Mon Feb  1 17:02:17 2010," US and USA, WI and Wisconsin, Milwaukee, 53201",Cloudy,16,16,25,22,30,58,30.31 Steady ,6,6,CALM,0
Mon Feb  1 17:46:05 2010," US and USA, WI and Wisconsin, Milwaukee, 53201",Cloudy,19,19,24,22,30,54,30.31 Steady ,8,8,CALM,0
Mon Feb  1 18:29:34 2010," US and USA, WI and Wisconsin, Milwaukee, 53201",Cloudy,21,21,24,22,30,49,30.30 Falling ,8,8,CALM,0
Mon Feb  1 19:13:21 2010," US and USA, WI and Wisconsin, Milwaukee, 53201",Cloudy,22,22,25,22,30,45,30.28 Falling Rapidly ,7,9,CALM,0
Mon Feb  1 19:58:11 2010," US and USA, WI and Wisconsin, Milwaukee, 53201",Cloudy,22,22,25,22,30,45,30.28 Steady ,8,9,CALM,0
Mon Feb  1 20:44:36 2010," US and USA, WI and Wisconsin, Milwaukee, 53201",Cloudy,24,24,25,22,30,44,30.24 Steady ,8,10,CALM,0
Mon Feb  1 21:29:36 2010," US and USA, WI and Wisconsin, Milwaukee, 53201",Mostly Cloudy,25,25,25,22,30,44,30.22 Falling Rapidly ,9,9,ENE,3
Mon Feb  1 22:12:57 2010," US and USA, WI and Wisconsin, Milwaukee, 53201",Cloudy,25,25,25,23,60,45,30.21 Falling ,10,9,E,2
Mon Feb  1 22:56:17 2010," US and USA, WI and Wisconsin, Milwaukee, 53201",Cloudy,25,25,25,23,60,49,30.21 Steady ,11,8,E,2
Mon Feb  1 23:42:24 2010," US and USA, WI and Wisconsin, Milwaukee, 53201",Cloudy,25,17,25,23,60,48,30.21 Steady ,11,9,E,6
Tue Feb  2 00:29:18 2010," US and USA, WI and Wisconsin, Milwaukee, 53201",Cloudy,26,19,25,23,60,49,30.20 Falling ,12,9,ESE,6
Tue Feb  2 01:14:54 2010," US and USA, WI and Wisconsin, Milwaukee, 53201",Cloudy,24,18,25,23,80,61,30.20 Steady ,14,9,ESE,5
Tue Feb  2 01:58:01 2010," US and USA, WI and Wisconsin, Milwaukee, 53201",Cloudy,23,17,25,23,80,64,30.20 Steady ,15,8,E,5
Tue Feb  2 02:42:04 2010," US and USA, WI and Wisconsin, Milwaukee, 53201",Cloudy,23,17,25,23,80,66,30.19 Steady ,15,9,E,4
Tue Feb  2 03:25:35 2010," US and USA, WI and Wisconsin, Milwaukee, 53201",Cloudy,23,23,25,23,80,66,30.18 Falling ,15,8,CALM,0
Tue Feb  2 04:09:22 2010," US and USA, WI and Wisconsin, Milwaukee, 53201",Cloudy,23,23,25,23,80,70,30.18 Steady ,17,8,CALM,0
Tue Feb  2 04:52:55 2010," US and USA, WI and Wisconsin, Milwaukee, 53201",Cloudy,25,25,25,24,80,73,30.16 Steady ,19,5,CALM,0
Tue Feb  2 05:36:19 2010," US and USA, WI and Wisconsin, Milwaukee, 53201",Flurries,24,24,25,23,80,93,30.15 Falling ,23,2.6,CALM,0
Tue Feb  2 06:19:36 2010," US and USA, WI and Wisconsin, Milwaukee, 53201",Snow Showers,24,24,25,23,80,89,30.15 Steady ,22,2,SSW,2
Tue Feb  2 07:06:44 2010," US and USA, WI and Wisconsin, Milwaukee, 53201",Snow Showers,25,25,25,23,60,90,30.15 Steady ,22,2,S,2
Tue Feb  2 07:49:43 2010," US and USA, WI and Wisconsin, Milwaukee, 53201",Snow Showers,24,24,25,24,60,93,30.14 Steady ,23,2.4,SE,2
Tue Feb  2 08:32:55 2010," US and USA, WI and Wisconsin, Milwaukee, 53201",Snow Showers,24,24,25,24,60,91,30.13 Steady ,23,2.4,CALM,0
Tue Feb  2 09:16:25 2010," US and USA, WI and Wisconsin, Milwaukee, 53201",Flurries,25,25,25,24,60,94,30.12 Falling ,23,1.5,CALM,0
Tue Feb  2 09:59:56 2010," US and USA, WI and Wisconsin, Milwaukee, 53201",Flurries,25,25,31,22,60,94,30.11 Falling ,23,1.6,CALM,0
Tue Feb  2 10:43:31 2010," US and USA, WI and Wisconsin, Milwaukee, 53201",Flurries,25,25,31,22,60,91,30.09 Steady ,23,1.9,CALM,0
Tue Feb  2 11:27:38 2010," US and USA, WI and Wisconsin, Milwaukee, 53201",Snow Showers,25,25,31,22,60,94,30.07 Falling ,23,0.8,ENE,1
Tue Feb  2 12:11:39 2010," US and USA, WI and Wisconsin, Milwaukee, 53201",Snow Showers,25,25,31,22,60,95,30.07 Steady ,24,1.2,E,1
Tue Feb  2 12:55:31 2010," US and USA, WI and Wisconsin, Milwaukee, 53201",Flurries,25,25,31,22,60,94,30.06 Steady ,24,1.7,CALM,0
Tue Feb  2 13:38:53 2010," US and USA, WI and Wisconsin, Milwaukee, 53201",Snow Showers,27,27,31,22,60,88,30.04 Steady ,24,2.9,CALM,0
Tue Feb  2 14:22:32 2010," US and USA, WI and Wisconsin, Milwaukee, 53201",Snow Showers,27,27,31,22,80,90,30.02 Falling Rapidly ,25,1.5,CALM,0
Tue Feb  2 15:06:53 2010," US and USA, WI and Wisconsin, Milwaukee, 53201",Snow Showers,27,27,31,22,80,91,30.02 Steady ,25,2.8,CALM,0
Tue Feb  2 15:53:18 2010," US and USA, WI and Wisconsin, Milwaukee, 53201",Snow,27,27,31,22,80,95,30.02 Steady ,26,0.3,S,2
Tue Feb  2 16:45:47 2010," US and USA, WI and Wisconsin, Milwaukee, 53201",Snow Showers,29,29,32,22,80,86,30.01 Falling ,26,2.4,S,3
Tue Feb  2 17:34:15 2010," US and USA, WI and Wisconsin, Milwaukee, 53201",Snow Showers,29,29,31,22,80,90,30.01 Steady ,27,0.8,S,4
Tue Feb  2 18:18:51 2010," US and USA, WI and Wisconsin, Milwaukee, 53201",Snow Showers,31,24,31,22,80,81,30.00 Steady ,27,1.7,S,7
Tue Feb  2 19:03:02 2010," US and USA, WI and Wisconsin, Milwaukee, 53201",Snow Showers,31,24,31,22,80,85,29.99 Falling ,27,2.8,S,6
Tue Feb  2 19:52:27 2010," US and USA, WI and Wisconsin, Milwaukee, 53201",Snow Showers,31,25,31,23,60,76,29.98 Steady ,26,2.6,S,6
Tue Feb  2 20:43:36 2010," US and USA, WI and Wisconsin, Milwaukee, 53201",Cloudy,31,27,31,23,60,77,29.96 Falling ,26,6,SSW,4
Tue Feb  2 21:30:27 2010," US and USA, WI and Wisconsin, Milwaukee, 53201",Cloudy,31,31,31,23,70,78,29.95 Falling ,26,5,CALM,0
Tue Feb  2 22:18:50 2010," US and USA, WI and Wisconsin, Milwaukee, 53201",Cloudy,30,30,31,23,70,80,29.95 Steady ,26,5,W,2
Tue Feb  2 23:03:07 2010," US and USA, WI and Wisconsin, Milwaukee, 53201",Snow Showers,30,30,31,23,70,82,29.95 Steady ,26,3,W,2
Tue Feb  2 23:48:26 2010," US and USA, WI and Wisconsin, Milwaukee, 53201",Snow Showers,31,31,31,23,70,79,29.96 Steady ,26,3,WSW,3
Wed Feb  3 00:32:51 2010," US and USA, WI and Wisconsin, Milwaukee, 53201",Snow Showers,30,30,31,23,70,85,29.97 Steady ,27,3,W,2
Wed Feb  3 01:20:01 2010," US and USA, WI and Wisconsin, Milwaukee, 53201",Cloudy,31,27,31,23,70,81,29.98 Rising ,27,5,W,4
Wed Feb  3 02:05:14 2010," US and USA, WI and Wisconsin, Milwaukee, 53201",Flurries,31,25,31,23,60,81,29.98 Steady ,26,4,W,5
Wed Feb  3 02:53:31 2010," US and USA, WI and Wisconsin, Milwaukee, 53201",Snow Showers,31,27,31,23,60,80,30.00 Steady ,27,3,W,4
Wed Feb  3 03:40:20 2010," US and USA, WI and Wisconsin, Milwaukee, 53201",Snow Showers,30,24,31,23,60,86,30.01 Steady ,27,3,WNW,5
Wed Feb  3 04:28:29 2010," US and USA, WI and Wisconsin, Milwaukee, 53201",Snow Showers,30,25,31,23,60,86,30.02 Rising ,27,3,W,4
Wed Feb  3 05:15:20 2010," US and USA, WI and Wisconsin, Milwaukee, 53201",Cloudy,30,24,31,23,60,86,30.02 Falling ,27,5,W,5
Wed Feb  3 06:03:08 2010," US and USA, WI and Wisconsin, Milwaukee, 53201",Cloudy,30,25,31,23,60,84,30.03 Steady ,26,5,W,4
Thu Feb  4 06:05:38 2010," US and USA, WI and Wisconsin, Milwaukee, 53201",Mostly Clear,17,17,28,16,20,84,30.38 Steady ,14,7,SSW,2
Thu Feb  4 06:48:42 2010," US and USA, WI and Wisconsin, Milwaukee, 53201",Clear,13,13,28,16,20,87,30.36 Steady ,11,5,CALM,0
Thu Feb  4 07:32:19 2010," US and USA, WI and Wisconsin, Milwaukee, 53201",Mostly Clear,15,15,28,14,10,85,30.36 Falling ,12,5,CALM,0
Thu Feb  4 08:14:51 2010," US and USA, WI and Wisconsin, Milwaukee, 53201",Mostly Clear,14,14,28,14,10,85,30.36 Steady ,11,5,CALM,0
Thu Feb  4 08:58:31 2010," US and USA, WI and Wisconsin, Milwaukee, 53201",Mostly Clear,12,12,28,14,10,87,30.33 Steady ,9,5,CALM,0
Thu Feb  4 09:42:27 2010," US and USA, WI and Wisconsin, Milwaukee, 53201",Mostly Clear,12,12,33,29,20,83,30.33 Steady ,9,5,CALM,0
Thu Feb  4 10:26:07 2010," US and USA, WI and Wisconsin, Milwaukee, 53201",Partly Cloudy,13,13,33,29,10,83,30.35 Rising ,9,6,CALM,0
Thu Feb  4 11:12:02 2010," US and USA, WI and Wisconsin, Milwaukee, 53201",Partly Cloudy,16,8,33,29,10,88,30.38 Rising Rapidly ,14,6,SSW,5
Thu Feb  4 11:55:33 2010," US and USA, WI and Wisconsin, Milwaukee, 53201",Partly Cloudy,17,17,33,29,10,85,30.38 Steady ,14,6,SSW,3
Thu Feb  4 12:38:39 2010," US and USA, WI and Wisconsin, Milwaukee, 53201",Partly Cloudy,15,15,33,29,10,86,30.36 Steady ,12,5,CALM,0
Thu Feb  4 13:22:43 2010," US and USA, WI and Wisconsin, Milwaukee, 53201",Cloudy,16,9,33,29,10,86,30.37 Rising ,13,5,SSW,5
Thu Feb  4 14:07:32 2010," US and USA, WI and Wisconsin, Milwaukee, 53201",Cloudy,19,10,33,29,10,85,30.38 Steady ,16,5,S,7
Wed Feb  3 06:49:52 2010," US and USA, WI and Wisconsin, Milwaukee, 53201",Mostly Cloudy,27,27,31,23,30,89,30.04 Steady ,25,5,NW,1
Wed Feb  3 07:34:21 2010,"US and USA, AZ and Arizona, Phoenix, 85001",Cloudy,60,60,70,53,60,62,29.69 Steady ,47,9,WSW,3
